,City,Type,Place ID,Name,Point of interests,Address,Lat,Lng
0,"San Francisco, California",bank,ChIJ9a3hyi9-j4ARyZ371-xAxTU,Wells Fargo Bank,"['bank', 'atm', 'finance', 'point_of_interest', 'establishment']","2300 16th Street, San Francisco",37.7665937,-122.4094825
1,"San Francisco, California",bank,ChIJDVK5qGaAhYARKKI4hClE6Uo,Bank of America Financial Center,"['bank', 'finance', 'point_of_interest', 'establishment']","1 Market Street, San Francisco",37.7939255,-122.3951306
2,"San Francisco, California",bank,ChIJTdw_KNuAhYARuQJo0oI_kKc,Comerica Bank,"['bank', 'finance', 'point_of_interest', 'establishment']","2001 Union Street, San Francisco",37.7972061,-122.4324051
3,"San Francisco, California",bank,ChIJmQaMSYqAhYARHtqmuaGnsf4,Bank of India,"['bank', 'atm', 'finance', 'point_of_interest', 'establishment']","555 California Street # 4646, San Francisco",37.7920621,-122.4036967
4,"San Francisco, California",bank,ChIJjZ42rYmAhYARV2d969rp-og,Citibank,"['bank', 'finance', 'point_of_interest', 'establishment']","99 Post Street, San Francisco",37.7886788,-122.4033701
5,"San Francisco, California",bank,ChIJhz9XJH2AhYARcC17618p-qE,Patelco Credit Union,"['bank', 'finance', 'point_of_interest', 'establishment']","124 2nd Street, San Francisco",37.7875205,-122.3995725
6,"San Francisco, California",bank,ChIJQ_WBf5yAhYARwxfKaGFr0HU,Wells Fargo Bank,"['bank', 'atm', 'finance', 'point_of_interest', 'establishment']","1266 Market Street, San Francisco",37.77824319999999,-122.4160302
7,"San Francisco, California",bank,ChIJYcw_XYiAhYARKYma-SBx1EY,Chase Bank,"['bank', 'atm', 'finance', 'point_of_interest', 'establishment']","700 Market Street, San Francisco",37.787752,-122.403717
8,"San Francisco, California",bank,ChIJmQaMSYqAhYARoiWjPKrvxk0,Ueki Satoshi,"['bank', 'atm', 'finance', 'point_of_interest', 'establishment']","555 California Street # 3350, San Francisco",37.7920621,-122.4036967
9,"San Francisco, California",bank,ChIJY-aZR2Tx3IARK3DJ2OxfuAg,Union Bank,"['bank', 'atm', 'finance', 'point_of_interest', 'establishment']","1675 Post Street, San Francisco",37.7854672,-122.4292828
10,"San Francisco, California",bank,ChIJNUaYmGOAhYARH8yGnLTcfvI,Wells Fargo Insurance Services,"['insurance_agency', 'atm', 'bank', 'finance', 'point_of_interest', 'establishment']","45 Fremont Street # 800, San Francisco",37.79124890000001,-122.3971488
11,"San Francisco, California",bank,ChIJ0zD-nWKAhYARavh12g_WlB4,Bank of America Financial Center,"['bank', 'finance', 'point_of_interest', 'establishment']","33 New Montgomery St, San Francisco",37.7885853,-122.4012725
12,"San Francisco, California",bank,ChIJ1xWylOp9j4ARB6cbYHcVzmI,Citibank,"['bank', 'finance', 'point_of_interest', 'establishment']","130 West Portal Avenue, San Francisco",37.739484,-122.467742
13,"San Francisco, California",bank,ChIJ5cQ7hZ6AhYARZK6obF69Uh8,Bank of America Financial Center,"['bank', 'finance', 'point_of_interest', 'establishment']","1525 Market St, San Francisco",37.7751643,-122.4189202
14,"San Francisco, California",bank,ChIJwQLfwdaAhYAR8IkXDD32FBE,Citibank,"['bank', 'finance', 'point_of_interest', 'establishment']","2198 Chestnut Street, San Francisco",37.80067820000001,-122.4393773
15,"San Francisco, California",bank,ChIJ8WWHCWCAhYARVjglHQki4w0,Media Venture Partners,"['bank', 'atm', 'finance', 'point_of_interest', 'establishment']","255 California Street #850, San Francisco",37.7970148,-122.4003376
16,"San Francisco, California",bank,ChIJTVAsiuqAhYARH8v6B59W-S0,Citibank,"['bank', 'finance', 'point_of_interest', 'establishment']","1801 Van Ness Avenue, San Francisco",37.792311,-122.423141
17,"San Francisco, California",bank,ChIJVew54GOAhYARJ8NnDRmqZZw,Wells Fargo Bank,"['bank', 'atm', 'finance', 'point_of_interest', 'establishment']","1 California Street, San Francisco",37.7933985,-122.3967649
18,"San Francisco, California",bank,ChIJARFaMY-AhYARKgh34BlqV_U,Cardtronics ATM,"['atm', 'bank', 'finance', 'point_of_interest', 'establishment']","225 Powell Street, San Francisco",37.7868784,-122.4083585
19,"San Francisco, California",bank,ChIJBxCMk2GAhYAR0mQtPA_sbtQ,Citibank,"['bank', 'finance', 'point_of_interest', 'establishment']","260 California Street, San Francisco",37.79339539999999,-122.3998176
20,"San Francisco, California",bank,ChIJ9a3hyi9-j4ARyZ371-xAxTU,Wells Fargo Bank,"['bank', 'atm', 'finance', 'point_of_interest', 'establishment']","2300 16th Street, San Francisco",37.7665937,-122.4094825
21,"San Francisco, California",bank,ChIJDVK5qGaAhYARKKI4hClE6Uo,Bank of America Financial Center,"['bank', 'finance', 'point_of_interest', 'establishment']","1 Market Street, San Francisco",37.7939255,-122.3951306
22,"San Francisco, California",bank,ChIJTdw_KNuAhYARuQJo0oI_kKc,Comerica Bank,"['bank', 'finance', 'point_of_interest', 'establishment']","2001 Union Street, San Francisco",37.7972061,-122.4324051
23,"San Francisco, California",bank,ChIJmQaMSYqAhYARHtqmuaGnsf4,Bank of India,"['bank', 'atm', 'finance', 'point_of_interest', 'establishment']","555 California Street # 4646, San Francisco",37.7920621,-122.4036967
24,"San Francisco, California",bank,ChIJjZ42rYmAhYARV2d969rp-og,Citibank,"['bank', 'finance', 'point_of_interest', 'establishment']","99 Post Street, San Francisco",37.7886788,-122.4033701
25,"San Francisco, California",bank,ChIJhz9XJH2AhYARcC17618p-qE,Patelco Credit Union,"['bank', 'finance', 'point_of_interest', 'establishment']","124 2nd Street, San Francisco",37.7875205,-122.3995725
26,"San Francisco, California",bank,ChIJQ_WBf5yAhYARwxfKaGFr0HU,Wells Fargo Bank,"['bank', 'atm', 'finance', 'point_of_interest', 'establishment']","1266 Market Street, San Francisco",37.77824319999999,-122.4160302
27,"San Francisco, California",bank,ChIJYcw_XYiAhYARKYma-SBx1EY,Chase Bank,"['bank', 'atm', 'finance', 'point_of_interest', 'establishment']","700 Market Street, San Francisco",37.787752,-122.403717
28,"San Francisco, California",bank,ChIJmQaMSYqAhYARoiWjPKrvxk0,Ueki Satoshi,"['bank', 'atm', 'finance', 'point_of_interest', 'establishment']","555 California Street # 3350, San Francisco",37.7920621,-122.4036967
29,"San Francisco, California",bank,ChIJY-aZR2Tx3IARK3DJ2OxfuAg,Union Bank,"['bank', 'atm', 'finance', 'point_of_interest', 'establishment']","1675 Post Street, San Francisco",37.7854672,-122.4292828
30,"San Francisco, California",bank,ChIJNUaYmGOAhYARH8yGnLTcfvI,Wells Fargo Insurance Services,"['insurance_agency', 'atm', 'bank', 'finance', 'point_of_interest', 'establishment']","45 Fremont Street # 800, San Francisco",37.79124890000001,-122.3971488
31,"San Francisco, California",bank,ChIJ0zD-nWKAhYARavh12g_WlB4,Bank of America Financial Center,"['bank', 'finance', 'point_of_interest', 'establishment']","33 New Montgomery St, San Francisco",37.7885853,-122.4012725
32,"San Francisco, California",bank,ChIJ1xWylOp9j4ARB6cbYHcVzmI,Citibank,"['bank', 'finance', 'point_of_interest', 'establishment']","130 West Portal Avenue, San Francisco",37.739484,-122.467742
33,"San Francisco, California",bank,ChIJ5cQ7hZ6AhYARZK6obF69Uh8,Bank of America Financial Center,"['bank', 'finance', 'point_of_interest', 'establishment']","1525 Market St, San Francisco",37.7751643,-122.4189202
34,"San Francisco, California",bank,ChIJwQLfwdaAhYAR8IkXDD32FBE,Citibank,"['bank', 'finance', 'point_of_interest', 'establishment']","2198 Chestnut Street, San Francisco",37.80067820000001,-122.4393773
35,"San Francisco, California",bank,ChIJ8WWHCWCAhYARVjglHQki4w0,Media Venture Partners,"['bank', 'atm', 'finance', 'point_of_interest', 'establishment']","255 California Street #850, San Francisco",37.7970148,-122.4003376
36,"San Francisco, California",bank,ChIJTVAsiuqAhYARH8v6B59W-S0,Citibank,"['bank', 'finance', 'point_of_interest', 'establishment']","1801 Van Ness Avenue, San Francisco",37.792311,-122.423141
37,"San Francisco, California",bank,ChIJVew54GOAhYARJ8NnDRmqZZw,Wells Fargo Bank,"['bank', 'atm', 'finance', 'point_of_interest', 'establishment']","1 California Street, San Francisco",37.7933985,-122.3967649
38,"San Francisco, California",bank,ChIJARFaMY-AhYARKgh34BlqV_U,Cardtronics ATM,"['atm', 'bank', 'finance', 'point_of_interest', 'establishment']","225 Powell Street, San Francisco",37.7868784,-122.4083585
39,"San Francisco, California",bank,ChIJBxCMk2GAhYAR0mQtPA_sbtQ,Citibank,"['bank', 'finance', 'point_of_interest', 'establishment']","260 California Street, San Francisco",37.79339539999999,-122.3998176
40,"San Francisco, California",bank,ChIJ9a3hyi9-j4ARyZ371-xAxTU,Wells Fargo Bank,"['bank', 'atm', 'finance', 'point_of_interest', 'establishment']","2300 16th Street, San Francisco",37.7665937,-122.4094825
41,"San Francisco, California",bank,ChIJDVK5qGaAhYARKKI4hClE6Uo,Bank of America Financial Center,"['bank', 'finance', 'point_of_interest', 'establishment']","1 Market Street, San Francisco",37.7939255,-122.3951306
42,"San Francisco, California",bank,ChIJTdw_KNuAhYARuQJo0oI_kKc,Comerica Bank,"['bank', 'finance', 'point_of_interest', 'establishment']","2001 Union Street, San Francisco",37.7972061,-122.4324051
43,"San Francisco, California",bank,ChIJmQaMSYqAhYARHtqmuaGnsf4,Bank of India,"['bank', 'atm', 'finance', 'point_of_interest', 'establishment']","555 California Street # 4646, San Francisco",37.7920621,-122.4036967
44,"San Francisco, California",bank,ChIJjZ42rYmAhYARV2d969rp-og,Citibank,"['bank', 'finance', 'point_of_interest', 'establishment']","99 Post Street, San Francisco",37.7886788,-122.4033701
45,"San Francisco, California",bank,ChIJhz9XJH2AhYARcC17618p-qE,Patelco Credit Union,"['bank', 'finance', 'point_of_interest', 'establishment']","124 2nd Street, San Francisco",37.7875205,-122.3995725
46,"San Francisco, California",bank,ChIJQ_WBf5yAhYARwxfKaGFr0HU,Wells Fargo Bank,"['bank', 'atm', 'finance', 'point_of_interest', 'establishment']","1266 Market Street, San Francisco",37.77824319999999,-122.4160302
47,"San Francisco, California",bank,ChIJYcw_XYiAhYARKYma-SBx1EY,Chase Bank,"['bank', 'atm', 'finance', 'point_of_interest', 'establishment']","700 Market Street, San Francisco",37.787752,-122.403717
48,"San Francisco, California",bank,ChIJmQaMSYqAhYARoiWjPKrvxk0,Ueki Satoshi,"['bank', 'atm', 'finance', 'point_of_interest', 'establishment']","555 California Street # 3350, San Francisco",37.7920621,-122.4036967
49,"San Francisco, California",bank,ChIJY-aZR2Tx3IARK3DJ2OxfuAg,Union Bank,"['bank', 'atm', 'finance', 'point_of_interest', 'establishment']","1675 Post Street, San Francisco",37.7854672,-122.4292828
50,"San Francisco, California",bank,ChIJNUaYmGOAhYARH8yGnLTcfvI,Wells Fargo Insurance Services,"['insurance_agency', 'atm', 'bank', 'finance', 'point_of_interest', 'establishment']","45 Fremont Street # 800, San Francisco",37.79124890000001,-122.3971488
51,"San Francisco, California",bank,ChIJ0zD-nWKAhYARavh12g_WlB4,Bank of America Financial Center,"['bank', 'finance', 'point_of_interest', 'establishment']","33 New Montgomery St, San Francisco",37.7885853,-122.4012725
52,"San Francisco, California",bank,ChIJ1xWylOp9j4ARB6cbYHcVzmI,Citibank,"['bank', 'finance', 'point_of_interest', 'establishment']","130 West Portal Avenue, San Francisco",37.739484,-122.467742
53,"San Francisco, California",bank,ChIJ5cQ7hZ6AhYARZK6obF69Uh8,Bank of America Financial Center,"['bank', 'finance', 'point_of_interest', 'establishment']","1525 Market St, San Francisco",37.7751643,-122.4189202
54,"San Francisco, California",bank,ChIJwQLfwdaAhYAR8IkXDD32FBE,Citibank,"['bank', 'finance', 'point_of_interest', 'establishment']","2198 Chestnut Street, San Francisco",37.80067820000001,-122.4393773
55,"San Francisco, California",bank,ChIJ8WWHCWCAhYARVjglHQki4w0,Media Venture Partners,"['bank', 'atm', 'finance', 'point_of_interest', 'establishment']","255 California Street #850, San Francisco",37.7970148,-122.4003376
56,"San Francisco, California",bank,ChIJTVAsiuqAhYARH8v6B59W-S0,Citibank,"['bank', 'finance', 'point_of_interest', 'establishment']","1801 Van Ness Avenue, San Francisco",37.792311,-122.423141
57,"San Francisco, California",bank,ChIJVew54GOAhYARJ8NnDRmqZZw,Wells Fargo Bank,"['bank', 'atm', 'finance', 'point_of_interest', 'establishment']","1 California Street, San Francisco",37.7933985,-122.3967649
58,"San Francisco, California",bank,ChIJARFaMY-AhYARKgh34BlqV_U,Cardtronics ATM,"['atm', 'bank', 'finance', 'point_of_interest', 'establishment']","225 Powell Street, San Francisco",37.7868784,-122.4083585
59,"San Francisco, California",bank,ChIJBxCMk2GAhYAR0mQtPA_sbtQ,Citibank,"['bank', 'finance', 'point_of_interest', 'establishment']","260 California Street, San Francisco",37.79339539999999,-122.3998176
0,"Redwood City, California",bank,ChIJc0HT3lKij4AR_JbNU7znOew,Bank of America Financial Center,"['bank', 'finance', 'point_of_interest', 'establishment']","700 Jefferson Ave, Redwood City",37.4873498,-122.2286041
1,"Redwood City, California",bank,ChIJVSmovFKij4ARwsMao7v4YR0,Wells Fargo Bank,"['bank', 'atm', 'finance', 'point_of_interest', 'establishment']","1900 Broadway, Redwood City",37.4869947,-122.225714
2,"Redwood City, California",bank,ChIJ4Rq1aFikj4ARONcWjZItdRE,Silicon Valley Bank,"['bank', 'finance', 'point_of_interest', 'establishment']","3000 Sand Hill Road Building 3, Suite 150, Menlo Park",37.4240894,-122.2220474
3,"Redwood City, California",bank,ChIJEaVbJFOij4AR4RAOO7dtY7Y,Citibank,"['bank', 'finance', 'point_of_interest', 'establishment']","1073 El Camino Real, Redwood City",37.4841789,-122.2300203
4,"Redwood City, California",bank,ChIJuYf4STUfU4gR83UpZMWCn6Q,Bank of America Financial Center,"['bank', 'finance', 'point_of_interest', 'establishment']","909 East Hillsdale Boulevard, Foster City",37.5549892,-122.2775848
5,"Redwood City, California",bank,ChIJ4Rq1aFikj4AR0Q_j3NwLu9o,Voyager Capital,"['atm', 'bank', 'finance', 'point_of_interest', 'establishment']","3000 Sand Hill Circle, Menlo Park",37.4232706,-122.220579
6,"Redwood City, California",bank,ChIJn3tv0q-kj4ARRSYjxgUKco8,Bank of America Financial Center,"['bank', 'finance', 'point_of_interest', 'establishment']","633 Santa Cruz Ave, Menlo Park",37.452896,-122.1832468
7,"Redwood City, California",bank,ChIJz5FDb66Yj4ARtBbSedYxlUM,Provident Credit Union (Corporate Office),"['atm', 'bank', 'insurance_agency', 'finance', 'point_of_interest', 'establishment']","303 Twin Dolphin Drive, Redwood City",37.5234719,-122.2586525
8,"Redwood City, California",bank,ChIJMcEiqK-Yj4AR7i2LILdONDU,Bank of America Financial Center,"['bank', 'finance', 'point_of_interest', 'establishment']","250 Redwood Shores Parkway a, Redwood City",37.52191699999999,-122.252564
9,"Redwood City, California",bank,ChIJ_Yut_K-kj4ARnuq2hKiC74c,Comerica Bank,"['bank', 'finance', 'point_of_interest', 'establishment']","800 Oak Grove Avenue, Menlo Park",37.4518331,-122.1869105
10,"Redwood City, California",bank,ChIJ1Wyiz4Sjj4ART2L7888Onag,Wells Fargo Bank,"['bank', 'atm', 'finance', 'point_of_interest', 'establishment']","1500 Woodside Road, Redwood City",37.456972,-122.2280073
11,"Redwood City, California",bank,ChIJX3GdSDm7j4AR0yFBlzZfG_8,Wells Fargo Bank,"['bank', 'atm', 'finance', 'point_of_interest', 'establishment']","400 Hamilton Avenue, Palo Alto",37.4465254,-122.1585059
12,"Redwood City, California",bank,ChIJ47xiiDi7j4ARyVURTD3-ndQ,Bank of America Financial Center,"['bank', 'finance', 'point_of_interest', 'establishment']","530 Lytton Ave, Palo Alto",37.449283,-122.1599
13,"Redwood City, California",bank,ChIJPd8zEN6kj4ARj6nSTPD3N_g,Wells Fargo Bank,"['bank', 'atm', 'finance', 'point_of_interest', 'establishment']","325 Sharon Park Drive, Menlo Park",37.4232255,-122.1976664
14,"Redwood City, California",bank,ChIJQfeaUgOij4AR27uuj7qOraY,Comerica Bank,"['bank', 'finance', 'point_of_interest', 'establishment']","644 Laurel Street, San Carlos",37.50570629999999,-122.2604319
15,"Redwood City, California",bank,ChIJB6W0JTi7j4AR6rRdsLblZw8,Presidio Bank,"['bank', 'atm', 'finance', 'point_of_interest', 'establishment']","325 Lytton Avenue #101, Palo Alto",37.44724639999999,-122.1627226
16,"Redwood City, California",bank,ChIJO6sPxaWYj4AR6g21CVALXvE,Wells Fargo Bank,"['bank', 'atm', 'finance', 'point_of_interest', 'establishment']","270 Redwood Shores Parkway, Redwood City",37.5233054,-122.2518094
17,"Redwood City, California",bank,ChIJeZJ7ZTe7j4AR1xFFKVYq-5k,Comerica Bank,"['bank', 'finance', 'point_of_interest', 'establishment']","250 Lytton Avenue, Palo Alto",37.4457867,-122.163405
18,"Redwood City, California",bank,ChIJJQ-347Gkj4ARbNcohXrsaoA,Century Park Capital Partners,"['bank', 'atm', 'finance', 'point_of_interest', 'establishment']","750 Menlo Avenue Suite 200, Menlo Park",37.45060699999999,-122.1839288
19,"Redwood City, California",bank,ChIJEXTzRimfj4ARKfV9RFyUZ7A,Citibank,"['bank', 'finance', 'point_of_interest', 'establishment']","951 Edgewater Boulevard, Foster City",37.54435199999999,-122.271488
20,"Redwood City, California",bank,ChIJc0HT3lKij4AR_JbNU7znOew,Bank of America Financial Center,"['bank', 'finance', 'point_of_interest', 'establishment']","700 Jefferson Ave, Redwood City",37.4873498,-122.2286041
21,"Redwood City, California",bank,ChIJVSmovFKij4ARwsMao7v4YR0,Wells Fargo Bank,"['bank', 'atm', 'finance', 'point_of_interest', 'establishment']","1900 Broadway, Redwood City",37.4869947,-122.225714
22,"Redwood City, California",bank,ChIJ4Rq1aFikj4ARONcWjZItdRE,Silicon Valley Bank,"['bank', 'finance', 'point_of_interest', 'establishment']","3000 Sand Hill Road Building 3, Suite 150, Menlo Park",37.4240894,-122.2220474
23,"Redwood City, California",bank,ChIJEaVbJFOij4AR4RAOO7dtY7Y,Citibank,"['bank', 'finance', 'point_of_interest', 'establishment']","1073 El Camino Real, Redwood City",37.4841789,-122.2300203
24,"Redwood City, California",bank,ChIJuYf4STUfU4gR83UpZMWCn6Q,Bank of America Financial Center,"['bank', 'finance', 'point_of_interest', 'establishment']","909 East Hillsdale Boulevard, Foster City",37.5549892,-122.2775848
25,"Redwood City, California",bank,ChIJ4Rq1aFikj4AR0Q_j3NwLu9o,Voyager Capital,"['atm', 'bank', 'finance', 'point_of_interest', 'establishment']","3000 Sand Hill Circle, Menlo Park",37.4232706,-122.220579
26,"Redwood City, California",bank,ChIJn3tv0q-kj4ARRSYjxgUKco8,Bank of America Financial Center,"['bank', 'finance', 'point_of_interest', 'establishment']","633 Santa Cruz Ave, Menlo Park",37.452896,-122.1832468
27,"Redwood City, California",bank,ChIJz5FDb66Yj4ARtBbSedYxlUM,Provident Credit Union (Corporate Office),"['atm', 'bank', 'insurance_agency', 'finance', 'point_of_interest', 'establishment']","303 Twin Dolphin Drive, Redwood City",37.5234719,-122.2586525
28,"Redwood City, California",bank,ChIJMcEiqK-Yj4AR7i2LILdONDU,Bank of America Financial Center,"['bank', 'finance', 'point_of_interest', 'establishment']","250 Redwood Shores Parkway a, Redwood City",37.52191699999999,-122.252564
29,"Redwood City, California",bank,ChIJ_Yut_K-kj4ARnuq2hKiC74c,Comerica Bank,"['bank', 'finance', 'point_of_interest', 'establishment']","800 Oak Grove Avenue, Menlo Park",37.4518331,-122.1869105
30,"Redwood City, California",bank,ChIJ1Wyiz4Sjj4ART2L7888Onag,Wells Fargo Bank,"['bank', 'atm', 'finance', 'point_of_interest', 'establishment']","1500 Woodside Road, Redwood City",37.456972,-122.2280073
31,"Redwood City, California",bank,ChIJX3GdSDm7j4AR0yFBlzZfG_8,Wells Fargo Bank,"['bank', 'atm', 'finance', 'point_of_interest', 'establishment']","400 Hamilton Avenue, Palo Alto",37.4465254,-122.1585059
32,"Redwood City, California",bank,ChIJ47xiiDi7j4ARyVURTD3-ndQ,Bank of America Financial Center,"['bank', 'finance', 'point_of_interest', 'establishment']","530 Lytton Ave, Palo Alto",37.449283,-122.1599
33,"Redwood City, California",bank,ChIJPd8zEN6kj4ARj6nSTPD3N_g,Wells Fargo Bank,"['bank', 'atm', 'finance', 'point_of_interest', 'establishment']","325 Sharon Park Drive, Menlo Park",37.4232255,-122.1976664
34,"Redwood City, California",bank,ChIJQfeaUgOij4AR27uuj7qOraY,Comerica Bank,"['bank', 'finance', 'point_of_interest', 'establishment']","644 Laurel Street, San Carlos",37.50570629999999,-122.2604319
35,"Redwood City, California",bank,ChIJB6W0JTi7j4AR6rRdsLblZw8,Presidio Bank,"['bank', 'atm', 'finance', 'point_of_interest', 'establishment']","325 Lytton Avenue #101, Palo Alto",37.44724639999999,-122.1627226
36,"Redwood City, California",bank,ChIJO6sPxaWYj4AR6g21CVALXvE,Wells Fargo Bank,"['bank', 'atm', 'finance', 'point_of_interest', 'establishment']","270 Redwood Shores Parkway, Redwood City",37.5233054,-122.2518094
37,"Redwood City, California",bank,ChIJeZJ7ZTe7j4AR1xFFKVYq-5k,Comerica Bank,"['bank', 'finance', 'point_of_interest', 'establishment']","250 Lytton Avenue, Palo Alto",37.4457867,-122.163405
38,"Redwood City, California",bank,ChIJJQ-347Gkj4ARbNcohXrsaoA,Century Park Capital Partners,"['bank', 'atm', 'finance', 'point_of_interest', 'establishment']","750 Menlo Avenue Suite 200, Menlo Park",37.45060699999999,-122.1839288
39,"Redwood City, California",bank,ChIJEXTzRimfj4ARKfV9RFyUZ7A,Citibank,"['bank', 'finance', 'point_of_interest', 'establishment']","951 Edgewater Boulevard, Foster City",37.54435199999999,-122.271488
40,"Redwood City, California",bank,ChIJc0HT3lKij4AR_JbNU7znOew,Bank of America Financial Center,"['bank', 'finance', 'point_of_interest', 'establishment']","700 Jefferson Ave, Redwood City",37.4873498,-122.2286041
41,"Redwood City, California",bank,ChIJVSmovFKij4ARwsMao7v4YR0,Wells Fargo Bank,"['bank', 'atm', 'finance', 'point_of_interest', 'establishment']","1900 Broadway, Redwood City",37.4869947,-122.225714
42,"Redwood City, California",bank,ChIJ4Rq1aFikj4ARONcWjZItdRE,Silicon Valley Bank,"['bank', 'finance', 'point_of_interest', 'establishment']","3000 Sand Hill Road Building 3, Suite 150, Menlo Park",37.4240894,-122.2220474
43,"Redwood City, California",bank,ChIJEaVbJFOij4AR4RAOO7dtY7Y,Citibank,"['bank', 'finance', 'point_of_interest', 'establishment']","1073 El Camino Real, Redwood City",37.4841789,-122.2300203
44,"Redwood City, California",bank,ChIJuYf4STUfU4gR83UpZMWCn6Q,Bank of America Financial Center,"['bank', 'finance', 'point_of_interest', 'establishment']","909 East Hillsdale Boulevard, Foster City",37.5549892,-122.2775848
45,"Redwood City, California",bank,ChIJ4Rq1aFikj4AR0Q_j3NwLu9o,Voyager Capital,"['atm', 'bank', 'finance', 'point_of_interest', 'establishment']","3000 Sand Hill Circle, Menlo Park",37.4232706,-122.220579
46,"Redwood City, California",bank,ChIJn3tv0q-kj4ARRSYjxgUKco8,Bank of America Financial Center,"['bank', 'finance', 'point_of_interest', 'establishment']","633 Santa Cruz Ave, Menlo Park",37.452896,-122.1832468
47,"Redwood City, California",bank,ChIJz5FDb66Yj4ARtBbSedYxlUM,Provident Credit Union (Corporate Office),"['atm', 'bank', 'insurance_agency', 'finance', 'point_of_interest', 'establishment']","303 Twin Dolphin Drive, Redwood City",37.5234719,-122.2586525
48,"Redwood City, California",bank,ChIJMcEiqK-Yj4AR7i2LILdONDU,Bank of America Financial Center,"['bank', 'finance', 'point_of_interest', 'establishment']","250 Redwood Shores Parkway a, Redwood City",37.52191699999999,-122.252564
49,"Redwood City, California",bank,ChIJ_Yut_K-kj4ARnuq2hKiC74c,Comerica Bank,"['bank', 'finance', 'point_of_interest', 'establishment']","800 Oak Grove Avenue, Menlo Park",37.4518331,-122.1869105
50,"Redwood City, California",bank,ChIJ1Wyiz4Sjj4ART2L7888Onag,Wells Fargo Bank,"['bank', 'atm', 'finance', 'point_of_interest', 'establishment']","1500 Woodside Road, Redwood City",37.456972,-122.2280073
51,"Redwood City, California",bank,ChIJX3GdSDm7j4AR0yFBlzZfG_8,Wells Fargo Bank,"['bank', 'atm', 'finance', 'point_of_interest', 'establishment']","400 Hamilton Avenue, Palo Alto",37.4465254,-122.1585059
52,"Redwood City, California",bank,ChIJ47xiiDi7j4ARyVURTD3-ndQ,Bank of America Financial Center,"['bank', 'finance', 'point_of_interest', 'establishment']","530 Lytton Ave, Palo Alto",37.449283,-122.1599
53,"Redwood City, California",bank,ChIJPd8zEN6kj4ARj6nSTPD3N_g,Wells Fargo Bank,"['bank', 'atm', 'finance', 'point_of_interest', 'establishment']","325 Sharon Park Drive, Menlo Park",37.4232255,-122.1976664
54,"Redwood City, California",bank,ChIJQfeaUgOij4AR27uuj7qOraY,Comerica Bank,"['bank', 'finance', 'point_of_interest', 'establishment']","644 Laurel Street, San Carlos",37.50570629999999,-122.2604319
55,"Redwood City, California",bank,ChIJB6W0JTi7j4AR6rRdsLblZw8,Presidio Bank,"['bank', 'atm', 'finance', 'point_of_interest', 'establishment']","325 Lytton Avenue #101, Palo Alto",37.44724639999999,-122.1627226
56,"Redwood City, California",bank,ChIJO6sPxaWYj4AR6g21CVALXvE,Wells Fargo Bank,"['bank', 'atm', 'finance', 'point_of_interest', 'establishment']","270 Redwood Shores Parkway, Redwood City",37.5233054,-122.2518094
57,"Redwood City, California",bank,ChIJeZJ7ZTe7j4AR1xFFKVYq-5k,Comerica Bank,"['bank', 'finance', 'point_of_interest', 'establishment']","250 Lytton Avenue, Palo Alto",37.4457867,-122.163405
58,"Redwood City, California",bank,ChIJJQ-347Gkj4ARbNcohXrsaoA,Century Park Capital Partners,"['bank', 'atm', 'finance', 'point_of_interest', 'establishment']","750 Menlo Avenue Suite 200, Menlo Park",37.45060699999999,-122.1839288
59,"Redwood City, California",bank,ChIJEXTzRimfj4ARKfV9RFyUZ7A,Citibank,"['bank', 'finance', 'point_of_interest', 'establishment']","951 Edgewater Boulevard, Foster City",37.54435199999999,-122.271488
0,"Berkeley, California",bank,ChIJE5sbf7aAj4ARGcJI1sAxs9U,Bank of America Financial Center,"['bank', 'finance', 'point_of_interest', 'establishment']","388 9th Street #168, Oakland",37.8006417,-122.271653
1,"Berkeley, California",bank,ChIJb5ODKE2Hj4ARMbtwYrxi_58,Mechanics Bank,"['bank', 'finance', 'point_of_interest', 'establishment']","Lake Merritt Plaza, 1999 Harrison Street #100, Oakland",37.8078456,-122.2650785
2,"Berkeley, California",bank,ChIJE5sbf7aAj4AR5mUSUdB8EgY,HSBC Bank,"['bank', 'finance', 'point_of_interest', 'establishment']","388 9th Street Suite 121, Oakland",37.8006698,-122.2712121
3,"Berkeley, California",bank,ChIJ7fOzNyN5hYARM3Bw9YL-7wM,Citibank,"['bank', 'finance', 'point_of_interest', 'establishment']","280 El Cerrito Plaza, El Cerrito",37.8992382,-122.2984462
4,"Berkeley, California",bank,ChIJUdHU1p1-hYARXmkyU-sAU3M,Bank of America Financial Center,"['bank', 'finance', 'point_of_interest', 'establishment']","2151 Shattuck Avenue, Berkeley",37.8702296,-122.2675077
5,"Berkeley, California",bank,ChIJrTEyQ2OHj4ARI3JAcRIC_kk,Citibank,"['bank', 'finance', 'point_of_interest', 'establishment']","333 Highland Avenue, Piedmont",37.825133,-122.2327
6,"Berkeley, California",bank,ChIJPalNz5CHj4AR7CggCX6WLaU,Wells Fargo Bank,"['bank', 'atm', 'finance', 'point_of_interest', 'establishment']","2220 Mountain Boulevard, Oakland",37.8235546,-122.2074386
7,"Berkeley, California",bank,ChIJg38BENl8hYAR3yrpXNA8_2k,Citibank,"['bank', 'finance', 'point_of_interest', 'establishment']","37 Orinda Way, Orinda",37.884141,-122.190574
8,"Berkeley, California",bank,ChIJuzIji55-hYAR-i35tdvUwi8,Citibank,"['bank', 'finance', 'point_of_interest', 'establishment']","2000 Shattuck Avenue, Berkeley",37.871884,-122.26871
9,"Berkeley, California",bank,ChIJd8_SNE2Hj4AR6wQWOEmWSdU,U.S. Bank Branch,"['bank', 'finance', 'point_of_interest', 'establishment']","344 Thomas L Berkley Way, Oakland",37.8089262,-122.265351
10,"Berkeley, California",bank,ChIJxRvC0p1-hYAR_kXVZ92L_J0,Wells Fargo Bank,"['bank', 'atm', 'finance', 'point_of_interest', 'establishment']","2144 Shattuck Avenue, Berkeley",37.8704179,-122.2684678
11,"Berkeley, California",bank,ChIJC1zOt6Z-hYAREpkXC11TOqo,Bank of the West,"['bank', 'finance', 'point_of_interest', 'establishment']","1480 Shattuck Avenue, Berkeley",37.880396,-122.269577
12,"Berkeley, California",bank,ChIJJxDfFU2Hj4ARoOqRuW28aPs,Bank of America Financial Center,"['bank', 'finance', 'point_of_interest', 'establishment']","300 Lakeside Drive, Oakland",37.8088934,-122.2634353
13,"Berkeley, California",bank,ChIJbWMYRi98hYAR8t6bEZwefeE,Bank of America Financial Center,"['bank', 'finance', 'point_of_interest', 'establishment']","2347 Telegraph Avenue, Berkeley",37.868126,-122.2587713
14,"Berkeley, California",bank,ChIJzyf-sTV5hYARFoN9nPyglHM,Citibank,"['bank', 'finance', 'point_of_interest', 'establishment']","1377 Solano Avenue, Albany",37.890959,-122.290518
15,"Berkeley, California",bank,ChIJse69WLaAj4ARDxbM2FCxpHw,Citibank,"['bank', 'finance', 'point_of_interest', 'establishment']","801 Franklin Street, Oakland",37.800018,-122.272752
16,"Berkeley, California",bank,ChIJjU1tFPd9hYARjAnJgUw0AYw,Citibank,"['bank', 'finance', 'point_of_interest', 'establishment']","4101 Piedmont Avenue, Oakland",37.82666679999999,-122.2524275
17,"Berkeley, California",bank,ChIJc_6Eep5-hYARJuMzwrnO1rs,Patelco Credit Union,"['bank', 'finance', 'point_of_interest', 'establishment']","2033 Shattuck Avenue, Berkeley",37.8716005,-122.2674605
18,"Berkeley, California",bank,ChIJLdg_iCy1j4ARSgKCY8ZNFyI,Union Bank,"['bank', 'atm', 'finance', 'point_of_interest', 'establishment']","1970 Franklin Street, Oakland",37.8083146,-122.2668205
19,"Berkeley, California",bank,ChIJV5V0oLKAj4ARZl_OtRMVVYk,Wells Fargo Bank,"['bank', 'atm', 'finance', 'point_of_interest', 'establishment']","2040 Franklin Street, Oakland",37.8093199,-122.2665185
20,"Berkeley, California",bank,ChIJE5sbf7aAj4ARGcJI1sAxs9U,Bank of America Financial Center,"['bank', 'finance', 'point_of_interest', 'establishment']","388 9th Street #168, Oakland",37.8006417,-122.271653
21,"Berkeley, California",bank,ChIJb5ODKE2Hj4ARMbtwYrxi_58,Mechanics Bank,"['bank', 'finance', 'point_of_interest', 'establishment']","Lake Merritt Plaza, 1999 Harrison Street #100, Oakland",37.8078456,-122.2650785
22,"Berkeley, California",bank,ChIJE5sbf7aAj4AR5mUSUdB8EgY,HSBC Bank,"['bank', 'finance', 'point_of_interest', 'establishment']","388 9th Street Suite 121, Oakland",37.8006698,-122.2712121
23,"Berkeley, California",bank,ChIJ7fOzNyN5hYARM3Bw9YL-7wM,Citibank,"['bank', 'finance', 'point_of_interest', 'establishment']","280 El Cerrito Plaza, El Cerrito",37.8992382,-122.2984462
24,"Berkeley, California",bank,ChIJUdHU1p1-hYARXmkyU-sAU3M,Bank of America Financial Center,"['bank', 'finance', 'point_of_interest', 'establishment']","2151 Shattuck Avenue, Berkeley",37.8702296,-122.2675077
25,"Berkeley, California",bank,ChIJrTEyQ2OHj4ARI3JAcRIC_kk,Citibank,"['bank', 'finance', 'point_of_interest', 'establishment']","333 Highland Avenue, Piedmont",37.825133,-122.2327
26,"Berkeley, California",bank,ChIJPalNz5CHj4AR7CggCX6WLaU,Wells Fargo Bank,"['bank', 'atm', 'finance', 'point_of_interest', 'establishment']","2220 Mountain Boulevard, Oakland",37.8235546,-122.2074386
27,"Berkeley, California",bank,ChIJg38BENl8hYAR3yrpXNA8_2k,Citibank,"['bank', 'finance', 'point_of_interest', 'establishment']","37 Orinda Way, Orinda",37.884141,-122.190574
28,"Berkeley, California",bank,ChIJuzIji55-hYAR-i35tdvUwi8,Citibank,"['bank', 'finance', 'point_of_interest', 'establishment']","2000 Shattuck Avenue, Berkeley",37.871884,-122.26871
29,"Berkeley, California",bank,ChIJd8_SNE2Hj4AR6wQWOEmWSdU,U.S. Bank Branch,"['bank', 'finance', 'point_of_interest', 'establishment']","344 Thomas L Berkley Way, Oakland",37.8089262,-122.265351
30,"Berkeley, California",bank,ChIJxRvC0p1-hYAR_kXVZ92L_J0,Wells Fargo Bank,"['bank', 'atm', 'finance', 'point_of_interest', 'establishment']","2144 Shattuck Avenue, Berkeley",37.8704179,-122.2684678
31,"Berkeley, California",bank,ChIJC1zOt6Z-hYAREpkXC11TOqo,Bank of the West,"['bank', 'finance', 'point_of_interest', 'establishment']","1480 Shattuck Avenue, Berkeley",37.880396,-122.269577
32,"Berkeley, California",bank,ChIJJxDfFU2Hj4ARoOqRuW28aPs,Bank of America Financial Center,"['bank', 'finance', 'point_of_interest', 'establishment']","300 Lakeside Drive, Oakland",37.8088934,-122.2634353
33,"Berkeley, California",bank,ChIJbWMYRi98hYAR8t6bEZwefeE,Bank of America Financial Center,"['bank', 'finance', 'point_of_interest', 'establishment']","2347 Telegraph Avenue, Berkeley",37.868126,-122.2587713
34,"Berkeley, California",bank,ChIJzyf-sTV5hYARFoN9nPyglHM,Citibank,"['bank', 'finance', 'point_of_interest', 'establishment']","1377 Solano Avenue, Albany",37.890959,-122.290518
35,"Berkeley, California",bank,ChIJse69WLaAj4ARDxbM2FCxpHw,Citibank,"['bank', 'finance', 'point_of_interest', 'establishment']","801 Franklin Street, Oakland",37.800018,-122.272752
36,"Berkeley, California",bank,ChIJjU1tFPd9hYARjAnJgUw0AYw,Citibank,"['bank', 'finance', 'point_of_interest', 'establishment']","4101 Piedmont Avenue, Oakland",37.82666679999999,-122.2524275
37,"Berkeley, California",bank,ChIJc_6Eep5-hYARJuMzwrnO1rs,Patelco Credit Union,"['bank', 'finance', 'point_of_interest', 'establishment']","2033 Shattuck Avenue, Berkeley",37.8716005,-122.2674605
38,"Berkeley, California",bank,ChIJLdg_iCy1j4ARSgKCY8ZNFyI,Union Bank,"['bank', 'atm', 'finance', 'point_of_interest', 'establishment']","1970 Franklin Street, Oakland",37.8083146,-122.2668205
39,"Berkeley, California",bank,ChIJV5V0oLKAj4ARZl_OtRMVVYk,Wells Fargo Bank,"['bank', 'atm', 'finance', 'point_of_interest', 'establishment']","2040 Franklin Street, Oakland",37.8093199,-122.2665185
40,"Berkeley, California",bank,ChIJE5sbf7aAj4ARGcJI1sAxs9U,Bank of America Financial Center,"['bank', 'finance', 'point_of_interest', 'establishment']","388 9th Street #168, Oakland",37.8006417,-122.271653
41,"Berkeley, California",bank,ChIJb5ODKE2Hj4ARMbtwYrxi_58,Mechanics Bank,"['bank', 'finance', 'point_of_interest', 'establishment']","Lake Merritt Plaza, 1999 Harrison Street #100, Oakland",37.8078456,-122.2650785
42,"Berkeley, California",bank,ChIJE5sbf7aAj4AR5mUSUdB8EgY,HSBC Bank,"['bank', 'finance', 'point_of_interest', 'establishment']","388 9th Street Suite 121, Oakland",37.8006698,-122.2712121
43,"Berkeley, California",bank,ChIJ7fOzNyN5hYARM3Bw9YL-7wM,Citibank,"['bank', 'finance', 'point_of_interest', 'establishment']","280 El Cerrito Plaza, El Cerrito",37.8992382,-122.2984462
44,"Berkeley, California",bank,ChIJUdHU1p1-hYARXmkyU-sAU3M,Bank of America Financial Center,"['bank', 'finance', 'point_of_interest', 'establishment']","2151 Shattuck Avenue, Berkeley",37.8702296,-122.2675077
45,"Berkeley, California",bank,ChIJrTEyQ2OHj4ARI3JAcRIC_kk,Citibank,"['bank', 'finance', 'point_of_interest', 'establishment']","333 Highland Avenue, Piedmont",37.825133,-122.2327
46,"Berkeley, California",bank,ChIJPalNz5CHj4AR7CggCX6WLaU,Wells Fargo Bank,"['bank', 'atm', 'finance', 'point_of_interest', 'establishment']","2220 Mountain Boulevard, Oakland",37.8235546,-122.2074386
47,"Berkeley, California",bank,ChIJg38BENl8hYAR3yrpXNA8_2k,Citibank,"['bank', 'finance', 'point_of_interest', 'establishment']","37 Orinda Way, Orinda",37.884141,-122.190574
48,"Berkeley, California",bank,ChIJuzIji55-hYAR-i35tdvUwi8,Citibank,"['bank', 'finance', 'point_of_interest', 'establishment']","2000 Shattuck Avenue, Berkeley",37.871884,-122.26871
49,"Berkeley, California",bank,ChIJd8_SNE2Hj4AR6wQWOEmWSdU,U.S. Bank Branch,"['bank', 'finance', 'point_of_interest', 'establishment']","344 Thomas L Berkley Way, Oakland",37.8089262,-122.265351
50,"Berkeley, California",bank,ChIJxRvC0p1-hYAR_kXVZ92L_J0,Wells Fargo Bank,"['bank', 'atm', 'finance', 'point_of_interest', 'establishment']","2144 Shattuck Avenue, Berkeley",37.8704179,-122.2684678
51,"Berkeley, California",bank,ChIJC1zOt6Z-hYAREpkXC11TOqo,Bank of the West,"['bank', 'finance', 'point_of_interest', 'establishment']","1480 Shattuck Avenue, Berkeley",37.880396,-122.269577
52,"Berkeley, California",bank,ChIJJxDfFU2Hj4ARoOqRuW28aPs,Bank of America Financial Center,"['bank', 'finance', 'point_of_interest', 'establishment']","300 Lakeside Drive, Oakland",37.8088934,-122.2634353
53,"Berkeley, California",bank,ChIJbWMYRi98hYAR8t6bEZwefeE,Bank of America Financial Center,"['bank', 'finance', 'point_of_interest', 'establishment']","2347 Telegraph Avenue, Berkeley",37.868126,-122.2587713
54,"Berkeley, California",bank,ChIJzyf-sTV5hYARFoN9nPyglHM,Citibank,"['bank', 'finance', 'point_of_interest', 'establishment']","1377 Solano Avenue, Albany",37.890959,-122.290518
55,"Berkeley, California",bank,ChIJse69WLaAj4ARDxbM2FCxpHw,Citibank,"['bank', 'finance', 'point_of_interest', 'establishment']","801 Franklin Street, Oakland",37.800018,-122.272752
56,"Berkeley, California",bank,ChIJjU1tFPd9hYARjAnJgUw0AYw,Citibank,"['bank', 'finance', 'point_of_interest', 'establishment']","4101 Piedmont Avenue, Oakland",37.82666679999999,-122.2524275
57,"Berkeley, California",bank,ChIJc_6Eep5-hYARJuMzwrnO1rs,Patelco Credit Union,"['bank', 'finance', 'point_of_interest', 'establishment']","2033 Shattuck Avenue, Berkeley",37.8716005,-122.2674605
58,"Berkeley, California",bank,ChIJLdg_iCy1j4ARSgKCY8ZNFyI,Union Bank,"['bank', 'atm', 'finance', 'point_of_interest', 'establishment']","1970 Franklin Street, Oakland",37.8083146,-122.2668205
59,"Berkeley, California",bank,ChIJV5V0oLKAj4ARZl_OtRMVVYk,Wells Fargo Bank,"['bank', 'atm', 'finance', 'point_of_interest', 'establishment']","2040 Franklin Street, Oakland",37.8093199,-122.2665185
0,"Palo Alto, California",bank,ChIJQSVQrde2j4ARHT0viTSnBss,HSBC Bank,"['bank', 'finance', 'point_of_interest', 'establishment']","1350 Grant Road #3, Mountain View",37.377249,-122.0769274
1,"Palo Alto, California",bank,ChIJ5UOqT--6j4AR7AcyVKYTVCI,Wells Fargo Bank,"['bank', 'atm', 'finance', 'point_of_interest', 'establishment']","505 California Avenue, Palo Alto",37.4247008,-122.1458271
2,"Palo Alto, California",bank,ChIJc0HT3lKij4AR_JbNU7znOew,Bank of America Financial Center,"['bank', 'finance', 'point_of_interest', 'establishment']","700 Jefferson Ave, Redwood City",37.4873498,-122.2286041
3,"Palo Alto, California",bank,ChIJ4Rq1aFikj4ARONcWjZItdRE,Silicon Valley Bank,"['bank', 'finance', 'point_of_interest', 'establishment']","3000 Sand Hill Road Building 3, Suite 150, Menlo Park",37.4240894,-122.2220474
4,"Palo Alto, California",bank,ChIJV0UJcJ6wj4ARItiTAWrbofY,Bank of America Financial Center,"['bank', 'finance', 'point_of_interest', 'establishment']","384 San Antonio Road, Mountain View",37.405431,-122.1116539
5,"Palo Alto, California",bank,ChIJgyJwdJywj4ARq7xK4qCO6iA,Wells Fargo Bank,"['bank', 'atm', 'finance', 'point_of_interest', 'establishment']","2600 El Camino Real W, Mountain View",37.4018367,-122.1137772
6,"Palo Alto, California",bank,ChIJLTao1oS6j4AR2xhgSoWH3yk,Meriwest Credit Union - Palo Alto VA Hospital,"['bank', 'finance', 'point_of_interest', 'establishment']","210, 3801 Miranda Avenue c1, Palo Alto",37.4056056,-122.1401885
7,"Palo Alto, California",bank,ChIJVSmovFKij4ARwsMao7v4YR0,Wells Fargo Bank,"['bank', 'atm', 'finance', 'point_of_interest', 'establishment']","1900 Broadway, Redwood City",37.4869947,-122.225714
8,"Palo Alto, California",bank,ChIJ4Rq1aFikj4AR0Q_j3NwLu9o,Voyager Capital,"['atm', 'bank', 'finance', 'point_of_interest', 'establishment']","3000 Sand Hill Circle, Menlo Park",37.4232706,-122.220579
9,"Palo Alto, California",bank,ChIJn3tv0q-kj4ARRSYjxgUKco8,Bank of America Financial Center,"['bank', 'finance', 'point_of_interest', 'establishment']","633 Santa Cruz Ave, Menlo Park",37.452896,-122.1832468
10,"Palo Alto, California",bank,ChIJX3GdSDm7j4AR0yFBlzZfG_8,Wells Fargo Bank,"['bank', 'atm', 'finance', 'point_of_interest', 'establishment']","400 Hamilton Avenue, Palo Alto",37.4465254,-122.1585059
11,"Palo Alto, California",bank,ChIJ47xiiDi7j4ARyVURTD3-ndQ,Bank of America Financial Center,"['bank', 'finance', 'point_of_interest', 'establishment']","530 Lytton Ave, Palo Alto",37.449283,-122.1599
12,"Palo Alto, California",bank,ChIJEaVbJFOij4AR4RAOO7dtY7Y,Citibank,"['bank', 'finance', 'point_of_interest', 'establishment']","1073 El Camino Real, Redwood City",37.4841789,-122.2300203
13,"Palo Alto, California",bank,ChIJvRh9AjdTw4ARFjmL6m4h58w,Union Bank,"['bank', 'atm', 'finance', 'point_of_interest', 'establishment']","4291 El Camino Real, Palo Alto",37.40635539999999,-122.1195717
14,"Palo Alto, California",bank,ChIJ0Wy9V-6wj4ARR1P9WY-P1Ew,Citibank,"['bank', 'finance', 'point_of_interest', 'establishment']","130 Main Street, Los Altos",37.380004,-122.11506
15,"Palo Alto, California",bank,ChIJ_Yut_K-kj4ARnuq2hKiC74c,Comerica Bank,"['bank', 'finance', 'point_of_interest', 'establishment']","800 Oak Grove Avenue, Menlo Park",37.4518331,-122.1869105
16,"Palo Alto, California",bank,ChIJPd8zEN6kj4ARj6nSTPD3N_g,Wells Fargo Bank,"['bank', 'atm', 'finance', 'point_of_interest', 'establishment']","325 Sharon Park Drive, Menlo Park",37.4232255,-122.1976664
17,"Palo Alto, California",bank,ChIJB6W0JTi7j4AR6rRdsLblZw8,Presidio Bank,"['bank', 'atm', 'finance', 'point_of_interest', 'establishment']","325 Lytton Avenue #101, Palo Alto",37.44724639999999,-122.1627226
18,"Palo Alto, California",bank,ChIJeZJ7ZTe7j4AR1xFFKVYq-5k,Comerica Bank,"['bank', 'finance', 'point_of_interest', 'establishment']","250 Lytton Avenue, Palo Alto",37.4457867,-122.163405
19,"Palo Alto, California",bank,ChIJ1Wyiz4Sjj4ART2L7888Onag,Wells Fargo Bank,"['bank', 'atm', 'finance', 'point_of_interest', 'establishment']","1500 Woodside Road, Redwood City",37.456972,-122.2280073
20,"Palo Alto, California",bank,ChIJQSVQrde2j4ARHT0viTSnBss,HSBC Bank,"['bank', 'finance', 'point_of_interest', 'establishment']","1350 Grant Road #3, Mountain View",37.377249,-122.0769274
21,"Palo Alto, California",bank,ChIJ5UOqT--6j4AR7AcyVKYTVCI,Wells Fargo Bank,"['bank', 'atm', 'finance', 'point_of_interest', 'establishment']","505 California Avenue, Palo Alto",37.4247008,-122.1458271
22,"Palo Alto, California",bank,ChIJc0HT3lKij4AR_JbNU7znOew,Bank of America Financial Center,"['bank', 'finance', 'point_of_interest', 'establishment']","700 Jefferson Ave, Redwood City",37.4873498,-122.2286041
23,"Palo Alto, California",bank,ChIJ4Rq1aFikj4ARONcWjZItdRE,Silicon Valley Bank,"['bank', 'finance', 'point_of_interest', 'establishment']","3000 Sand Hill Road Building 3, Suite 150, Menlo Park",37.4240894,-122.2220474
24,"Palo Alto, California",bank,ChIJV0UJcJ6wj4ARItiTAWrbofY,Bank of America Financial Center,"['bank', 'finance', 'point_of_interest', 'establishment']","384 San Antonio Road, Mountain View",37.405431,-122.1116539
25,"Palo Alto, California",bank,ChIJgyJwdJywj4ARq7xK4qCO6iA,Wells Fargo Bank,"['bank', 'atm', 'finance', 'point_of_interest', 'establishment']","2600 El Camino Real W, Mountain View",37.4018367,-122.1137772
26,"Palo Alto, California",bank,ChIJLTao1oS6j4AR2xhgSoWH3yk,Meriwest Credit Union - Palo Alto VA Hospital,"['bank', 'finance', 'point_of_interest', 'establishment']","210, 3801 Miranda Avenue c1, Palo Alto",37.4056056,-122.1401885
27,"Palo Alto, California",bank,ChIJVSmovFKij4ARwsMao7v4YR0,Wells Fargo Bank,"['bank', 'atm', 'finance', 'point_of_interest', 'establishment']","1900 Broadway, Redwood City",37.4869947,-122.225714
28,"Palo Alto, California",bank,ChIJ4Rq1aFikj4AR0Q_j3NwLu9o,Voyager Capital,"['atm', 'bank', 'finance', 'point_of_interest', 'establishment']","3000 Sand Hill Circle, Menlo Park",37.4232706,-122.220579
29,"Palo Alto, California",bank,ChIJn3tv0q-kj4ARRSYjxgUKco8,Bank of America Financial Center,"['bank', 'finance', 'point_of_interest', 'establishment']","633 Santa Cruz Ave, Menlo Park",37.452896,-122.1832468
30,"Palo Alto, California",bank,ChIJX3GdSDm7j4AR0yFBlzZfG_8,Wells Fargo Bank,"['bank', 'atm', 'finance', 'point_of_interest', 'establishment']","400 Hamilton Avenue, Palo Alto",37.4465254,-122.1585059
31,"Palo Alto, California",bank,ChIJ47xiiDi7j4ARyVURTD3-ndQ,Bank of America Financial Center,"['bank', 'finance', 'point_of_interest', 'establishment']","530 Lytton Ave, Palo Alto",37.449283,-122.1599
32,"Palo Alto, California",bank,ChIJEaVbJFOij4AR4RAOO7dtY7Y,Citibank,"['bank', 'finance', 'point_of_interest', 'establishment']","1073 El Camino Real, Redwood City",37.4841789,-122.2300203
33,"Palo Alto, California",bank,ChIJvRh9AjdTw4ARFjmL6m4h58w,Union Bank,"['bank', 'atm', 'finance', 'point_of_interest', 'establishment']","4291 El Camino Real, Palo Alto",37.40635539999999,-122.1195717
34,"Palo Alto, California",bank,ChIJ0Wy9V-6wj4ARR1P9WY-P1Ew,Citibank,"['bank', 'finance', 'point_of_interest', 'establishment']","130 Main Street, Los Altos",37.380004,-122.11506
35,"Palo Alto, California",bank,ChIJ_Yut_K-kj4ARnuq2hKiC74c,Comerica Bank,"['bank', 'finance', 'point_of_interest', 'establishment']","800 Oak Grove Avenue, Menlo Park",37.4518331,-122.1869105
36,"Palo Alto, California",bank,ChIJPd8zEN6kj4ARj6nSTPD3N_g,Wells Fargo Bank,"['bank', 'atm', 'finance', 'point_of_interest', 'establishment']","325 Sharon Park Drive, Menlo Park",37.4232255,-122.1976664
37,"Palo Alto, California",bank,ChIJB6W0JTi7j4AR6rRdsLblZw8,Presidio Bank,"['bank', 'atm', 'finance', 'point_of_interest', 'establishment']","325 Lytton Avenue #101, Palo Alto",37.44724639999999,-122.1627226
38,"Palo Alto, California",bank,ChIJeZJ7ZTe7j4AR1xFFKVYq-5k,Comerica Bank,"['bank', 'finance', 'point_of_interest', 'establishment']","250 Lytton Avenue, Palo Alto",37.4457867,-122.163405
39,"Palo Alto, California",bank,ChIJ1Wyiz4Sjj4ART2L7888Onag,Wells Fargo Bank,"['bank', 'atm', 'finance', 'point_of_interest', 'establishment']","1500 Woodside Road, Redwood City",37.456972,-122.2280073
40,"Palo Alto, California",bank,ChIJQSVQrde2j4ARHT0viTSnBss,HSBC Bank,"['bank', 'finance', 'point_of_interest', 'establishment']","1350 Grant Road #3, Mountain View",37.377249,-122.0769274
41,"Palo Alto, California",bank,ChIJ5UOqT--6j4AR7AcyVKYTVCI,Wells Fargo Bank,"['bank', 'atm', 'finance', 'point_of_interest', 'establishment']","505 California Avenue, Palo Alto",37.4247008,-122.1458271
42,"Palo Alto, California",bank,ChIJc0HT3lKij4AR_JbNU7znOew,Bank of America Financial Center,"['bank', 'finance', 'point_of_interest', 'establishment']","700 Jefferson Ave, Redwood City",37.4873498,-122.2286041
43,"Palo Alto, California",bank,ChIJ4Rq1aFikj4ARONcWjZItdRE,Silicon Valley Bank,"['bank', 'finance', 'point_of_interest', 'establishment']","3000 Sand Hill Road Building 3, Suite 150, Menlo Park",37.4240894,-122.2220474
44,"Palo Alto, California",bank,ChIJV0UJcJ6wj4ARItiTAWrbofY,Bank of America Financial Center,"['bank', 'finance', 'point_of_interest', 'establishment']","384 San Antonio Road, Mountain View",37.405431,-122.1116539
45,"Palo Alto, California",bank,ChIJgyJwdJywj4ARq7xK4qCO6iA,Wells Fargo Bank,"['bank', 'atm', 'finance', 'point_of_interest', 'establishment']","2600 El Camino Real W, Mountain View",37.4018367,-122.1137772
46,"Palo Alto, California",bank,ChIJLTao1oS6j4AR2xhgSoWH3yk,Meriwest Credit Union - Palo Alto VA Hospital,"['bank', 'finance', 'point_of_interest', 'establishment']","210, 3801 Miranda Avenue c1, Palo Alto",37.4056056,-122.1401885
47,"Palo Alto, California",bank,ChIJVSmovFKij4ARwsMao7v4YR0,Wells Fargo Bank,"['bank', 'atm', 'finance', 'point_of_interest', 'establishment']","1900 Broadway, Redwood City",37.4869947,-122.225714
48,"Palo Alto, California",bank,ChIJ4Rq1aFikj4AR0Q_j3NwLu9o,Voyager Capital,"['atm', 'bank', 'finance', 'point_of_interest', 'establishment']","3000 Sand Hill Circle, Menlo Park",37.4232706,-122.220579
49,"Palo Alto, California",bank,ChIJn3tv0q-kj4ARRSYjxgUKco8,Bank of America Financial Center,"['bank', 'finance', 'point_of_interest', 'establishment']","633 Santa Cruz Ave, Menlo Park",37.452896,-122.1832468
50,"Palo Alto, California",bank,ChIJX3GdSDm7j4AR0yFBlzZfG_8,Wells Fargo Bank,"['bank', 'atm', 'finance', 'point_of_interest', 'establishment']","400 Hamilton Avenue, Palo Alto",37.4465254,-122.1585059
51,"Palo Alto, California",bank,ChIJ47xiiDi7j4ARyVURTD3-ndQ,Bank of America Financial Center,"['bank', 'finance', 'point_of_interest', 'establishment']","530 Lytton Ave, Palo Alto",37.449283,-122.1599
52,"Palo Alto, California",bank,ChIJEaVbJFOij4AR4RAOO7dtY7Y,Citibank,"['bank', 'finance', 'point_of_interest', 'establishment']","1073 El Camino Real, Redwood City",37.4841789,-122.2300203
53,"Palo Alto, California",bank,ChIJvRh9AjdTw4ARFjmL6m4h58w,Union Bank,"['bank', 'atm', 'finance', 'point_of_interest', 'establishment']","4291 El Camino Real, Palo Alto",37.40635539999999,-122.1195717
54,"Palo Alto, California",bank,ChIJ0Wy9V-6wj4ARR1P9WY-P1Ew,Citibank,"['bank', 'finance', 'point_of_interest', 'establishment']","130 Main Street, Los Altos",37.380004,-122.11506
55,"Palo Alto, California",bank,ChIJ_Yut_K-kj4ARnuq2hKiC74c,Comerica Bank,"['bank', 'finance', 'point_of_interest', 'establishment']","800 Oak Grove Avenue, Menlo Park",37.4518331,-122.1869105
56,"Palo Alto, California",bank,ChIJPd8zEN6kj4ARj6nSTPD3N_g,Wells Fargo Bank,"['bank', 'atm', 'finance', 'point_of_interest', 'establishment']","325 Sharon Park Drive, Menlo Park",37.4232255,-122.1976664
57,"Palo Alto, California",bank,ChIJB6W0JTi7j4AR6rRdsLblZw8,Presidio Bank,"['bank', 'atm', 'finance', 'point_of_interest', 'establishment']","325 Lytton Avenue #101, Palo Alto",37.44724639999999,-122.1627226
58,"Palo Alto, California",bank,ChIJeZJ7ZTe7j4AR1xFFKVYq-5k,Comerica Bank,"['bank', 'finance', 'point_of_interest', 'establishment']","250 Lytton Avenue, Palo Alto",37.4457867,-122.163405
59,"Palo Alto, California",bank,ChIJ1Wyiz4Sjj4ART2L7888Onag,Wells Fargo Bank,"['bank', 'atm', 'finance', 'point_of_interest', 'establishment']","1500 Woodside Road, Redwood City",37.456972,-122.2280073
0,"Mountain View, California",bank,ChIJNyCLLl62j4AR-AkNaib84lQ,Chase Bank,"['bank', 'atm', 'finance', 'point_of_interest', 'establishment']","410 South Mathilda Avenue, Sunnyvale",37.373075,-122.035107
1,"Mountain View, California",bank,ChIJkeHu1V-2j4ARoYKkIxrdsP8,Bank of America Financial Center,"['bank', 'finance', 'point_of_interest', 'establishment']","444 South Mathilda Avenue, Sunnyvale",37.37236519999999,-122.0354856
2,"Mountain View, California",bank,ChIJQSVQrde2j4ARHT0viTSnBss,HSBC Bank,"['bank', 'finance', 'point_of_interest', 'establishment']","1350 Grant Road #3, Mountain View",37.377249,-122.0769274
3,"Mountain View, California",bank,ChIJA4AN8j22j4ARtPyu4K0j-d8,Bank of America Financial Center,"['bank', 'finance', 'point_of_interest', 'establishment']","921 E Arques Ave, Sunnyvale",37.3812577,-122.0082921
4,"Mountain View, California",bank,ChIJU-Jb3Zy2j4ARGQjBsg-RYbo,Citibank,"['bank', 'finance', 'point_of_interest', 'establishment']","1303 South Mary Avenue, Sunnyvale",37.351482,-122.05086
5,"Mountain View, California",bank,ChIJ5UOqT--6j4AR7AcyVKYTVCI,Wells Fargo Bank,"['bank', 'atm', 'finance', 'point_of_interest', 'establishment']","505 California Avenue, Palo Alto",37.4247008,-122.1458271
6,"Mountain View, California",bank,ChIJV0UJcJ6wj4ARItiTAWrbofY,Bank of America Financial Center,"['bank', 'finance', 'point_of_interest', 'establishment']","384 San Antonio Road, Mountain View",37.405431,-122.1116539
7,"Mountain View, California",bank,ChIJU40MuIO2woAR0XaCgj3in50,Union Bank,"['bank', 'atm', 'finance', 'point_of_interest', 'establishment']","495 South Mathilda Avenue, Sunnyvale",37.3719519,-122.0366191
8,"Mountain View, California",bank,ChIJgyJwdJywj4ARq7xK4qCO6iA,Wells Fargo Bank,"['bank', 'atm', 'finance', 'point_of_interest', 'establishment']","2600 El Camino Real W, Mountain View",37.4018367,-122.1137772
9,"Mountain View, California",bank,ChIJLTao1oS6j4AR2xhgSoWH3yk,Meriwest Credit Union - Palo Alto VA Hospital,"['bank', 'finance', 'point_of_interest', 'establishment']","210, 3801 Miranda Avenue c1, Palo Alto",37.4056056,-122.1401885
10,"Mountain View, California",bank,ChIJX3apS162j4ARDhi_wdHwnFs,Bank of the West,"['bank', 'finance', 'point_of_interest', 'establishment']","380 South Mathilda Avenue, Sunnyvale",37.37391,-122.034992
11,"Mountain View, California",bank,ChIJY5Q_3fC1j4ARyg58XQBLuYs,Citibank,"['bank', 'finance', 'point_of_interest', 'establishment']","3755 El Camino Real, Santa Clara",37.3526373,-121.9998268
12,"Mountain View, California",bank,ChIJi2HfFGS2j4ARZYbURjE-vHQ,Wells Fargo Bank,"['bank', 'atm', 'finance', 'point_of_interest', 'establishment']","107 E El Camino Real, Sunnyvale",37.3677502,-122.0315608
13,"Mountain View, California",bank,ChIJvVHFumG2j4ARJHsA8gkU0Ys,Citibank,"['bank', 'finance', 'point_of_interest', 'establishment']","395 West El Camino Real, Sunnyvale",37.3694123,-122.0363922
14,"Mountain View, California",bank,ChIJ0Wy9V-6wj4ARR1P9WY-P1Ew,Citibank,"['bank', 'finance', 'point_of_interest', 'establishment']","130 Main Street, Los Altos",37.380004,-122.11506
15,"Mountain View, California",bank,ChIJvRh9AjdTw4ARFjmL6m4h58w,Union Bank,"['bank', 'atm', 'finance', 'point_of_interest', 'establishment']","4291 El Camino Real, Palo Alto",37.40635539999999,-122.1195717
16,"Mountain View, California",bank,ChIJmZvUMi23j4ARBaH2EG5KYt4,Chase Bank,"['bank', 'atm', 'finance', 'point_of_interest', 'establishment']","749 W El Camino Real 1st flr, Mountain View",37.38510929999999,-122.0837005
17,"Mountain View, California",bank,ChIJ41SJwTK3j4ARUFHxoqibyoY,Wells Fargo Bank,"['bank', 'atm', 'finance', 'point_of_interest', 'establishment']","590 Castro Street, Mountain View",37.388722,-122.0825456
18,"Mountain View, California",bank,ChIJ-R3Jl621j4ARVPOIWlFN0Qg,Chase Bank,"['bank', 'atm', 'finance', 'point_of_interest', 'establishment']","20573 Stevens Creek Boulevard, Cupertino",37.323292,-122.034678
19,"Mountain View, California",bank,ChIJ47uzaZu2j4ARCnGGJZLR6p8,Wells Fargo Bank,"['bank', 'atm', 'finance', 'point_of_interest', 'establishment']","1241 South Mary Avenue, Sunnyvale",37.3539181,-122.0513379
20,"Mountain View, California",bank,ChIJNyCLLl62j4AR-AkNaib84lQ,Chase Bank,"['bank', 'atm', 'finance', 'point_of_interest', 'establishment']","410 South Mathilda Avenue, Sunnyvale",37.373075,-122.035107
21,"Mountain View, California",bank,ChIJkeHu1V-2j4ARoYKkIxrdsP8,Bank of America Financial Center,"['bank', 'finance', 'point_of_interest', 'establishment']","444 South Mathilda Avenue, Sunnyvale",37.37236519999999,-122.0354856
22,"Mountain View, California",bank,ChIJQSVQrde2j4ARHT0viTSnBss,HSBC Bank,"['bank', 'finance', 'point_of_interest', 'establishment']","1350 Grant Road #3, Mountain View",37.377249,-122.0769274
23,"Mountain View, California",bank,ChIJA4AN8j22j4ARtPyu4K0j-d8,Bank of America Financial Center,"['bank', 'finance', 'point_of_interest', 'establishment']","921 E Arques Ave, Sunnyvale",37.3812577,-122.0082921
24,"Mountain View, California",bank,ChIJU-Jb3Zy2j4ARGQjBsg-RYbo,Citibank,"['bank', 'finance', 'point_of_interest', 'establishment']","1303 South Mary Avenue, Sunnyvale",37.351482,-122.05086
25,"Mountain View, California",bank,ChIJ5UOqT--6j4AR7AcyVKYTVCI,Wells Fargo Bank,"['bank', 'atm', 'finance', 'point_of_interest', 'establishment']","505 California Avenue, Palo Alto",37.4247008,-122.1458271
26,"Mountain View, California",bank,ChIJV0UJcJ6wj4ARItiTAWrbofY,Bank of America Financial Center,"['bank', 'finance', 'point_of_interest', 'establishment']","384 San Antonio Road, Mountain View",37.405431,-122.1116539
27,"Mountain View, California",bank,ChIJU40MuIO2woAR0XaCgj3in50,Union Bank,"['bank', 'atm', 'finance', 'point_of_interest', 'establishment']","495 South Mathilda Avenue, Sunnyvale",37.3719519,-122.0366191
28,"Mountain View, California",bank,ChIJgyJwdJywj4ARq7xK4qCO6iA,Wells Fargo Bank,"['bank', 'atm', 'finance', 'point_of_interest', 'establishment']","2600 El Camino Real W, Mountain View",37.4018367,-122.1137772
29,"Mountain View, California",bank,ChIJLTao1oS6j4AR2xhgSoWH3yk,Meriwest Credit Union - Palo Alto VA Hospital,"['bank', 'finance', 'point_of_interest', 'establishment']","210, 3801 Miranda Avenue c1, Palo Alto",37.4056056,-122.1401885
30,"Mountain View, California",bank,ChIJX3apS162j4ARDhi_wdHwnFs,Bank of the West,"['bank', 'finance', 'point_of_interest', 'establishment']","380 South Mathilda Avenue, Sunnyvale",37.37391,-122.034992
31,"Mountain View, California",bank,ChIJY5Q_3fC1j4ARyg58XQBLuYs,Citibank,"['bank', 'finance', 'point_of_interest', 'establishment']","3755 El Camino Real, Santa Clara",37.3526373,-121.9998268
32,"Mountain View, California",bank,ChIJi2HfFGS2j4ARZYbURjE-vHQ,Wells Fargo Bank,"['bank', 'atm', 'finance', 'point_of_interest', 'establishment']","107 E El Camino Real, Sunnyvale",37.3677502,-122.0315608
33,"Mountain View, California",bank,ChIJvVHFumG2j4ARJHsA8gkU0Ys,Citibank,"['bank', 'finance', 'point_of_interest', 'establishment']","395 West El Camino Real, Sunnyvale",37.3694123,-122.0363922
34,"Mountain View, California",bank,ChIJ0Wy9V-6wj4ARR1P9WY-P1Ew,Citibank,"['bank', 'finance', 'point_of_interest', 'establishment']","130 Main Street, Los Altos",37.380004,-122.11506
35,"Mountain View, California",bank,ChIJvRh9AjdTw4ARFjmL6m4h58w,Union Bank,"['bank', 'atm', 'finance', 'point_of_interest', 'establishment']","4291 El Camino Real, Palo Alto",37.40635539999999,-122.1195717
36,"Mountain View, California",bank,ChIJmZvUMi23j4ARBaH2EG5KYt4,Chase Bank,"['bank', 'atm', 'finance', 'point_of_interest', 'establishment']","749 W El Camino Real 1st flr, Mountain View",37.38510929999999,-122.0837005
37,"Mountain View, California",bank,ChIJ41SJwTK3j4ARUFHxoqibyoY,Wells Fargo Bank,"['bank', 'atm', 'finance', 'point_of_interest', 'establishment']","590 Castro Street, Mountain View",37.388722,-122.0825456
38,"Mountain View, California",bank,ChIJ-R3Jl621j4ARVPOIWlFN0Qg,Chase Bank,"['bank', 'atm', 'finance', 'point_of_interest', 'establishment']","20573 Stevens Creek Boulevard, Cupertino",37.323292,-122.034678
39,"Mountain View, California",bank,ChIJ47uzaZu2j4ARCnGGJZLR6p8,Wells Fargo Bank,"['bank', 'atm', 'finance', 'point_of_interest', 'establishment']","1241 South Mary Avenue, Sunnyvale",37.3539181,-122.0513379
40,"Mountain View, California",bank,ChIJNyCLLl62j4AR-AkNaib84lQ,Chase Bank,"['bank', 'atm', 'finance', 'point_of_interest', 'establishment']","410 South Mathilda Avenue, Sunnyvale",37.373075,-122.035107
41,"Mountain View, California",bank,ChIJkeHu1V-2j4ARoYKkIxrdsP8,Bank of America Financial Center,"['bank', 'finance', 'point_of_interest', 'establishment']","444 South Mathilda Avenue, Sunnyvale",37.37236519999999,-122.0354856
42,"Mountain View, California",bank,ChIJQSVQrde2j4ARHT0viTSnBss,HSBC Bank,"['bank', 'finance', 'point_of_interest', 'establishment']","1350 Grant Road #3, Mountain View",37.377249,-122.0769274
43,"Mountain View, California",bank,ChIJA4AN8j22j4ARtPyu4K0j-d8,Bank of America Financial Center,"['bank', 'finance', 'point_of_interest', 'establishment']","921 E Arques Ave, Sunnyvale",37.3812577,-122.0082921
44,"Mountain View, California",bank,ChIJU-Jb3Zy2j4ARGQjBsg-RYbo,Citibank,"['bank', 'finance', 'point_of_interest', 'establishment']","1303 South Mary Avenue, Sunnyvale",37.351482,-122.05086
45,"Mountain View, California",bank,ChIJ5UOqT--6j4AR7AcyVKYTVCI,Wells Fargo Bank,"['bank', 'atm', 'finance', 'point_of_interest', 'establishment']","505 California Avenue, Palo Alto",37.4247008,-122.1458271
46,"Mountain View, California",bank,ChIJV0UJcJ6wj4ARItiTAWrbofY,Bank of America Financial Center,"['bank', 'finance', 'point_of_interest', 'establishment']","384 San Antonio Road, Mountain View",37.405431,-122.1116539
47,"Mountain View, California",bank,ChIJU40MuIO2woAR0XaCgj3in50,Union Bank,"['bank', 'atm', 'finance', 'point_of_interest', 'establishment']","495 South Mathilda Avenue, Sunnyvale",37.3719519,-122.0366191
48,"Mountain View, California",bank,ChIJgyJwdJywj4ARq7xK4qCO6iA,Wells Fargo Bank,"['bank', 'atm', 'finance', 'point_of_interest', 'establishment']","2600 El Camino Real W, Mountain View",37.4018367,-122.1137772
49,"Mountain View, California",bank,ChIJLTao1oS6j4AR2xhgSoWH3yk,Meriwest Credit Union - Palo Alto VA Hospital,"['bank', 'finance', 'point_of_interest', 'establishment']","210, 3801 Miranda Avenue c1, Palo Alto",37.4056056,-122.1401885
50,"Mountain View, California",bank,ChIJX3apS162j4ARDhi_wdHwnFs,Bank of the West,"['bank', 'finance', 'point_of_interest', 'establishment']","380 South Mathilda Avenue, Sunnyvale",37.37391,-122.034992
51,"Mountain View, California",bank,ChIJY5Q_3fC1j4ARyg58XQBLuYs,Citibank,"['bank', 'finance', 'point_of_interest', 'establishment']","3755 El Camino Real, Santa Clara",37.3526373,-121.9998268
52,"Mountain View, California",bank,ChIJi2HfFGS2j4ARZYbURjE-vHQ,Wells Fargo Bank,"['bank', 'atm', 'finance', 'point_of_interest', 'establishment']","107 E El Camino Real, Sunnyvale",37.3677502,-122.0315608
53,"Mountain View, California",bank,ChIJvVHFumG2j4ARJHsA8gkU0Ys,Citibank,"['bank', 'finance', 'point_of_interest', 'establishment']","395 West El Camino Real, Sunnyvale",37.3694123,-122.0363922
54,"Mountain View, California",bank,ChIJ0Wy9V-6wj4ARR1P9WY-P1Ew,Citibank,"['bank', 'finance', 'point_of_interest', 'establishment']","130 Main Street, Los Altos",37.380004,-122.11506
55,"Mountain View, California",bank,ChIJvRh9AjdTw4ARFjmL6m4h58w,Union Bank,"['bank', 'atm', 'finance', 'point_of_interest', 'establishment']","4291 El Camino Real, Palo Alto",37.40635539999999,-122.1195717
56,"Mountain View, California",bank,ChIJmZvUMi23j4ARBaH2EG5KYt4,Chase Bank,"['bank', 'atm', 'finance', 'point_of_interest', 'establishment']","749 W El Camino Real 1st flr, Mountain View",37.38510929999999,-122.0837005
57,"Mountain View, California",bank,ChIJ41SJwTK3j4ARUFHxoqibyoY,Wells Fargo Bank,"['bank', 'atm', 'finance', 'point_of_interest', 'establishment']","590 Castro Street, Mountain View",37.388722,-122.0825456
58,"Mountain View, California",bank,ChIJ-R3Jl621j4ARVPOIWlFN0Qg,Chase Bank,"['bank', 'atm', 'finance', 'point_of_interest', 'establishment']","20573 Stevens Creek Boulevard, Cupertino",37.323292,-122.034678
59,"Mountain View, California",bank,ChIJ47uzaZu2j4ARCnGGJZLR6p8,Wells Fargo Bank,"['bank', 'atm', 'finance', 'point_of_interest', 'establishment']","1241 South Mary Avenue, Sunnyvale",37.3539181,-122.0513379
0,"Sunnyvale, California",bank,ChIJNyCLLl62j4AR-AkNaib84lQ,Chase Bank,"['bank', 'atm', 'finance', 'point_of_interest', 'establishment']","410 South Mathilda Avenue, Sunnyvale",37.373075,-122.035107
1,"Sunnyvale, California",bank,ChIJkeHu1V-2j4ARoYKkIxrdsP8,Bank of America Financial Center,"['bank', 'finance', 'point_of_interest', 'establishment']","444 South Mathilda Avenue, Sunnyvale",37.37236519999999,-122.0354856
2,"Sunnyvale, California",bank,ChIJQSVQrde2j4ARHT0viTSnBss,HSBC Bank,"['bank', 'finance', 'point_of_interest', 'establishment']","1350 Grant Road #3, Mountain View",37.377249,-122.0769274
3,"Sunnyvale, California",bank,ChIJA4AN8j22j4ARtPyu4K0j-d8,Bank of America Financial Center,"['bank', 'finance', 'point_of_interest', 'establishment']","921 E Arques Ave, Sunnyvale",37.3812577,-122.0082921
4,"Sunnyvale, California",bank,ChIJU-Jb3Zy2j4ARGQjBsg-RYbo,Citibank,"['bank', 'finance', 'point_of_interest', 'establishment']","1303 South Mary Avenue, Sunnyvale",37.351482,-122.05086
5,"Sunnyvale, California",bank,ChIJQYnL3SfKj4ARwLJf3vq_EUU,Bank of America Financial Center,"['bank', 'finance', 'point_of_interest', 'establishment']","2925 Scott Blvd, Santa Clara",37.3752709,-121.9590481
6,"Sunnyvale, California",bank,ChIJU40MuIO2woAR0XaCgj3in50,Union Bank,"['bank', 'atm', 'finance', 'point_of_interest', 'establishment']","495 South Mathilda Avenue, Sunnyvale",37.3719519,-122.0366191
7,"Sunnyvale, California",bank,ChIJV0UJcJ6wj4ARItiTAWrbofY,Bank of America Financial Center,"['bank', 'finance', 'point_of_interest', 'establishment']","384 San Antonio Road, Mountain View",37.405431,-122.1116539
8,"Sunnyvale, California",bank,ChIJY5Q_3fC1j4ARyg58XQBLuYs,Citibank,"['bank', 'finance', 'point_of_interest', 'establishment']","3755 El Camino Real, Santa Clara",37.3526373,-121.9998268
9,"Sunnyvale, California",bank,ChIJAW1mh321j4ARDdBMuvX2T9I,Wells Fargo Bank,"['bank', 'atm', 'finance', 'point_of_interest', 'establishment']","5146 Stevens Creek Boulevard, San Jose",37.3206443,-121.9924504
10,"Sunnyvale, California",bank,ChIJgyJwdJywj4ARq7xK4qCO6iA,Wells Fargo Bank,"['bank', 'atm', 'finance', 'point_of_interest', 'establishment']","2600 El Camino Real W, Mountain View",37.4018367,-122.1137772
11,"Sunnyvale, California",bank,ChIJA0c2hUbKj4ARqspkMqpMOgo,Chase Bank,"['bank', 'atm', 'finance', 'point_of_interest', 'establishment']","2200 El Camino Real, Santa Clara",37.351981,-121.962263
12,"Sunnyvale, California",bank,ChIJX3apS162j4ARDhi_wdHwnFs,Bank of the West,"['bank', 'finance', 'point_of_interest', 'establishment']","380 South Mathilda Avenue, Sunnyvale",37.37391,-122.034992
13,"Sunnyvale, California",bank,ChIJZbw7eXbJj4ARWydXMXNCroI,Wells Fargo Bank,"['bank', 'atm', 'finance', 'point_of_interest', 'establishment']","3920 Rivermark Plaza, Santa Clara",37.39356849999999,-121.9469118
14,"Sunnyvale, California",bank,ChIJa-k35hLKj4ARzOm1X9ykFfM,Bank of America Financial Center,"['bank', 'finance', 'point_of_interest', 'establishment']","2900 El Camino Real, Santa Clara",37.3519987,-121.9786007
15,"Sunnyvale, California",bank,ChIJi2HfFGS2j4ARZYbURjE-vHQ,Wells Fargo Bank,"['bank', 'atm', 'finance', 'point_of_interest', 'establishment']","107 E El Camino Real, Sunnyvale",37.3677502,-122.0315608
16,"Sunnyvale, California",bank,ChIJ-R3Jl621j4ARVPOIWlFN0Qg,Chase Bank,"['bank', 'atm', 'finance', 'point_of_interest', 'establishment']","20573 Stevens Creek Boulevard, Cupertino",37.323292,-122.034678
17,"Sunnyvale, California",bank,ChIJvVHFumG2j4ARJHsA8gkU0Ys,Citibank,"['bank', 'finance', 'point_of_interest', 'establishment']","395 West El Camino Real, Sunnyvale",37.3694123,-122.0363922
18,"Sunnyvale, California",bank,ChIJ8X20zk3Ij4ARzd1jJFm3OOU,Bank of America Financial Center,"['bank', 'finance', 'point_of_interest', 'establishment']","2611 N 1st St, San Jose",37.38619790000001,-121.928867
19,"Sunnyvale, California",bank,ChIJJ02Zca61j4ARSyC1ubikfXw,Comerica Bank,"['bank', 'finance', 'point_of_interest', 'establishment']","10020 North De Anza Boulevard, Cupertino",37.3237969,-122.0317742
20,"Sunnyvale, California",bank,ChIJNyCLLl62j4AR-AkNaib84lQ,Chase Bank,"['bank', 'atm', 'finance', 'point_of_interest', 'establishment']","410 South Mathilda Avenue, Sunnyvale",37.373075,-122.035107
21,"Sunnyvale, California",bank,ChIJkeHu1V-2j4ARoYKkIxrdsP8,Bank of America Financial Center,"['bank', 'finance', 'point_of_interest', 'establishment']","444 South Mathilda Avenue, Sunnyvale",37.37236519999999,-122.0354856
22,"Sunnyvale, California",bank,ChIJQSVQrde2j4ARHT0viTSnBss,HSBC Bank,"['bank', 'finance', 'point_of_interest', 'establishment']","1350 Grant Road #3, Mountain View",37.377249,-122.0769274
23,"Sunnyvale, California",bank,ChIJA4AN8j22j4ARtPyu4K0j-d8,Bank of America Financial Center,"['bank', 'finance', 'point_of_interest', 'establishment']","921 E Arques Ave, Sunnyvale",37.3812577,-122.0082921
24,"Sunnyvale, California",bank,ChIJU-Jb3Zy2j4ARGQjBsg-RYbo,Citibank,"['bank', 'finance', 'point_of_interest', 'establishment']","1303 South Mary Avenue, Sunnyvale",37.351482,-122.05086
25,"Sunnyvale, California",bank,ChIJQYnL3SfKj4ARwLJf3vq_EUU,Bank of America Financial Center,"['bank', 'finance', 'point_of_interest', 'establishment']","2925 Scott Blvd, Santa Clara",37.3752709,-121.9590481
26,"Sunnyvale, California",bank,ChIJU40MuIO2woAR0XaCgj3in50,Union Bank,"['bank', 'atm', 'finance', 'point_of_interest', 'establishment']","495 South Mathilda Avenue, Sunnyvale",37.3719519,-122.0366191
27,"Sunnyvale, California",bank,ChIJV0UJcJ6wj4ARItiTAWrbofY,Bank of America Financial Center,"['bank', 'finance', 'point_of_interest', 'establishment']","384 San Antonio Road, Mountain View",37.405431,-122.1116539
28,"Sunnyvale, California",bank,ChIJY5Q_3fC1j4ARyg58XQBLuYs,Citibank,"['bank', 'finance', 'point_of_interest', 'establishment']","3755 El Camino Real, Santa Clara",37.3526373,-121.9998268
29,"Sunnyvale, California",bank,ChIJAW1mh321j4ARDdBMuvX2T9I,Wells Fargo Bank,"['bank', 'atm', 'finance', 'point_of_interest', 'establishment']","5146 Stevens Creek Boulevard, San Jose",37.3206443,-121.9924504
30,"Sunnyvale, California",bank,ChIJgyJwdJywj4ARq7xK4qCO6iA,Wells Fargo Bank,"['bank', 'atm', 'finance', 'point_of_interest', 'establishment']","2600 El Camino Real W, Mountain View",37.4018367,-122.1137772
31,"Sunnyvale, California",bank,ChIJA0c2hUbKj4ARqspkMqpMOgo,Chase Bank,"['bank', 'atm', 'finance', 'point_of_interest', 'establishment']","2200 El Camino Real, Santa Clara",37.351981,-121.962263
32,"Sunnyvale, California",bank,ChIJX3apS162j4ARDhi_wdHwnFs,Bank of the West,"['bank', 'finance', 'point_of_interest', 'establishment']","380 South Mathilda Avenue, Sunnyvale",37.37391,-122.034992
33,"Sunnyvale, California",bank,ChIJZbw7eXbJj4ARWydXMXNCroI,Wells Fargo Bank,"['bank', 'atm', 'finance', 'point_of_interest', 'establishment']","3920 Rivermark Plaza, Santa Clara",37.39356849999999,-121.9469118
34,"Sunnyvale, California",bank,ChIJa-k35hLKj4ARzOm1X9ykFfM,Bank of America Financial Center,"['bank', 'finance', 'point_of_interest', 'establishment']","2900 El Camino Real, Santa Clara",37.3519987,-121.9786007
35,"Sunnyvale, California",bank,ChIJi2HfFGS2j4ARZYbURjE-vHQ,Wells Fargo Bank,"['bank', 'atm', 'finance', 'point_of_interest', 'establishment']","107 E El Camino Real, Sunnyvale",37.3677502,-122.0315608
36,"Sunnyvale, California",bank,ChIJ-R3Jl621j4ARVPOIWlFN0Qg,Chase Bank,"['bank', 'atm', 'finance', 'point_of_interest', 'establishment']","20573 Stevens Creek Boulevard, Cupertino",37.323292,-122.034678
37,"Sunnyvale, California",bank,ChIJvVHFumG2j4ARJHsA8gkU0Ys,Citibank,"['bank', 'finance', 'point_of_interest', 'establishment']","395 West El Camino Real, Sunnyvale",37.3694123,-122.0363922
38,"Sunnyvale, California",bank,ChIJ8X20zk3Ij4ARzd1jJFm3OOU,Bank of America Financial Center,"['bank', 'finance', 'point_of_interest', 'establishment']","2611 N 1st St, San Jose",37.38619790000001,-121.928867
39,"Sunnyvale, California",bank,ChIJJ02Zca61j4ARSyC1ubikfXw,Comerica Bank,"['bank', 'finance', 'point_of_interest', 'establishment']","10020 North De Anza Boulevard, Cupertino",37.3237969,-122.0317742
40,"Sunnyvale, California",bank,ChIJNyCLLl62j4AR-AkNaib84lQ,Chase Bank,"['bank', 'atm', 'finance', 'point_of_interest', 'establishment']","410 South Mathilda Avenue, Sunnyvale",37.373075,-122.035107
41,"Sunnyvale, California",bank,ChIJkeHu1V-2j4ARoYKkIxrdsP8,Bank of America Financial Center,"['bank', 'finance', 'point_of_interest', 'establishment']","444 South Mathilda Avenue, Sunnyvale",37.37236519999999,-122.0354856
42,"Sunnyvale, California",bank,ChIJQSVQrde2j4ARHT0viTSnBss,HSBC Bank,"['bank', 'finance', 'point_of_interest', 'establishment']","1350 Grant Road #3, Mountain View",37.377249,-122.0769274
43,"Sunnyvale, California",bank,ChIJA4AN8j22j4ARtPyu4K0j-d8,Bank of America Financial Center,"['bank', 'finance', 'point_of_interest', 'establishment']","921 E Arques Ave, Sunnyvale",37.3812577,-122.0082921
44,"Sunnyvale, California",bank,ChIJU-Jb3Zy2j4ARGQjBsg-RYbo,Citibank,"['bank', 'finance', 'point_of_interest', 'establishment']","1303 South Mary Avenue, Sunnyvale",37.351482,-122.05086
45,"Sunnyvale, California",bank,ChIJQYnL3SfKj4ARwLJf3vq_EUU,Bank of America Financial Center,"['bank', 'finance', 'point_of_interest', 'establishment']","2925 Scott Blvd, Santa Clara",37.3752709,-121.9590481
46,"Sunnyvale, California",bank,ChIJU40MuIO2woAR0XaCgj3in50,Union Bank,"['bank', 'atm', 'finance', 'point_of_interest', 'establishment']","495 South Mathilda Avenue, Sunnyvale",37.3719519,-122.0366191
47,"Sunnyvale, California",bank,ChIJV0UJcJ6wj4ARItiTAWrbofY,Bank of America Financial Center,"['bank', 'finance', 'point_of_interest', 'establishment']","384 San Antonio Road, Mountain View",37.405431,-122.1116539
48,"Sunnyvale, California",bank,ChIJY5Q_3fC1j4ARyg58XQBLuYs,Citibank,"['bank', 'finance', 'point_of_interest', 'establishment']","3755 El Camino Real, Santa Clara",37.3526373,-121.9998268
49,"Sunnyvale, California",bank,ChIJAW1mh321j4ARDdBMuvX2T9I,Wells Fargo Bank,"['bank', 'atm', 'finance', 'point_of_interest', 'establishment']","5146 Stevens Creek Boulevard, San Jose",37.3206443,-121.9924504
50,"Sunnyvale, California",bank,ChIJgyJwdJywj4ARq7xK4qCO6iA,Wells Fargo Bank,"['bank', 'atm', 'finance', 'point_of_interest', 'establishment']","2600 El Camino Real W, Mountain View",37.4018367,-122.1137772
51,"Sunnyvale, California",bank,ChIJA0c2hUbKj4ARqspkMqpMOgo,Chase Bank,"['bank', 'atm', 'finance', 'point_of_interest', 'establishment']","2200 El Camino Real, Santa Clara",37.351981,-121.962263
52,"Sunnyvale, California",bank,ChIJX3apS162j4ARDhi_wdHwnFs,Bank of the West,"['bank', 'finance', 'point_of_interest', 'establishment']","380 South Mathilda Avenue, Sunnyvale",37.37391,-122.034992
53,"Sunnyvale, California",bank,ChIJZbw7eXbJj4ARWydXMXNCroI,Wells Fargo Bank,"['bank', 'atm', 'finance', 'point_of_interest', 'establishment']","3920 Rivermark Plaza, Santa Clara",37.39356849999999,-121.9469118
54,"Sunnyvale, California",bank,ChIJa-k35hLKj4ARzOm1X9ykFfM,Bank of America Financial Center,"['bank', 'finance', 'point_of_interest', 'establishment']","2900 El Camino Real, Santa Clara",37.3519987,-121.9786007
55,"Sunnyvale, California",bank,ChIJi2HfFGS2j4ARZYbURjE-vHQ,Wells Fargo Bank,"['bank', 'atm', 'finance', 'point_of_interest', 'establishment']","107 E El Camino Real, Sunnyvale",37.3677502,-122.0315608
56,"Sunnyvale, California",bank,ChIJ-R3Jl621j4ARVPOIWlFN0Qg,Chase Bank,"['bank', 'atm', 'finance', 'point_of_interest', 'establishment']","20573 Stevens Creek Boulevard, Cupertino",37.323292,-122.034678
57,"Sunnyvale, California",bank,ChIJvVHFumG2j4ARJHsA8gkU0Ys,Citibank,"['bank', 'finance', 'point_of_interest', 'establishment']","395 West El Camino Real, Sunnyvale",37.3694123,-122.0363922
58,"Sunnyvale, California",bank,ChIJ8X20zk3Ij4ARzd1jJFm3OOU,Bank of America Financial Center,"['bank', 'finance', 'point_of_interest', 'establishment']","2611 N 1st St, San Jose",37.38619790000001,-121.928867
59,"Sunnyvale, California",bank,ChIJJ02Zca61j4ARSyC1ubikfXw,Comerica Bank,"['bank', 'finance', 'point_of_interest', 'establishment']","10020 North De Anza Boulevard, Cupertino",37.3237969,-122.0317742
0,"Cupertino, California",bank,ChIJNyCLLl62j4AR-AkNaib84lQ,Chase Bank,"['bank', 'atm', 'finance', 'point_of_interest', 'establishment']","410 South Mathilda Avenue, Sunnyvale",37.373075,-122.035107
1,"Cupertino, California",bank,ChIJkeHu1V-2j4ARoYKkIxrdsP8,Bank of America Financial Center,"['bank', 'finance', 'point_of_interest', 'establishment']","444 South Mathilda Avenue, Sunnyvale",37.37236519999999,-122.0354856
2,"Cupertino, California",bank,ChIJQSVQrde2j4ARHT0viTSnBss,HSBC Bank,"['bank', 'finance', 'point_of_interest', 'establishment']","1350 Grant Road #3, Mountain View",37.377249,-122.0769274
3,"Cupertino, California",bank,ChIJA4AN8j22j4ARtPyu4K0j-d8,Bank of America Financial Center,"['bank', 'finance', 'point_of_interest', 'establishment']","921 E Arques Ave, Sunnyvale",37.3812577,-122.0082921
4,"Cupertino, California",bank,ChIJU-Jb3Zy2j4ARGQjBsg-RYbo,Citibank,"['bank', 'finance', 'point_of_interest', 'establishment']","1303 South Mary Avenue, Sunnyvale",37.351482,-122.05086
5,"Cupertino, California",bank,ChIJ0ZvBZ8I0joARHXQQ_2Vrd14,Chase Bank,"['bank', 'atm', 'finance', 'point_of_interest', 'establishment']","1875 South Bascom Avenue Ste 114, Campbell",37.28761799999999,-121.934198
6,"Cupertino, California",bank,ChIJU40MuIO2woAR0XaCgj3in50,Union Bank,"['bank', 'atm', 'finance', 'point_of_interest', 'establishment']","495 South Mathilda Avenue, Sunnyvale",37.3719519,-122.0366191
7,"Cupertino, California",bank,ChIJQYnL3SfKj4ARwLJf3vq_EUU,Bank of America Financial Center,"['bank', 'finance', 'point_of_interest', 'establishment']","2925 Scott Blvd, Santa Clara",37.3752709,-121.9590481
8,"Cupertino, California",bank,ChIJd_OCpqrKj4AR9Mlo1YxIvA8,Citibank,"['bank', 'finance', 'point_of_interest', 'establishment']","1310 El Paseo de Saratoga, San Jose",37.29078000000001,-121.991769
9,"Cupertino, California",bank,ChIJAW1mh321j4ARDdBMuvX2T9I,Wells Fargo Bank,"['bank', 'atm', 'finance', 'point_of_interest', 'establishment']","5146 Stevens Creek Boulevard, San Jose",37.3206443,-121.9924504
10,"Cupertino, California",bank,ChIJY5Q_3fC1j4ARyg58XQBLuYs,Citibank,"['bank', 'finance', 'point_of_interest', 'establishment']","3755 El Camino Real, Santa Clara",37.3526373,-121.9998268
11,"Cupertino, California",bank,ChIJA0c2hUbKj4ARqspkMqpMOgo,Chase Bank,"['bank', 'atm', 'finance', 'point_of_interest', 'establishment']","2200 El Camino Real, Santa Clara",37.351981,-121.962263
12,"Cupertino, California",bank,ChIJX3apS162j4ARDhi_wdHwnFs,Bank of the West,"['bank', 'finance', 'point_of_interest', 'establishment']","380 South Mathilda Avenue, Sunnyvale",37.37391,-122.034992
13,"Cupertino, California",bank,ChIJa-k35hLKj4ARzOm1X9ykFfM,Bank of America Financial Center,"['bank', 'finance', 'point_of_interest', 'establishment']","2900 El Camino Real, Santa Clara",37.3519987,-121.9786007
14,"Cupertino, California",bank,ChIJ-R3Jl621j4ARVPOIWlFN0Qg,Chase Bank,"['bank', 'atm', 'finance', 'point_of_interest', 'establishment']","20573 Stevens Creek Boulevard, Cupertino",37.323292,-122.034678
15,"Cupertino, California",bank,ChIJi2HfFGS2j4ARZYbURjE-vHQ,Wells Fargo Bank,"['bank', 'atm', 'finance', 'point_of_interest', 'establishment']","107 E El Camino Real, Sunnyvale",37.3677502,-122.0315608
16,"Cupertino, California",bank,ChIJvVHFumG2j4ARJHsA8gkU0Ys,Citibank,"['bank', 'finance', 'point_of_interest', 'establishment']","395 West El Camino Real, Sunnyvale",37.3694123,-122.0363922
17,"Cupertino, California",bank,ChIJJ02Zca61j4ARSyC1ubikfXw,Comerica Bank,"['bank', 'finance', 'point_of_interest', 'establishment']","10020 North De Anza Boulevard, Cupertino",37.3237969,-122.0317742
18,"Cupertino, California",bank,ChIJ47uzaZu2j4ARCnGGJZLR6p8,Wells Fargo Bank,"['bank', 'atm', 'finance', 'point_of_interest', 'establishment']","1241 South Mary Avenue, Sunnyvale",37.3539181,-122.0513379
19,"Cupertino, California",bank,ChIJd_OCpqrKj4ARDuQKxB6ew4w,HSBC Bank,"['bank', 'finance', 'point_of_interest', 'establishment']","EL PASEO SHOPPING CENTER, 1420 El Paseo de Saratoga, San Jose",37.29048179999999,-121.9929234
20,"Cupertino, California",bank,ChIJNyCLLl62j4AR-AkNaib84lQ,Chase Bank,"['bank', 'atm', 'finance', 'point_of_interest', 'establishment']","410 South Mathilda Avenue, Sunnyvale",37.373075,-122.035107
21,"Cupertino, California",bank,ChIJkeHu1V-2j4ARoYKkIxrdsP8,Bank of America Financial Center,"['bank', 'finance', 'point_of_interest', 'establishment']","444 South Mathilda Avenue, Sunnyvale",37.37236519999999,-122.0354856
22,"Cupertino, California",bank,ChIJQSVQrde2j4ARHT0viTSnBss,HSBC Bank,"['bank', 'finance', 'point_of_interest', 'establishment']","1350 Grant Road #3, Mountain View",37.377249,-122.0769274
23,"Cupertino, California",bank,ChIJA4AN8j22j4ARtPyu4K0j-d8,Bank of America Financial Center,"['bank', 'finance', 'point_of_interest', 'establishment']","921 E Arques Ave, Sunnyvale",37.3812577,-122.0082921
24,"Cupertino, California",bank,ChIJU-Jb3Zy2j4ARGQjBsg-RYbo,Citibank,"['bank', 'finance', 'point_of_interest', 'establishment']","1303 South Mary Avenue, Sunnyvale",37.351482,-122.05086
25,"Cupertino, California",bank,ChIJ0ZvBZ8I0joARHXQQ_2Vrd14,Chase Bank,"['bank', 'atm', 'finance', 'point_of_interest', 'establishment']","1875 South Bascom Avenue Ste 114, Campbell",37.28761799999999,-121.934198
26,"Cupertino, California",bank,ChIJU40MuIO2woAR0XaCgj3in50,Union Bank,"['bank', 'atm', 'finance', 'point_of_interest', 'establishment']","495 South Mathilda Avenue, Sunnyvale",37.3719519,-122.0366191
27,"Cupertino, California",bank,ChIJQYnL3SfKj4ARwLJf3vq_EUU,Bank of America Financial Center,"['bank', 'finance', 'point_of_interest', 'establishment']","2925 Scott Blvd, Santa Clara",37.3752709,-121.9590481
28,"Cupertino, California",bank,ChIJd_OCpqrKj4AR9Mlo1YxIvA8,Citibank,"['bank', 'finance', 'point_of_interest', 'establishment']","1310 El Paseo de Saratoga, San Jose",37.29078000000001,-121.991769
29,"Cupertino, California",bank,ChIJAW1mh321j4ARDdBMuvX2T9I,Wells Fargo Bank,"['bank', 'atm', 'finance', 'point_of_interest', 'establishment']","5146 Stevens Creek Boulevard, San Jose",37.3206443,-121.9924504
30,"Cupertino, California",bank,ChIJY5Q_3fC1j4ARyg58XQBLuYs,Citibank,"['bank', 'finance', 'point_of_interest', 'establishment']","3755 El Camino Real, Santa Clara",37.3526373,-121.9998268
31,"Cupertino, California",bank,ChIJA0c2hUbKj4ARqspkMqpMOgo,Chase Bank,"['bank', 'atm', 'finance', 'point_of_interest', 'establishment']","2200 El Camino Real, Santa Clara",37.351981,-121.962263
32,"Cupertino, California",bank,ChIJX3apS162j4ARDhi_wdHwnFs,Bank of the West,"['bank', 'finance', 'point_of_interest', 'establishment']","380 South Mathilda Avenue, Sunnyvale",37.37391,-122.034992
33,"Cupertino, California",bank,ChIJa-k35hLKj4ARzOm1X9ykFfM,Bank of America Financial Center,"['bank', 'finance', 'point_of_interest', 'establishment']","2900 El Camino Real, Santa Clara",37.3519987,-121.9786007
34,"Cupertino, California",bank,ChIJ-R3Jl621j4ARVPOIWlFN0Qg,Chase Bank,"['bank', 'atm', 'finance', 'point_of_interest', 'establishment']","20573 Stevens Creek Boulevard, Cupertino",37.323292,-122.034678
35,"Cupertino, California",bank,ChIJi2HfFGS2j4ARZYbURjE-vHQ,Wells Fargo Bank,"['bank', 'atm', 'finance', 'point_of_interest', 'establishment']","107 E El Camino Real, Sunnyvale",37.3677502,-122.0315608
36,"Cupertino, California",bank,ChIJvVHFumG2j4ARJHsA8gkU0Ys,Citibank,"['bank', 'finance', 'point_of_interest', 'establishment']","395 West El Camino Real, Sunnyvale",37.3694123,-122.0363922
37,"Cupertino, California",bank,ChIJJ02Zca61j4ARSyC1ubikfXw,Comerica Bank,"['bank', 'finance', 'point_of_interest', 'establishment']","10020 North De Anza Boulevard, Cupertino",37.3237969,-122.0317742
38,"Cupertino, California",bank,ChIJ47uzaZu2j4ARCnGGJZLR6p8,Wells Fargo Bank,"['bank', 'atm', 'finance', 'point_of_interest', 'establishment']","1241 South Mary Avenue, Sunnyvale",37.3539181,-122.0513379
39,"Cupertino, California",bank,ChIJd_OCpqrKj4ARDuQKxB6ew4w,HSBC Bank,"['bank', 'finance', 'point_of_interest', 'establishment']","EL PASEO SHOPPING CENTER, 1420 El Paseo de Saratoga, San Jose",37.29048179999999,-121.9929234
40,"Cupertino, California",bank,ChIJNyCLLl62j4AR-AkNaib84lQ,Chase Bank,"['bank', 'atm', 'finance', 'point_of_interest', 'establishment']","410 South Mathilda Avenue, Sunnyvale",37.373075,-122.035107
41,"Cupertino, California",bank,ChIJkeHu1V-2j4ARoYKkIxrdsP8,Bank of America Financial Center,"['bank', 'finance', 'point_of_interest', 'establishment']","444 South Mathilda Avenue, Sunnyvale",37.37236519999999,-122.0354856
42,"Cupertino, California",bank,ChIJQSVQrde2j4ARHT0viTSnBss,HSBC Bank,"['bank', 'finance', 'point_of_interest', 'establishment']","1350 Grant Road #3, Mountain View",37.377249,-122.0769274
43,"Cupertino, California",bank,ChIJA4AN8j22j4ARtPyu4K0j-d8,Bank of America Financial Center,"['bank', 'finance', 'point_of_interest', 'establishment']","921 E Arques Ave, Sunnyvale",37.3812577,-122.0082921
44,"Cupertino, California",bank,ChIJU-Jb3Zy2j4ARGQjBsg-RYbo,Citibank,"['bank', 'finance', 'point_of_interest', 'establishment']","1303 South Mary Avenue, Sunnyvale",37.351482,-122.05086
45,"Cupertino, California",bank,ChIJ0ZvBZ8I0joARHXQQ_2Vrd14,Chase Bank,"['bank', 'atm', 'finance', 'point_of_interest', 'establishment']","1875 South Bascom Avenue Ste 114, Campbell",37.28761799999999,-121.934198
46,"Cupertino, California",bank,ChIJU40MuIO2woAR0XaCgj3in50,Union Bank,"['bank', 'atm', 'finance', 'point_of_interest', 'establishment']","495 South Mathilda Avenue, Sunnyvale",37.3719519,-122.0366191
47,"Cupertino, California",bank,ChIJQYnL3SfKj4ARwLJf3vq_EUU,Bank of America Financial Center,"['bank', 'finance', 'point_of_interest', 'establishment']","2925 Scott Blvd, Santa Clara",37.3752709,-121.9590481
48,"Cupertino, California",bank,ChIJd_OCpqrKj4AR9Mlo1YxIvA8,Citibank,"['bank', 'finance', 'point_of_interest', 'establishment']","1310 El Paseo de Saratoga, San Jose",37.29078000000001,-121.991769
49,"Cupertino, California",bank,ChIJAW1mh321j4ARDdBMuvX2T9I,Wells Fargo Bank,"['bank', 'atm', 'finance', 'point_of_interest', 'establishment']","5146 Stevens Creek Boulevard, San Jose",37.3206443,-121.9924504
50,"Cupertino, California",bank,ChIJY5Q_3fC1j4ARyg58XQBLuYs,Citibank,"['bank', 'finance', 'point_of_interest', 'establishment']","3755 El Camino Real, Santa Clara",37.3526373,-121.9998268
51,"Cupertino, California",bank,ChIJA0c2hUbKj4ARqspkMqpMOgo,Chase Bank,"['bank', 'atm', 'finance', 'point_of_interest', 'establishment']","2200 El Camino Real, Santa Clara",37.351981,-121.962263
52,"Cupertino, California",bank,ChIJX3apS162j4ARDhi_wdHwnFs,Bank of the West,"['bank', 'finance', 'point_of_interest', 'establishment']","380 South Mathilda Avenue, Sunnyvale",37.37391,-122.034992
53,"Cupertino, California",bank,ChIJa-k35hLKj4ARzOm1X9ykFfM,Bank of America Financial Center,"['bank', 'finance', 'point_of_interest', 'establishment']","2900 El Camino Real, Santa Clara",37.3519987,-121.9786007
54,"Cupertino, California",bank,ChIJ-R3Jl621j4ARVPOIWlFN0Qg,Chase Bank,"['bank', 'atm', 'finance', 'point_of_interest', 'establishment']","20573 Stevens Creek Boulevard, Cupertino",37.323292,-122.034678
55,"Cupertino, California",bank,ChIJi2HfFGS2j4ARZYbURjE-vHQ,Wells Fargo Bank,"['bank', 'atm', 'finance', 'point_of_interest', 'establishment']","107 E El Camino Real, Sunnyvale",37.3677502,-122.0315608
56,"Cupertino, California",bank,ChIJvVHFumG2j4ARJHsA8gkU0Ys,Citibank,"['bank', 'finance', 'point_of_interest', 'establishment']","395 West El Camino Real, Sunnyvale",37.3694123,-122.0363922
57,"Cupertino, California",bank,ChIJJ02Zca61j4ARSyC1ubikfXw,Comerica Bank,"['bank', 'finance', 'point_of_interest', 'establishment']","10020 North De Anza Boulevard, Cupertino",37.3237969,-122.0317742
58,"Cupertino, California",bank,ChIJ47uzaZu2j4ARCnGGJZLR6p8,Wells Fargo Bank,"['bank', 'atm', 'finance', 'point_of_interest', 'establishment']","1241 South Mary Avenue, Sunnyvale",37.3539181,-122.0513379
59,"Cupertino, California",bank,ChIJd_OCpqrKj4ARDuQKxB6ew4w,HSBC Bank,"['bank', 'finance', 'point_of_interest', 'establishment']","EL PASEO SHOPPING CENTER, 1420 El Paseo de Saratoga, San Jose",37.29048179999999,-121.9929234
0,"Santa Clara, California",bank,ChIJNyCLLl62j4AR-AkNaib84lQ,Chase Bank,"['bank', 'atm', 'finance', 'point_of_interest', 'establishment']","410 South Mathilda Avenue, Sunnyvale",37.373075,-122.035107
1,"Santa Clara, California",bank,ChIJkeHu1V-2j4ARoYKkIxrdsP8,Bank of America Financial Center,"['bank', 'finance', 'point_of_interest', 'establishment']","444 South Mathilda Avenue, Sunnyvale",37.37236519999999,-122.0354856
2,"Santa Clara, California",bank,ChIJ0ZvBZ8I0joARHXQQ_2Vrd14,Chase Bank,"['bank', 'atm', 'finance', 'point_of_interest', 'establishment']","1875 South Bascom Avenue Ste 114, Campbell",37.28761799999999,-121.934198
3,"Santa Clara, California",bank,ChIJ8X20zk3Ij4ARzd1jJFm3OOU,Bank of America Financial Center,"['bank', 'finance', 'point_of_interest', 'establishment']","2611 N 1st St, San Jose",37.38619790000001,-121.928867
4,"Santa Clara, California",bank,ChIJA4AN8j22j4ARtPyu4K0j-d8,Bank of America Financial Center,"['bank', 'finance', 'point_of_interest', 'establishment']","921 E Arques Ave, Sunnyvale",37.3812577,-122.0082921
5,"Santa Clara, California",bank,ChIJqwffsVrLj4AR49OnaxOgsj4,Wells Fargo Bank,"['bank', 'atm', 'finance', 'point_of_interest', 'establishment']","1300 West San Carlos Street, San Jose",37.3230449,-121.9119552
6,"Santa Clara, California",bank,ChIJQYnL3SfKj4ARwLJf3vq_EUU,Bank of America Financial Center,"['bank', 'finance', 'point_of_interest', 'establishment']","2925 Scott Blvd, Santa Clara",37.3752709,-121.9590481
7,"Santa Clara, California",bank,ChIJaV7zeCrNj4ARaqJAfyCvJQI,East West Bank,"['bank', 'finance', 'point_of_interest', 'establishment']","1001 Story Road # 130, San Jose",37.3324456,-121.8560384
8,"Santa Clara, California",bank,ChIJU-Jb3Zy2j4ARGQjBsg-RYbo,Citibank,"['bank', 'finance', 'point_of_interest', 'establishment']","1303 South Mary Avenue, Sunnyvale",37.351482,-122.05086
9,"Santa Clara, California",bank,ChIJu9cIC6PMj4ARipWOIHHVnm4,Fremont Bank,"['bank', 'finance', 'point_of_interest', 'establishment']","160 West Santa Clara Street #100, San Jose",37.3346422,-121.8929404
10,"Santa Clara, California",bank,ChIJcb3OtqTMj4ARqrg6mwKX0HA,Wells Fargo Learning Center,"['atm', 'bank', 'finance', 'point_of_interest', 'establishment']","121 South Market Street, San Jose",37.33310529999999,-121.8909916
11,"Santa Clara, California",bank,ChIJU40MuIO2woAR0XaCgj3in50,Union Bank,"['bank', 'atm', 'finance', 'point_of_interest', 'establishment']","495 South Mathilda Avenue, Sunnyvale",37.3719519,-122.0366191
12,"Santa Clara, California",bank,ChIJZbw7eXbJj4ARWydXMXNCroI,Wells Fargo Bank,"['bank', 'atm', 'finance', 'point_of_interest', 'establishment']","3920 Rivermark Plaza, Santa Clara",37.39356849999999,-121.9469118
13,"Santa Clara, California",bank,ChIJgf1_An7Lj4ARqEe6Hxx_Yvc,Bank of America Financial Center,"['bank', 'finance', 'point_of_interest', 'establishment']","777 N 1st St, San Jose",37.35062910000001,-121.9016683
14,"Santa Clara, California",bank,ChIJAW1mh321j4ARDdBMuvX2T9I,Wells Fargo Bank,"['bank', 'atm', 'finance', 'point_of_interest', 'establishment']","5146 Stevens Creek Boulevard, San Jose",37.3206443,-121.9924504
15,"Santa Clara, California",bank,ChIJIVx-1erLj4ARfoUDL--FL3c,Comerica Bank,"['bank', 'finance', 'point_of_interest', 'establishment']","226 Airport Parkway, San Jose",37.3682333,-121.9216815
16,"Santa Clara, California",bank,ChIJY5Q_3fC1j4ARyg58XQBLuYs,Citibank,"['bank', 'finance', 'point_of_interest', 'establishment']","3755 El Camino Real, Santa Clara",37.3526373,-121.9998268
17,"Santa Clara, California",bank,ChIJd_OCpqrKj4AR9Mlo1YxIvA8,Citibank,"['bank', 'finance', 'point_of_interest', 'establishment']","1310 El Paseo de Saratoga, San Jose",37.29078000000001,-121.991769
18,"Santa Clara, California",bank,ChIJA0c2hUbKj4ARqspkMqpMOgo,Chase Bank,"['bank', 'atm', 'finance', 'point_of_interest', 'establishment']","2200 El Camino Real, Santa Clara",37.351981,-121.962263
19,"Santa Clara, California",bank,ChIJ27TAcvSYlVQRAu59OFZfzFY,Bank of America Financial Center,"['bank', 'finance', 'point_of_interest', 'establishment']","1875 South Bascom Avenue, Campbell",37.28733,-121.932194
20,"Santa Clara, California",bank,ChIJNyCLLl62j4AR-AkNaib84lQ,Chase Bank,"['bank', 'atm', 'finance', 'point_of_interest', 'establishment']","410 South Mathilda Avenue, Sunnyvale",37.373075,-122.035107
21,"Santa Clara, California",bank,ChIJkeHu1V-2j4ARoYKkIxrdsP8,Bank of America Financial Center,"['bank', 'finance', 'point_of_interest', 'establishment']","444 South Mathilda Avenue, Sunnyvale",37.37236519999999,-122.0354856
22,"Santa Clara, California",bank,ChIJ0ZvBZ8I0joARHXQQ_2Vrd14,Chase Bank,"['bank', 'atm', 'finance', 'point_of_interest', 'establishment']","1875 South Bascom Avenue Ste 114, Campbell",37.28761799999999,-121.934198
23,"Santa Clara, California",bank,ChIJ8X20zk3Ij4ARzd1jJFm3OOU,Bank of America Financial Center,"['bank', 'finance', 'point_of_interest', 'establishment']","2611 N 1st St, San Jose",37.38619790000001,-121.928867
24,"Santa Clara, California",bank,ChIJA4AN8j22j4ARtPyu4K0j-d8,Bank of America Financial Center,"['bank', 'finance', 'point_of_interest', 'establishment']","921 E Arques Ave, Sunnyvale",37.3812577,-122.0082921
25,"Santa Clara, California",bank,ChIJqwffsVrLj4AR49OnaxOgsj4,Wells Fargo Bank,"['bank', 'atm', 'finance', 'point_of_interest', 'establishment']","1300 West San Carlos Street, San Jose",37.3230449,-121.9119552
26,"Santa Clara, California",bank,ChIJQYnL3SfKj4ARwLJf3vq_EUU,Bank of America Financial Center,"['bank', 'finance', 'point_of_interest', 'establishment']","2925 Scott Blvd, Santa Clara",37.3752709,-121.9590481
27,"Santa Clara, California",bank,ChIJaV7zeCrNj4ARaqJAfyCvJQI,East West Bank,"['bank', 'finance', 'point_of_interest', 'establishment']","1001 Story Road # 130, San Jose",37.3324456,-121.8560384
28,"Santa Clara, California",bank,ChIJU-Jb3Zy2j4ARGQjBsg-RYbo,Citibank,"['bank', 'finance', 'point_of_interest', 'establishment']","1303 South Mary Avenue, Sunnyvale",37.351482,-122.05086
29,"Santa Clara, California",bank,ChIJu9cIC6PMj4ARipWOIHHVnm4,Fremont Bank,"['bank', 'finance', 'point_of_interest', 'establishment']","160 West Santa Clara Street #100, San Jose",37.3346422,-121.8929404
30,"Santa Clara, California",bank,ChIJcb3OtqTMj4ARqrg6mwKX0HA,Wells Fargo Learning Center,"['atm', 'bank', 'finance', 'point_of_interest', 'establishment']","121 South Market Street, San Jose",37.33310529999999,-121.8909916
31,"Santa Clara, California",bank,ChIJU40MuIO2woAR0XaCgj3in50,Union Bank,"['bank', 'atm', 'finance', 'point_of_interest', 'establishment']","495 South Mathilda Avenue, Sunnyvale",37.3719519,-122.0366191
32,"Santa Clara, California",bank,ChIJZbw7eXbJj4ARWydXMXNCroI,Wells Fargo Bank,"['bank', 'atm', 'finance', 'point_of_interest', 'establishment']","3920 Rivermark Plaza, Santa Clara",37.39356849999999,-121.9469118
33,"Santa Clara, California",bank,ChIJgf1_An7Lj4ARqEe6Hxx_Yvc,Bank of America Financial Center,"['bank', 'finance', 'point_of_interest', 'establishment']","777 N 1st St, San Jose",37.35062910000001,-121.9016683
34,"Santa Clara, California",bank,ChIJAW1mh321j4ARDdBMuvX2T9I,Wells Fargo Bank,"['bank', 'atm', 'finance', 'point_of_interest', 'establishment']","5146 Stevens Creek Boulevard, San Jose",37.3206443,-121.9924504
35,"Santa Clara, California",bank,ChIJIVx-1erLj4ARfoUDL--FL3c,Comerica Bank,"['bank', 'finance', 'point_of_interest', 'establishment']","226 Airport Parkway, San Jose",37.3682333,-121.9216815
36,"Santa Clara, California",bank,ChIJY5Q_3fC1j4ARyg58XQBLuYs,Citibank,"['bank', 'finance', 'point_of_interest', 'establishment']","3755 El Camino Real, Santa Clara",37.3526373,-121.9998268
37,"Santa Clara, California",bank,ChIJd_OCpqrKj4AR9Mlo1YxIvA8,Citibank,"['bank', 'finance', 'point_of_interest', 'establishment']","1310 El Paseo de Saratoga, San Jose",37.29078000000001,-121.991769
38,"Santa Clara, California",bank,ChIJA0c2hUbKj4ARqspkMqpMOgo,Chase Bank,"['bank', 'atm', 'finance', 'point_of_interest', 'establishment']","2200 El Camino Real, Santa Clara",37.351981,-121.962263
39,"Santa Clara, California",bank,ChIJ27TAcvSYlVQRAu59OFZfzFY,Bank of America Financial Center,"['bank', 'finance', 'point_of_interest', 'establishment']","1875 South Bascom Avenue, Campbell",37.28733,-121.932194
40,"Santa Clara, California",bank,ChIJNyCLLl62j4AR-AkNaib84lQ,Chase Bank,"['bank', 'atm', 'finance', 'point_of_interest', 'establishment']","410 South Mathilda Avenue, Sunnyvale",37.373075,-122.035107
41,"Santa Clara, California",bank,ChIJkeHu1V-2j4ARoYKkIxrdsP8,Bank of America Financial Center,"['bank', 'finance', 'point_of_interest', 'establishment']","444 South Mathilda Avenue, Sunnyvale",37.37236519999999,-122.0354856
42,"Santa Clara, California",bank,ChIJ0ZvBZ8I0joARHXQQ_2Vrd14,Chase Bank,"['bank', 'atm', 'finance', 'point_of_interest', 'establishment']","1875 South Bascom Avenue Ste 114, Campbell",37.28761799999999,-121.934198
43,"Santa Clara, California",bank,ChIJ8X20zk3Ij4ARzd1jJFm3OOU,Bank of America Financial Center,"['bank', 'finance', 'point_of_interest', 'establishment']","2611 N 1st St, San Jose",37.38619790000001,-121.928867
44,"Santa Clara, California",bank,ChIJA4AN8j22j4ARtPyu4K0j-d8,Bank of America Financial Center,"['bank', 'finance', 'point_of_interest', 'establishment']","921 E Arques Ave, Sunnyvale",37.3812577,-122.0082921
45,"Santa Clara, California",bank,ChIJqwffsVrLj4AR49OnaxOgsj4,Wells Fargo Bank,"['bank', 'atm', 'finance', 'point_of_interest', 'establishment']","1300 West San Carlos Street, San Jose",37.3230449,-121.9119552
46,"Santa Clara, California",bank,ChIJQYnL3SfKj4ARwLJf3vq_EUU,Bank of America Financial Center,"['bank', 'finance', 'point_of_interest', 'establishment']","2925 Scott Blvd, Santa Clara",37.3752709,-121.9590481
47,"Santa Clara, California",bank,ChIJaV7zeCrNj4ARaqJAfyCvJQI,East West Bank,"['bank', 'finance', 'point_of_interest', 'establishment']","1001 Story Road # 130, San Jose",37.3324456,-121.8560384
48,"Santa Clara, California",bank,ChIJU-Jb3Zy2j4ARGQjBsg-RYbo,Citibank,"['bank', 'finance', 'point_of_interest', 'establishment']","1303 South Mary Avenue, Sunnyvale",37.351482,-122.05086
49,"Santa Clara, California",bank,ChIJu9cIC6PMj4ARipWOIHHVnm4,Fremont Bank,"['bank', 'finance', 'point_of_interest', 'establishment']","160 West Santa Clara Street #100, San Jose",37.3346422,-121.8929404
50,"Santa Clara, California",bank,ChIJcb3OtqTMj4ARqrg6mwKX0HA,Wells Fargo Learning Center,"['atm', 'bank', 'finance', 'point_of_interest', 'establishment']","121 South Market Street, San Jose",37.33310529999999,-121.8909916
51,"Santa Clara, California",bank,ChIJU40MuIO2woAR0XaCgj3in50,Union Bank,"['bank', 'atm', 'finance', 'point_of_interest', 'establishment']","495 South Mathilda Avenue, Sunnyvale",37.3719519,-122.0366191
52,"Santa Clara, California",bank,ChIJZbw7eXbJj4ARWydXMXNCroI,Wells Fargo Bank,"['bank', 'atm', 'finance', 'point_of_interest', 'establishment']","3920 Rivermark Plaza, Santa Clara",37.39356849999999,-121.9469118
53,"Santa Clara, California",bank,ChIJgf1_An7Lj4ARqEe6Hxx_Yvc,Bank of America Financial Center,"['bank', 'finance', 'point_of_interest', 'establishment']","777 N 1st St, San Jose",37.35062910000001,-121.9016683
54,"Santa Clara, California",bank,ChIJAW1mh321j4ARDdBMuvX2T9I,Wells Fargo Bank,"['bank', 'atm', 'finance', 'point_of_interest', 'establishment']","5146 Stevens Creek Boulevard, San Jose",37.3206443,-121.9924504
55,"Santa Clara, California",bank,ChIJIVx-1erLj4ARfoUDL--FL3c,Comerica Bank,"['bank', 'finance', 'point_of_interest', 'establishment']","226 Airport Parkway, San Jose",37.3682333,-121.9216815
56,"Santa Clara, California",bank,ChIJY5Q_3fC1j4ARyg58XQBLuYs,Citibank,"['bank', 'finance', 'point_of_interest', 'establishment']","3755 El Camino Real, Santa Clara",37.3526373,-121.9998268
57,"Santa Clara, California",bank,ChIJd_OCpqrKj4AR9Mlo1YxIvA8,Citibank,"['bank', 'finance', 'point_of_interest', 'establishment']","1310 El Paseo de Saratoga, San Jose",37.29078000000001,-121.991769
58,"Santa Clara, California",bank,ChIJA0c2hUbKj4ARqspkMqpMOgo,Chase Bank,"['bank', 'atm', 'finance', 'point_of_interest', 'establishment']","2200 El Camino Real, Santa Clara",37.351981,-121.962263
59,"Santa Clara, California",bank,ChIJ27TAcvSYlVQRAu59OFZfzFY,Bank of America Financial Center,"['bank', 'finance', 'point_of_interest', 'establishment']","1875 South Bascom Avenue, Campbell",37.28733,-121.932194
0,"San Jose, California",bank,ChIJ0ZvBZ8I0joARHXQQ_2Vrd14,Chase Bank,"['bank', 'atm', 'finance', 'point_of_interest', 'establishment']","1875 South Bascom Avenue Ste 114, Campbell",37.28761799999999,-121.934198
1,"San Jose, California",bank,ChIJaV7zeCrNj4ARaqJAfyCvJQI,East West Bank,"['bank', 'finance', 'point_of_interest', 'establishment']","1001 Story Road # 130, San Jose",37.3324456,-121.8560384
2,"San Jose, California",bank,ChIJ8X20zk3Ij4ARzd1jJFm3OOU,Bank of America Financial Center,"['bank', 'finance', 'point_of_interest', 'establishment']","2611 N 1st St, San Jose",37.38619790000001,-121.928867
3,"San Jose, California",bank,ChIJqwffsVrLj4AR49OnaxOgsj4,Wells Fargo Bank,"['bank', 'atm', 'finance', 'point_of_interest', 'establishment']","1300 West San Carlos Street, San Jose",37.3230449,-121.9119552
4,"San Jose, California",bank,ChIJrZFSwkYyjoARJWRuVShoDwg,U.S. Bank ATM - Capital Swap Meet,"['atm', 'bank', 'finance', 'point_of_interest', 'establishment']","3630 Hillcap Avenue, San Jose",37.2801231,-121.840465
5,"San Jose, California",bank,ChIJQYnL3SfKj4ARwLJf3vq_EUU,Bank of America Financial Center,"['bank', 'finance', 'point_of_interest', 'establishment']","2925 Scott Blvd, Santa Clara",37.3752709,-121.9590481
6,"San Jose, California",bank,ChIJA9HfxGzNj4ARyWrbkBC0n6Y,Citibank,"['bank', 'finance', 'point_of_interest', 'establishment']","2830 Alum Rock Avenue, San Jose",37.363012,-121.832711
7,"San Jose, California",bank,ChIJu9cIC6PMj4ARipWOIHHVnm4,Fremont Bank,"['bank', 'finance', 'point_of_interest', 'establishment']","160 West Santa Clara Street #100, San Jose",37.3346422,-121.8929404
8,"San Jose, California",bank,ChIJcb3OtqTMj4ARqrg6mwKX0HA,Wells Fargo Learning Center,"['atm', 'bank', 'finance', 'point_of_interest', 'establishment']","121 South Market Street, San Jose",37.33310529999999,-121.8909916
9,"San Jose, California",bank,ChIJgf1_An7Lj4ARqEe6Hxx_Yvc,Bank of America Financial Center,"['bank', 'finance', 'point_of_interest', 'establishment']","777 N 1st St, San Jose",37.35062910000001,-121.9016683
10,"San Jose, California",bank,ChIJIVx-1erLj4ARfoUDL--FL3c,Comerica Bank,"['bank', 'finance', 'point_of_interest', 'establishment']","226 Airport Parkway, San Jose",37.3682333,-121.9216815
11,"San Jose, California",bank,ChIJ27TAcvSYlVQRAu59OFZfzFY,Bank of America Financial Center,"['bank', 'finance', 'point_of_interest', 'establishment']","1875 South Bascom Avenue, Campbell",37.28733,-121.932194
12,"San Jose, California",bank,ChIJ3UOE7p8yjoAR9eM87GZEcsk,Citibank,"['bank', 'finance', 'point_of_interest', 'establishment']","2189 Quimby Road, San Jose",37.323364,-121.811749
13,"San Jose, California",bank,ChIJy08pUcMzjoARa0ZjhT-t5Ug,Wells Fargo Bank,"['bank', 'atm', 'finance', 'point_of_interest', 'establishment']","4950 Almaden Expressway, San Jose",37.2597741,-121.8746334
14,"San Jose, California",bank,ChIJZbw7eXbJj4ARWydXMXNCroI,Wells Fargo Bank,"['bank', 'atm', 'finance', 'point_of_interest', 'establishment']","3920 Rivermark Plaza, Santa Clara",37.39356849999999,-121.9469118
15,"San Jose, California",bank,ChIJA0c2hUbKj4ARqspkMqpMOgo,Chase Bank,"['bank', 'atm', 'finance', 'point_of_interest', 'establishment']","2200 El Camino Real, Santa Clara",37.351981,-121.962263
16,"San Jose, California",bank,ChIJYTLqvDHNj4ARqFMCZEaVXgY,Chase Bank,"['bank', 'atm', 'finance', 'point_of_interest', 'establishment']","1705 Story Road ste a, San Jose",37.340527,-121.842823
17,"San Jose, California",bank,ChIJKc9NlX_Lj4ARwwO9_1lMh20,Bank of the West,"['bank', 'finance', 'point_of_interest', 'establishment']","890 North 1st Street, San Jose",37.35333,-121.903006
18,"San Jose, California",bank,ChIJb922uZXOj4ARoXR-eV2BYSY,U.S. Bank ATM - Milpitas Seafood City,"['atm', 'bank', 'finance', 'point_of_interest', 'establishment']","1535 Landess Avenue Suite 107, Milpitas",37.41684800000001,-121.8768983
19,"San Jose, California",bank,ChIJ-XkQXoLMj4ARdqxdUzKP0Hc,State Bank of India (California),"['bank', 'finance', 'point_of_interest', 'establishment']","675 North 1st Street #105, San Jose",37.3484444,-121.9002394
20,"San Jose, California",bank,ChIJ0ZvBZ8I0joARHXQQ_2Vrd14,Chase Bank,"['bank', 'atm', 'finance', 'point_of_interest', 'establishment']","1875 South Bascom Avenue Ste 114, Campbell",37.28761799999999,-121.934198
21,"San Jose, California",bank,ChIJaV7zeCrNj4ARaqJAfyCvJQI,East West Bank,"['bank', 'finance', 'point_of_interest', 'establishment']","1001 Story Road # 130, San Jose",37.3324456,-121.8560384
22,"San Jose, California",bank,ChIJ8X20zk3Ij4ARzd1jJFm3OOU,Bank of America Financial Center,"['bank', 'finance', 'point_of_interest', 'establishment']","2611 N 1st St, San Jose",37.38619790000001,-121.928867
23,"San Jose, California",bank,ChIJqwffsVrLj4AR49OnaxOgsj4,Wells Fargo Bank,"['bank', 'atm', 'finance', 'point_of_interest', 'establishment']","1300 West San Carlos Street, San Jose",37.3230449,-121.9119552
24,"San Jose, California",bank,ChIJrZFSwkYyjoARJWRuVShoDwg,U.S. Bank ATM - Capital Swap Meet,"['atm', 'bank', 'finance', 'point_of_interest', 'establishment']","3630 Hillcap Avenue, San Jose",37.2801231,-121.840465
25,"San Jose, California",bank,ChIJQYnL3SfKj4ARwLJf3vq_EUU,Bank of America Financial Center,"['bank', 'finance', 'point_of_interest', 'establishment']","2925 Scott Blvd, Santa Clara",37.3752709,-121.9590481
26,"San Jose, California",bank,ChIJA9HfxGzNj4ARyWrbkBC0n6Y,Citibank,"['bank', 'finance', 'point_of_interest', 'establishment']","2830 Alum Rock Avenue, San Jose",37.363012,-121.832711
27,"San Jose, California",bank,ChIJu9cIC6PMj4ARipWOIHHVnm4,Fremont Bank,"['bank', 'finance', 'point_of_interest', 'establishment']","160 West Santa Clara Street #100, San Jose",37.3346422,-121.8929404
28,"San Jose, California",bank,ChIJcb3OtqTMj4ARqrg6mwKX0HA,Wells Fargo Learning Center,"['atm', 'bank', 'finance', 'point_of_interest', 'establishment']","121 South Market Street, San Jose",37.33310529999999,-121.8909916
29,"San Jose, California",bank,ChIJgf1_An7Lj4ARqEe6Hxx_Yvc,Bank of America Financial Center,"['bank', 'finance', 'point_of_interest', 'establishment']","777 N 1st St, San Jose",37.35062910000001,-121.9016683
30,"San Jose, California",bank,ChIJIVx-1erLj4ARfoUDL--FL3c,Comerica Bank,"['bank', 'finance', 'point_of_interest', 'establishment']","226 Airport Parkway, San Jose",37.3682333,-121.9216815
31,"San Jose, California",bank,ChIJ27TAcvSYlVQRAu59OFZfzFY,Bank of America Financial Center,"['bank', 'finance', 'point_of_interest', 'establishment']","1875 South Bascom Avenue, Campbell",37.28733,-121.932194
32,"San Jose, California",bank,ChIJ3UOE7p8yjoAR9eM87GZEcsk,Citibank,"['bank', 'finance', 'point_of_interest', 'establishment']","2189 Quimby Road, San Jose",37.323364,-121.811749
33,"San Jose, California",bank,ChIJy08pUcMzjoARa0ZjhT-t5Ug,Wells Fargo Bank,"['bank', 'atm', 'finance', 'point_of_interest', 'establishment']","4950 Almaden Expressway, San Jose",37.2597741,-121.8746334
34,"San Jose, California",bank,ChIJZbw7eXbJj4ARWydXMXNCroI,Wells Fargo Bank,"['bank', 'atm', 'finance', 'point_of_interest', 'establishment']","3920 Rivermark Plaza, Santa Clara",37.39356849999999,-121.9469118
35,"San Jose, California",bank,ChIJA0c2hUbKj4ARqspkMqpMOgo,Chase Bank,"['bank', 'atm', 'finance', 'point_of_interest', 'establishment']","2200 El Camino Real, Santa Clara",37.351981,-121.962263
36,"San Jose, California",bank,ChIJYTLqvDHNj4ARqFMCZEaVXgY,Chase Bank,"['bank', 'atm', 'finance', 'point_of_interest', 'establishment']","1705 Story Road ste a, San Jose",37.340527,-121.842823
37,"San Jose, California",bank,ChIJKc9NlX_Lj4ARwwO9_1lMh20,Bank of the West,"['bank', 'finance', 'point_of_interest', 'establishment']","890 North 1st Street, San Jose",37.35333,-121.903006
38,"San Jose, California",bank,ChIJb922uZXOj4ARoXR-eV2BYSY,U.S. Bank ATM - Milpitas Seafood City,"['atm', 'bank', 'finance', 'point_of_interest', 'establishment']","1535 Landess Avenue Suite 107, Milpitas",37.41684800000001,-121.8768983
39,"San Jose, California",bank,ChIJ-XkQXoLMj4ARdqxdUzKP0Hc,State Bank of India (California),"['bank', 'finance', 'point_of_interest', 'establishment']","675 North 1st Street #105, San Jose",37.3484444,-121.9002394
40,"San Jose, California",bank,ChIJ0ZvBZ8I0joARHXQQ_2Vrd14,Chase Bank,"['bank', 'atm', 'finance', 'point_of_interest', 'establishment']","1875 South Bascom Avenue Ste 114, Campbell",37.28761799999999,-121.934198
41,"San Jose, California",bank,ChIJaV7zeCrNj4ARaqJAfyCvJQI,East West Bank,"['bank', 'finance', 'point_of_interest', 'establishment']","1001 Story Road # 130, San Jose",37.3324456,-121.8560384
42,"San Jose, California",bank,ChIJ8X20zk3Ij4ARzd1jJFm3OOU,Bank of America Financial Center,"['bank', 'finance', 'point_of_interest', 'establishment']","2611 N 1st St, San Jose",37.38619790000001,-121.928867
43,"San Jose, California",bank,ChIJqwffsVrLj4AR49OnaxOgsj4,Wells Fargo Bank,"['bank', 'atm', 'finance', 'point_of_interest', 'establishment']","1300 West San Carlos Street, San Jose",37.3230449,-121.9119552
44,"San Jose, California",bank,ChIJrZFSwkYyjoARJWRuVShoDwg,U.S. Bank ATM - Capital Swap Meet,"['atm', 'bank', 'finance', 'point_of_interest', 'establishment']","3630 Hillcap Avenue, San Jose",37.2801231,-121.840465
45,"San Jose, California",bank,ChIJQYnL3SfKj4ARwLJf3vq_EUU,Bank of America Financial Center,"['bank', 'finance', 'point_of_interest', 'establishment']","2925 Scott Blvd, Santa Clara",37.3752709,-121.9590481
46,"San Jose, California",bank,ChIJA9HfxGzNj4ARyWrbkBC0n6Y,Citibank,"['bank', 'finance', 'point_of_interest', 'establishment']","2830 Alum Rock Avenue, San Jose",37.363012,-121.832711
47,"San Jose, California",bank,ChIJu9cIC6PMj4ARipWOIHHVnm4,Fremont Bank,"['bank', 'finance', 'point_of_interest', 'establishment']","160 West Santa Clara Street #100, San Jose",37.3346422,-121.8929404
48,"San Jose, California",bank,ChIJcb3OtqTMj4ARqrg6mwKX0HA,Wells Fargo Learning Center,"['atm', 'bank', 'finance', 'point_of_interest', 'establishment']","121 South Market Street, San Jose",37.33310529999999,-121.8909916
49,"San Jose, California",bank,ChIJgf1_An7Lj4ARqEe6Hxx_Yvc,Bank of America Financial Center,"['bank', 'finance', 'point_of_interest', 'establishment']","777 N 1st St, San Jose",37.35062910000001,-121.9016683
50,"San Jose, California",bank,ChIJIVx-1erLj4ARfoUDL--FL3c,Comerica Bank,"['bank', 'finance', 'point_of_interest', 'establishment']","226 Airport Parkway, San Jose",37.3682333,-121.9216815
51,"San Jose, California",bank,ChIJ27TAcvSYlVQRAu59OFZfzFY,Bank of America Financial Center,"['bank', 'finance', 'point_of_interest', 'establishment']","1875 South Bascom Avenue, Campbell",37.28733,-121.932194
52,"San Jose, California",bank,ChIJ3UOE7p8yjoAR9eM87GZEcsk,Citibank,"['bank', 'finance', 'point_of_interest', 'establishment']","2189 Quimby Road, San Jose",37.323364,-121.811749
53,"San Jose, California",bank,ChIJy08pUcMzjoARa0ZjhT-t5Ug,Wells Fargo Bank,"['bank', 'atm', 'finance', 'point_of_interest', 'establishment']","4950 Almaden Expressway, San Jose",37.2597741,-121.8746334
54,"San Jose, California",bank,ChIJZbw7eXbJj4ARWydXMXNCroI,Wells Fargo Bank,"['bank', 'atm', 'finance', 'point_of_interest', 'establishment']","3920 Rivermark Plaza, Santa Clara",37.39356849999999,-121.9469118
55,"San Jose, California",bank,ChIJA0c2hUbKj4ARqspkMqpMOgo,Chase Bank,"['bank', 'atm', 'finance', 'point_of_interest', 'establishment']","2200 El Camino Real, Santa Clara",37.351981,-121.962263
56,"San Jose, California",bank,ChIJYTLqvDHNj4ARqFMCZEaVXgY,Chase Bank,"['bank', 'atm', 'finance', 'point_of_interest', 'establishment']","1705 Story Road ste a, San Jose",37.340527,-121.842823
57,"San Jose, California",bank,ChIJKc9NlX_Lj4ARwwO9_1lMh20,Bank of the West,"['bank', 'finance', 'point_of_interest', 'establishment']","890 North 1st Street, San Jose",37.35333,-121.903006
58,"San Jose, California",bank,ChIJb922uZXOj4ARoXR-eV2BYSY,U.S. Bank ATM - Milpitas Seafood City,"['atm', 'bank', 'finance', 'point_of_interest', 'establishment']","1535 Landess Avenue Suite 107, Milpitas",37.41684800000001,-121.8768983
59,"San Jose, California",bank,ChIJ-XkQXoLMj4ARdqxdUzKP0Hc,State Bank of India (California),"['bank', 'finance', 'point_of_interest', 'establishment']","675 North 1st Street #105, San Jose",37.3484444,-121.9002394
0,"Fremont, California",bank,ChIJO4mo82GVj4AR8wlG7jGMJg0,Citibank,"['bank', 'finance', 'point_of_interest', 'establishment']","1800 Decoto Road, Union City",37.588914,-122.020656
1,"Fremont, California",bank,ChIJ4Xsq05vAj4ARd8o4rAsi9J4,Bank of America Financial Center,"['bank', 'finance', 'point_of_interest', 'establishment']","39300 Fremont Boulevard, Fremont",37.5467201,-121.9838664
2,"Fremont, California",bank,ChIJ9ZBlK8_Aj4AR6Jr1YUw13Wk,Bank of America Financial Center,"['bank', 'finance', 'point_of_interest', 'establishment']","40665 Fremont Blvd, Fremont",37.53518499999999,-121.964313
3,"Fremont, California",bank,ChIJX2WZPUW_j4ARUEZg-gMLzkQ,Citibank,"['bank', 'finance', 'point_of_interest', 'establishment']","2900 Newpark Mall, Newark",37.527008,-122.005528
4,"Fremont, California",bank,ChIJi6kT-U--j4AR12RjlsdfaL8,Wells Fargo Bank,"['bank', 'atm', 'finance', 'point_of_interest', 'establishment']","34988 Newark Boulevard, Newark",37.5509773,-122.04934
5,"Fremont, California",bank,ChIJqTJBhOPAj4AR1V-OYzEXizw,Fremont Bank,"['bank', 'finance', 'point_of_interest', 'establishment']","40031 Mission Boulevard, Fremont",37.5568323,-121.9515628
6,"Fremont, California",bank,ChIJCVEwOFC-j4ARZf3OL6BzWeI,Citibank,"['bank', 'finance', 'point_of_interest', 'establishment']","35106 Newark Boulevard, Newark",37.550021,-122.047481
7,"Fremont, California",bank,ChIJU2Uiv0--j4ARaAs8bv8KRW4,Fremont Bank,"['bank', 'finance', 'point_of_interest', 'establishment']","5829 Jarvis Avenue suite b, Newark",37.55235200000001,-122.048131
8,"Fremont, California",bank,ChIJseqC65PAj4ARCj8iOJUEuFU,Bank of the West,"['bank', 'finance', 'point_of_interest', 'establishment']","39533 Paseo Padre Parkway, Fremont",37.549513,-121.974051
9,"Fremont, California",bank,ChIJ0ZXyMGKVj4ARoqpclY4cAgk,Cathay Bank,"['bank', 'atm', 'finance', 'point_of_interest', 'establishment']","1701 Decoto Road, Union City",37.5893822,-122.0216555
10,"Fremont, California",bank,ChIJiwPLGo9O2YARc499TqJFEL4,Union Bank,"['bank', 'atm', 'finance', 'point_of_interest', 'establishment']","39305 Paseo Padre Parkway, Fremont",37.55210659999999,-121.9792886
11,"Fremont, California",bank,ChIJu159tV2_j4AR1d8D4zhjP6U,Wells Fargo Bank,"['bank', 'atm', 'finance', 'point_of_interest', 'establishment']","5191 Mowry Avenue, Fremont",37.5353267,-121.9998257
12,"Fremont, California",bank,ChIJs1Q2f4XAj4ARyRZR8NQqqCY,Comerica Bank,"['bank', 'finance', 'point_of_interest', 'establishment']","39008 Paseo Padre Parkway, Fremont",37.5534748,-121.9801766
13,"Fremont, California",bank,ChIJ1RuAL13Gj4AR7NRVhr-bEZs,Fremont Bank,"['bank', 'finance', 'point_of_interest', 'establishment']","46635 Mission Boulevard, Fremont",37.4913384,-121.9285172
14,"Fremont, California",bank,ChIJX44ZQt-_j4ARCGCEMx-476A,Chase Bank,"['bank', 'atm', 'finance', 'point_of_interest', 'establishment']","34536 Alvarado-Niles Road, Union City",37.58725159999999,-122.0197029
15,"Fremont, California",bank,ChIJpbVzjc3Aj4ARPSiTKiSciZs,Wells Fargo Bank,"['bank', 'atm', 'finance', 'point_of_interest', 'establishment']","40982 Fremont Boulevard, Fremont",37.53343230000001,-121.9593016
16,"Fremont, California",bank,ChIJ7eFUtpzAj4ARX4aOB_2twUA,Chase Bank,"['bank', 'atm', 'finance', 'point_of_interest', 'establishment']","38980 Fremont Boulevard, Fremont",37.549117,-121.988479
17,"Fremont, California",bank,ChIJr4nDoZvAj4ARxqP-jUACmZo,Fremont Bank,"['bank', 'finance', 'point_of_interest', 'establishment']","39150 Fremont Boulevard, Fremont",37.5481798,-121.985423
18,"Fremont, California",bank,ChIJ0zDixcjAj4ARHAbYWt6C9V0,Check Into Cash,"['bank', 'finance', 'point_of_interest', 'establishment']","40567 Fremont Boulevard, Fremont",37.535936,-121.965407
19,"Fremont, California",bank,ChIJgauinxPHj4ARLYLR2pjRq1E,Citibank,"['bank', 'finance', 'point_of_interest', 'establishment']","43804 Christy Street, Fremont",37.504187,-121.968962
20,"Fremont, California",bank,ChIJO4mo82GVj4AR8wlG7jGMJg0,Citibank,"['bank', 'finance', 'point_of_interest', 'establishment']","1800 Decoto Road, Union City",37.588914,-122.020656
21,"Fremont, California",bank,ChIJ4Xsq05vAj4ARd8o4rAsi9J4,Bank of America Financial Center,"['bank', 'finance', 'point_of_interest', 'establishment']","39300 Fremont Boulevard, Fremont",37.5467201,-121.9838664
22,"Fremont, California",bank,ChIJ9ZBlK8_Aj4AR6Jr1YUw13Wk,Bank of America Financial Center,"['bank', 'finance', 'point_of_interest', 'establishment']","40665 Fremont Blvd, Fremont",37.53518499999999,-121.964313
23,"Fremont, California",bank,ChIJX2WZPUW_j4ARUEZg-gMLzkQ,Citibank,"['bank', 'finance', 'point_of_interest', 'establishment']","2900 Newpark Mall, Newark",37.527008,-122.005528
24,"Fremont, California",bank,ChIJi6kT-U--j4AR12RjlsdfaL8,Wells Fargo Bank,"['bank', 'atm', 'finance', 'point_of_interest', 'establishment']","34988 Newark Boulevard, Newark",37.5509773,-122.04934
25,"Fremont, California",bank,ChIJqTJBhOPAj4AR1V-OYzEXizw,Fremont Bank,"['bank', 'finance', 'point_of_interest', 'establishment']","40031 Mission Boulevard, Fremont",37.5568323,-121.9515628
26,"Fremont, California",bank,ChIJCVEwOFC-j4ARZf3OL6BzWeI,Citibank,"['bank', 'finance', 'point_of_interest', 'establishment']","35106 Newark Boulevard, Newark",37.550021,-122.047481
27,"Fremont, California",bank,ChIJU2Uiv0--j4ARaAs8bv8KRW4,Fremont Bank,"['bank', 'finance', 'point_of_interest', 'establishment']","5829 Jarvis Avenue suite b, Newark",37.55235200000001,-122.048131
28,"Fremont, California",bank,ChIJseqC65PAj4ARCj8iOJUEuFU,Bank of the West,"['bank', 'finance', 'point_of_interest', 'establishment']","39533 Paseo Padre Parkway, Fremont",37.549513,-121.974051
29,"Fremont, California",bank,ChIJ0ZXyMGKVj4ARoqpclY4cAgk,Cathay Bank,"['bank', 'atm', 'finance', 'point_of_interest', 'establishment']","1701 Decoto Road, Union City",37.5893822,-122.0216555
30,"Fremont, California",bank,ChIJiwPLGo9O2YARc499TqJFEL4,Union Bank,"['bank', 'atm', 'finance', 'point_of_interest', 'establishment']","39305 Paseo Padre Parkway, Fremont",37.55210659999999,-121.9792886
31,"Fremont, California",bank,ChIJu159tV2_j4AR1d8D4zhjP6U,Wells Fargo Bank,"['bank', 'atm', 'finance', 'point_of_interest', 'establishment']","5191 Mowry Avenue, Fremont",37.5353267,-121.9998257
32,"Fremont, California",bank,ChIJs1Q2f4XAj4ARyRZR8NQqqCY,Comerica Bank,"['bank', 'finance', 'point_of_interest', 'establishment']","39008 Paseo Padre Parkway, Fremont",37.5534748,-121.9801766
33,"Fremont, California",bank,ChIJ1RuAL13Gj4AR7NRVhr-bEZs,Fremont Bank,"['bank', 'finance', 'point_of_interest', 'establishment']","46635 Mission Boulevard, Fremont",37.4913384,-121.9285172
34,"Fremont, California",bank,ChIJX44ZQt-_j4ARCGCEMx-476A,Chase Bank,"['bank', 'atm', 'finance', 'point_of_interest', 'establishment']","34536 Alvarado-Niles Road, Union City",37.58725159999999,-122.0197029
35,"Fremont, California",bank,ChIJpbVzjc3Aj4ARPSiTKiSciZs,Wells Fargo Bank,"['bank', 'atm', 'finance', 'point_of_interest', 'establishment']","40982 Fremont Boulevard, Fremont",37.53343230000001,-121.9593016
36,"Fremont, California",bank,ChIJ7eFUtpzAj4ARX4aOB_2twUA,Chase Bank,"['bank', 'atm', 'finance', 'point_of_interest', 'establishment']","38980 Fremont Boulevard, Fremont",37.549117,-121.988479
37,"Fremont, California",bank,ChIJr4nDoZvAj4ARxqP-jUACmZo,Fremont Bank,"['bank', 'finance', 'point_of_interest', 'establishment']","39150 Fremont Boulevard, Fremont",37.5481798,-121.985423
38,"Fremont, California",bank,ChIJ0zDixcjAj4ARHAbYWt6C9V0,Check Into Cash,"['bank', 'finance', 'point_of_interest', 'establishment']","40567 Fremont Boulevard, Fremont",37.535936,-121.965407
39,"Fremont, California",bank,ChIJgauinxPHj4ARLYLR2pjRq1E,Citibank,"['bank', 'finance', 'point_of_interest', 'establishment']","43804 Christy Street, Fremont",37.504187,-121.968962
40,"Fremont, California",bank,ChIJO4mo82GVj4AR8wlG7jGMJg0,Citibank,"['bank', 'finance', 'point_of_interest', 'establishment']","1800 Decoto Road, Union City",37.588914,-122.020656
41,"Fremont, California",bank,ChIJ4Xsq05vAj4ARd8o4rAsi9J4,Bank of America Financial Center,"['bank', 'finance', 'point_of_interest', 'establishment']","39300 Fremont Boulevard, Fremont",37.5467201,-121.9838664
42,"Fremont, California",bank,ChIJ9ZBlK8_Aj4AR6Jr1YUw13Wk,Bank of America Financial Center,"['bank', 'finance', 'point_of_interest', 'establishment']","40665 Fremont Blvd, Fremont",37.53518499999999,-121.964313
43,"Fremont, California",bank,ChIJX2WZPUW_j4ARUEZg-gMLzkQ,Citibank,"['bank', 'finance', 'point_of_interest', 'establishment']","2900 Newpark Mall, Newark",37.527008,-122.005528
44,"Fremont, California",bank,ChIJi6kT-U--j4AR12RjlsdfaL8,Wells Fargo Bank,"['bank', 'atm', 'finance', 'point_of_interest', 'establishment']","34988 Newark Boulevard, Newark",37.5509773,-122.04934
45,"Fremont, California",bank,ChIJqTJBhOPAj4AR1V-OYzEXizw,Fremont Bank,"['bank', 'finance', 'point_of_interest', 'establishment']","40031 Mission Boulevard, Fremont",37.5568323,-121.9515628
46,"Fremont, California",bank,ChIJCVEwOFC-j4ARZf3OL6BzWeI,Citibank,"['bank', 'finance', 'point_of_interest', 'establishment']","35106 Newark Boulevard, Newark",37.550021,-122.047481
47,"Fremont, California",bank,ChIJU2Uiv0--j4ARaAs8bv8KRW4,Fremont Bank,"['bank', 'finance', 'point_of_interest', 'establishment']","5829 Jarvis Avenue suite b, Newark",37.55235200000001,-122.048131
48,"Fremont, California",bank,ChIJseqC65PAj4ARCj8iOJUEuFU,Bank of the West,"['bank', 'finance', 'point_of_interest', 'establishment']","39533 Paseo Padre Parkway, Fremont",37.549513,-121.974051
49,"Fremont, California",bank,ChIJ0ZXyMGKVj4ARoqpclY4cAgk,Cathay Bank,"['bank', 'atm', 'finance', 'point_of_interest', 'establishment']","1701 Decoto Road, Union City",37.5893822,-122.0216555
50,"Fremont, California",bank,ChIJiwPLGo9O2YARc499TqJFEL4,Union Bank,"['bank', 'atm', 'finance', 'point_of_interest', 'establishment']","39305 Paseo Padre Parkway, Fremont",37.55210659999999,-121.9792886
51,"Fremont, California",bank,ChIJu159tV2_j4AR1d8D4zhjP6U,Wells Fargo Bank,"['bank', 'atm', 'finance', 'point_of_interest', 'establishment']","5191 Mowry Avenue, Fremont",37.5353267,-121.9998257
52,"Fremont, California",bank,ChIJs1Q2f4XAj4ARyRZR8NQqqCY,Comerica Bank,"['bank', 'finance', 'point_of_interest', 'establishment']","39008 Paseo Padre Parkway, Fremont",37.5534748,-121.9801766
53,"Fremont, California",bank,ChIJ1RuAL13Gj4AR7NRVhr-bEZs,Fremont Bank,"['bank', 'finance', 'point_of_interest', 'establishment']","46635 Mission Boulevard, Fremont",37.4913384,-121.9285172
54,"Fremont, California",bank,ChIJX44ZQt-_j4ARCGCEMx-476A,Chase Bank,"['bank', 'atm', 'finance', 'point_of_interest', 'establishment']","34536 Alvarado-Niles Road, Union City",37.58725159999999,-122.0197029
55,"Fremont, California",bank,ChIJpbVzjc3Aj4ARPSiTKiSciZs,Wells Fargo Bank,"['bank', 'atm', 'finance', 'point_of_interest', 'establishment']","40982 Fremont Boulevard, Fremont",37.53343230000001,-121.9593016
56,"Fremont, California",bank,ChIJ7eFUtpzAj4ARX4aOB_2twUA,Chase Bank,"['bank', 'atm', 'finance', 'point_of_interest', 'establishment']","38980 Fremont Boulevard, Fremont",37.549117,-121.988479
57,"Fremont, California",bank,ChIJr4nDoZvAj4ARxqP-jUACmZo,Fremont Bank,"['bank', 'finance', 'point_of_interest', 'establishment']","39150 Fremont Boulevard, Fremont",37.5481798,-121.985423
58,"Fremont, California",bank,ChIJ0zDixcjAj4ARHAbYWt6C9V0,Check Into Cash,"['bank', 'finance', 'point_of_interest', 'establishment']","40567 Fremont Boulevard, Fremont",37.535936,-121.965407
59,"Fremont, California",bank,ChIJgauinxPHj4ARLYLR2pjRq1E,Citibank,"['bank', 'finance', 'point_of_interest', 'establishment']","43804 Christy Street, Fremont",37.504187,-121.968962
