,City,Type,Place ID,Name,Point of interests,Address,Lat,Lng
0,"San Francisco, California",church,ChIJl3ZcoouAhYAR1DI821H-LUw,Old St Mary's Cathedral,"['church', 'place_of_worship', 'point_of_interest', 'establishment']","660 California Street, San Francisco",37.79263540000001,-122.4057717
1,"San Francisco, California",church,ChIJ3a5_x4eAhYARmsK55GzNpIg,St. Patrick's Catholic Church,"['church', 'place_of_worship', 'point_of_interest', 'establishment']","756 Mission Street, San Francisco",37.7855696,-122.4035365
2,"San Francisco, California",church,ChIJg2Kun5KAhYARg0g3AF1jbQQ,Grace Cathedral,"['church', 'place_of_worship', 'point_of_interest', 'establishment']","1100 California Street, San Francisco",37.7919185,-122.4130261
3,"San Francisco, California",church,ChIJQ88I4ceAhYARHGUWwHuhJz8,St. Dominic's Catholic Church,"['church', 'place_of_worship', 'point_of_interest', 'establishment']","2390 Bush Street, San Francisco",37.7870658,-122.4353729
4,"San Francisco, California",church,ChIJDYAIUkmHhYAR6p7uXiF66rc,St. Ignatius Church,"['church', 'place_of_worship', 'point_of_interest', 'establishment']","650 Parker Avenue, San Francisco",37.7754799,-122.4524768
5,"San Francisco, California",church,ChIJWTVj7i5_j4ARrgNMmrf5qXQ,Cornerstone Church - Mission Campus,"['church', 'place_of_worship', 'point_of_interest', 'establishment']","3459 17th Street, San Francisco",37.7631065,-122.4229192
6,"San Francisco, California",church,ChIJY2eH8L2AhYARx7eYYhTWTKU,Cathedral Of Saint Mary Of The Assumption,"['church', 'place_of_worship', 'point_of_interest', 'establishment']","1111 Gough Street, San Francisco",37.7842365,-122.4252243
7,"San Francisco, California",church,ChIJgyxx6Y-AhYARxePDEkX8ufc,Glide Memorial United Methodist Church,"['church', 'place_of_worship', 'point_of_interest', 'establishment']","330 Ellis Street, San Francisco",37.785154,-122.4114072
8,"San Francisco, California",church,ChIJMUrkGEyHhYARDiTFkghvVFI,TEAMS/AmeriCorps Fellowship Program,"['church', 'place_of_worship', 'point_of_interest', 'establishment']","2130 Fulton Street, San Francisco",37.7757012,-122.4510197
9,"San Francisco, California",church,ChIJR72bU_CAhYAR7Kzo-OE5GyQ,Saints Peter and Paul Church,"['church', 'place_of_worship', 'point_of_interest', 'establishment']","666 Filbert Street, San Francisco",37.8015353,-122.4101955
10,"San Francisco, California",church,ChIJwYTMCWl-j4ARBkTr9qgdpVs,St Paul's Catholic Church,"['church', 'place_of_worship', 'point_of_interest', 'establishment']","221 Valley Street, San Francisco",37.7442106,-122.4272742
11,"San Francisco, California",church,ChIJ-UINk0B-j4AREtZQOk43i9A,Bethel Christian Church,"['church', 'place_of_worship', 'point_of_interest', 'establishment']","1325 Valencia Street, San Francisco",37.7518512,-122.4204354
12,"San Francisco, California",church,ChIJbZ0jBN-AhYARrOFF1LQA27A,Golden City Church,"['church', 'place_of_worship', 'point_of_interest', 'establishment']","754 14th Street, San Francisco",37.76787289999999,-122.4302646
13,"San Francisco, California",church,ChIJQ_Jlw8KAhYARbQxqKSDYNbU,St. Mark's Church,"['church', 'place_of_worship', 'point_of_interest', 'establishment']","1111 O'Farrell Street, San Francisco",37.78429120000001,-122.4235135
14,"San Francisco, California",church,ChIJkcXPB5aAhYARXlI488U7rOo,First Unitarian Universalist Church & Center,"['church', 'place_of_worship', 'point_of_interest', 'establishment']","1187 Franklin Street, San Francisco",37.7853466,-122.4231664
15,"San Francisco, California",church,ChIJZZAn-MmAhYARfMzggiyt-Kk,City Church Of San Francisco,"['church', 'place_of_worship', 'point_of_interest', 'establishment']","2460 Sutter Street, San Francisco",37.7852322,-122.4408913
16,"San Francisco, California",church,ChIJ1TMF0j9-j4ARLDJKycMmcFM,St James Catholic Church,"['church', 'place_of_worship', 'point_of_interest', 'establishment']","Guerrero St & 23rd St, San Francisco",37.75374989999999,-122.4232114
17,"San Francisco, California",church,ChIJKUeAlDqHhYARI9c75e0Gows,Congregation Emanu-El San Francisco,"['synagogue', 'church', 'place_of_worship', 'school', 'point_of_interest', 'establishment']","2 Lake Street, San Francisco",37.787374,-122.4596944
18,"San Francisco, California",church,ChIJYfrt_IuAhYARRnnLGtSftFU,Notre Dame Des Victoires Church,"['church', 'place_of_worship', 'point_of_interest', 'establishment']","566 Bush Street, San Francisco",37.7905746,-122.4064785
19,"San Francisco, California",church,ChIJtTEOxOqAhYARYIyl0qXGIls,Old First Presbyterian Church,"['church', 'place_of_worship', 'point_of_interest', 'establishment']","1751 Sacramento Street, San Francisco",37.79120149999999,-122.4220705
20,"San Francisco, California",church,ChIJl3ZcoouAhYAR1DI821H-LUw,Old St Mary's Cathedral,"['church', 'place_of_worship', 'point_of_interest', 'establishment']","660 California Street, San Francisco",37.79263540000001,-122.4057717
21,"San Francisco, California",church,ChIJ3a5_x4eAhYARmsK55GzNpIg,St. Patrick's Catholic Church,"['church', 'place_of_worship', 'point_of_interest', 'establishment']","756 Mission Street, San Francisco",37.7855696,-122.4035365
22,"San Francisco, California",church,ChIJg2Kun5KAhYARg0g3AF1jbQQ,Grace Cathedral,"['church', 'place_of_worship', 'point_of_interest', 'establishment']","1100 California Street, San Francisco",37.7919185,-122.4130261
23,"San Francisco, California",church,ChIJQ88I4ceAhYARHGUWwHuhJz8,St. Dominic's Catholic Church,"['church', 'place_of_worship', 'point_of_interest', 'establishment']","2390 Bush Street, San Francisco",37.7870658,-122.4353729
24,"San Francisco, California",church,ChIJDYAIUkmHhYAR6p7uXiF66rc,St. Ignatius Church,"['church', 'place_of_worship', 'point_of_interest', 'establishment']","650 Parker Avenue, San Francisco",37.7754799,-122.4524768
25,"San Francisco, California",church,ChIJWTVj7i5_j4ARrgNMmrf5qXQ,Cornerstone Church - Mission Campus,"['church', 'place_of_worship', 'point_of_interest', 'establishment']","3459 17th Street, San Francisco",37.7631065,-122.4229192
26,"San Francisco, California",church,ChIJY2eH8L2AhYARx7eYYhTWTKU,Cathedral Of Saint Mary Of The Assumption,"['church', 'place_of_worship', 'point_of_interest', 'establishment']","1111 Gough Street, San Francisco",37.7842365,-122.4252243
27,"San Francisco, California",church,ChIJgyxx6Y-AhYARxePDEkX8ufc,Glide Memorial United Methodist Church,"['church', 'place_of_worship', 'point_of_interest', 'establishment']","330 Ellis Street, San Francisco",37.785154,-122.4114072
28,"San Francisco, California",church,ChIJMUrkGEyHhYARDiTFkghvVFI,TEAMS/AmeriCorps Fellowship Program,"['church', 'place_of_worship', 'point_of_interest', 'establishment']","2130 Fulton Street, San Francisco",37.7757012,-122.4510197
29,"San Francisco, California",church,ChIJR72bU_CAhYAR7Kzo-OE5GyQ,Saints Peter and Paul Church,"['church', 'place_of_worship', 'point_of_interest', 'establishment']","666 Filbert Street, San Francisco",37.8015353,-122.4101955
30,"San Francisco, California",church,ChIJwYTMCWl-j4ARBkTr9qgdpVs,St Paul's Catholic Church,"['church', 'place_of_worship', 'point_of_interest', 'establishment']","221 Valley Street, San Francisco",37.7442106,-122.4272742
31,"San Francisco, California",church,ChIJ-UINk0B-j4AREtZQOk43i9A,Bethel Christian Church,"['church', 'place_of_worship', 'point_of_interest', 'establishment']","1325 Valencia Street, San Francisco",37.7518512,-122.4204354
32,"San Francisco, California",church,ChIJbZ0jBN-AhYARrOFF1LQA27A,Golden City Church,"['church', 'place_of_worship', 'point_of_interest', 'establishment']","754 14th Street, San Francisco",37.76787289999999,-122.4302646
33,"San Francisco, California",church,ChIJQ_Jlw8KAhYARbQxqKSDYNbU,St. Mark's Church,"['church', 'place_of_worship', 'point_of_interest', 'establishment']","1111 O'Farrell Street, San Francisco",37.78429120000001,-122.4235135
34,"San Francisco, California",church,ChIJkcXPB5aAhYARXlI488U7rOo,First Unitarian Universalist Church & Center,"['church', 'place_of_worship', 'point_of_interest', 'establishment']","1187 Franklin Street, San Francisco",37.7853466,-122.4231664
35,"San Francisco, California",church,ChIJZZAn-MmAhYARfMzggiyt-Kk,City Church Of San Francisco,"['church', 'place_of_worship', 'point_of_interest', 'establishment']","2460 Sutter Street, San Francisco",37.7852322,-122.4408913
36,"San Francisco, California",church,ChIJ1TMF0j9-j4ARLDJKycMmcFM,St James Catholic Church,"['church', 'place_of_worship', 'point_of_interest', 'establishment']","Guerrero St & 23rd St, San Francisco",37.75374989999999,-122.4232114
37,"San Francisco, California",church,ChIJKUeAlDqHhYARI9c75e0Gows,Congregation Emanu-El San Francisco,"['synagogue', 'church', 'place_of_worship', 'school', 'point_of_interest', 'establishment']","2 Lake Street, San Francisco",37.787374,-122.4596944
38,"San Francisco, California",church,ChIJYfrt_IuAhYARRnnLGtSftFU,Notre Dame Des Victoires Church,"['church', 'place_of_worship', 'point_of_interest', 'establishment']","566 Bush Street, San Francisco",37.7905746,-122.4064785
39,"San Francisco, California",church,ChIJtTEOxOqAhYARYIyl0qXGIls,Old First Presbyterian Church,"['church', 'place_of_worship', 'point_of_interest', 'establishment']","1751 Sacramento Street, San Francisco",37.79120149999999,-122.4220705
40,"San Francisco, California",church,ChIJl3ZcoouAhYAR1DI821H-LUw,Old St Mary's Cathedral,"['church', 'place_of_worship', 'point_of_interest', 'establishment']","660 California Street, San Francisco",37.79263540000001,-122.4057717
41,"San Francisco, California",church,ChIJ3a5_x4eAhYARmsK55GzNpIg,St. Patrick's Catholic Church,"['church', 'place_of_worship', 'point_of_interest', 'establishment']","756 Mission Street, San Francisco",37.7855696,-122.4035365
42,"San Francisco, California",church,ChIJg2Kun5KAhYARg0g3AF1jbQQ,Grace Cathedral,"['church', 'place_of_worship', 'point_of_interest', 'establishment']","1100 California Street, San Francisco",37.7919185,-122.4130261
43,"San Francisco, California",church,ChIJQ88I4ceAhYARHGUWwHuhJz8,St. Dominic's Catholic Church,"['church', 'place_of_worship', 'point_of_interest', 'establishment']","2390 Bush Street, San Francisco",37.7870658,-122.4353729
44,"San Francisco, California",church,ChIJDYAIUkmHhYAR6p7uXiF66rc,St. Ignatius Church,"['church', 'place_of_worship', 'point_of_interest', 'establishment']","650 Parker Avenue, San Francisco",37.7754799,-122.4524768
45,"San Francisco, California",church,ChIJWTVj7i5_j4ARrgNMmrf5qXQ,Cornerstone Church - Mission Campus,"['church', 'place_of_worship', 'point_of_interest', 'establishment']","3459 17th Street, San Francisco",37.7631065,-122.4229192
46,"San Francisco, California",church,ChIJY2eH8L2AhYARx7eYYhTWTKU,Cathedral Of Saint Mary Of The Assumption,"['church', 'place_of_worship', 'point_of_interest', 'establishment']","1111 Gough Street, San Francisco",37.7842365,-122.4252243
47,"San Francisco, California",church,ChIJgyxx6Y-AhYARxePDEkX8ufc,Glide Memorial United Methodist Church,"['church', 'place_of_worship', 'point_of_interest', 'establishment']","330 Ellis Street, San Francisco",37.785154,-122.4114072
48,"San Francisco, California",church,ChIJMUrkGEyHhYARDiTFkghvVFI,TEAMS/AmeriCorps Fellowship Program,"['church', 'place_of_worship', 'point_of_interest', 'establishment']","2130 Fulton Street, San Francisco",37.7757012,-122.4510197
49,"San Francisco, California",church,ChIJR72bU_CAhYAR7Kzo-OE5GyQ,Saints Peter and Paul Church,"['church', 'place_of_worship', 'point_of_interest', 'establishment']","666 Filbert Street, San Francisco",37.8015353,-122.4101955
50,"San Francisco, California",church,ChIJwYTMCWl-j4ARBkTr9qgdpVs,St Paul's Catholic Church,"['church', 'place_of_worship', 'point_of_interest', 'establishment']","221 Valley Street, San Francisco",37.7442106,-122.4272742
51,"San Francisco, California",church,ChIJ-UINk0B-j4AREtZQOk43i9A,Bethel Christian Church,"['church', 'place_of_worship', 'point_of_interest', 'establishment']","1325 Valencia Street, San Francisco",37.7518512,-122.4204354
52,"San Francisco, California",church,ChIJbZ0jBN-AhYARrOFF1LQA27A,Golden City Church,"['church', 'place_of_worship', 'point_of_interest', 'establishment']","754 14th Street, San Francisco",37.76787289999999,-122.4302646
53,"San Francisco, California",church,ChIJQ_Jlw8KAhYARbQxqKSDYNbU,St. Mark's Church,"['church', 'place_of_worship', 'point_of_interest', 'establishment']","1111 O'Farrell Street, San Francisco",37.78429120000001,-122.4235135
54,"San Francisco, California",church,ChIJkcXPB5aAhYARXlI488U7rOo,First Unitarian Universalist Church & Center,"['church', 'place_of_worship', 'point_of_interest', 'establishment']","1187 Franklin Street, San Francisco",37.7853466,-122.4231664
55,"San Francisco, California",church,ChIJZZAn-MmAhYARfMzggiyt-Kk,City Church Of San Francisco,"['church', 'place_of_worship', 'point_of_interest', 'establishment']","2460 Sutter Street, San Francisco",37.7852322,-122.4408913
56,"San Francisco, California",church,ChIJ1TMF0j9-j4ARLDJKycMmcFM,St James Catholic Church,"['church', 'place_of_worship', 'point_of_interest', 'establishment']","Guerrero St & 23rd St, San Francisco",37.75374989999999,-122.4232114
57,"San Francisco, California",church,ChIJKUeAlDqHhYARI9c75e0Gows,Congregation Emanu-El San Francisco,"['synagogue', 'church', 'place_of_worship', 'school', 'point_of_interest', 'establishment']","2 Lake Street, San Francisco",37.787374,-122.4596944
58,"San Francisco, California",church,ChIJYfrt_IuAhYARRnnLGtSftFU,Notre Dame Des Victoires Church,"['church', 'place_of_worship', 'point_of_interest', 'establishment']","566 Bush Street, San Francisco",37.7905746,-122.4064785
59,"San Francisco, California",church,ChIJtTEOxOqAhYARYIyl0qXGIls,Old First Presbyterian Church,"['church', 'place_of_worship', 'point_of_interest', 'establishment']","1751 Sacramento Street, San Francisco",37.79120149999999,-122.4220705
0,"Redwood City, California",church,ChIJ5YBnAM2kj4ARDRefO_gMEos,Memorial Church,"['church', 'place_of_worship', 'point_of_interest', 'establishment']","450 Serra Street, Stanford",37.4268552,-122.1704409
1,"Redwood City, California",church,ChIJdaek56-kj4ARswtebxbAjRw,Menlo Church,"['church', 'place_of_worship', 'point_of_interest', 'establishment']","950 Santa Cruz Avenue, Menlo Park",37.4489816,-122.1874204
2,"Redwood City, California",church,ChIJQYpASqmkj4AR9RnH8nymG8c,Church of the Nativity,"['church', 'place_of_worship', 'point_of_interest', 'establishment']","210 Oak Grove Avenue, Menlo Park",37.4607608,-122.1803641
3,"Redwood City, California",church,ChIJPQSNb9WYj4ARp2G-Z7H-HNA,Central Peninsula Church,"['church', 'place_of_worship', 'point_of_interest', 'establishment']","1005 Shell Boulevard, Foster City",37.55162499999999,-122.263049
4,"Redwood City, California",church,ChIJt4riJD-7j4ARV71m1BL8r3I,First United Methodist Church,"['church', 'place_of_worship', 'school', 'point_of_interest', 'establishment']","625 Hamilton Avenue, Palo Alto",37.44912679999999,-122.1569145
5,"Redwood City, California",church,ChIJ0YJVzLukj4ARLweSH6Ow4ww,St Raymond Catholic Church,"['church', 'place_of_worship', 'point_of_interest', 'establishment']","1100 Santa Cruz Avenue, Menlo Park",37.4467948,-122.1891941
6,"Redwood City, California",church,ChIJm4WCImmjj4ARK0DXU16eia4,St Anthony's Catholic Church,"['church', 'place_of_worship', 'point_of_interest', 'establishment']","3500 Middlefield Road, Menlo Park",37.4695752,-122.2010277
7,"Redwood City, California",church,ChIJ19c07qW8j4ARRbh0Zsj8SEg,Menlo Park Christian Methodist Episcopal Church,"['church', 'place_of_worship', 'point_of_interest', 'establishment']",Menlo Park,37.47382710000001,-122.1624644
8,"Redwood City, California",church,ChIJI921XPWhj4AR_1e_h5_cB4g,St Charles Catholic Church,"['church', 'place_of_worship', 'point_of_interest', 'establishment']","880 Tamarack Avenue, San Carlos",37.4951067,-122.2659047
9,"Redwood City, California",church,ChIJuSZ29SSZj4ARlzMgNQcaDL8,Bayside Community Church,"['church', 'place_of_worship', 'point_of_interest', 'establishment']","1401 Beach Park Boulevard, Foster City",37.56091699999999,-122.248819
10,"Redwood City, California",church,ChIJQY5_mlG7j4ARc5dEWOhc-2E,St. Patrick's Seminary & University,"['university', 'church', 'place_of_worship', 'point_of_interest', 'establishment']","320 Middlefield Road, Menlo Park",37.4595701,-122.1681233
11,"Redwood City, California",church,ChIJeUR-dYqhj4AR8vz-3jK6b0o,Trinity Presbyterian Church,"['church', 'place_of_worship', 'point_of_interest', 'establishment']","1106 Alameda de las Pulgas, San Carlos",37.490376,-122.265847
12,"Redwood City, California",church,ChIJu-uaFjm7j4ARjAjI9ra_zHc,All Saints Episcopal Church,"['church', 'place_of_worship', 'point_of_interest', 'establishment']","555 Waverley Street, Palo Alto",37.4466995,-122.159228
13,"Redwood City, California",church,ChIJzYldnBuij4ARwUzdnhfKQ7g,First Baptist Church,"['church', 'place_of_worship', 'point_of_interest', 'establishment']","787 Walnut Street, San Carlos",37.5033485,-122.2588645
14,"Redwood City, California",church,ChIJndVLVaO8j4ARgrPRS9udSPA,Mt. Olive Apostolic Original Holy Church,"['church', 'place_of_worship', 'point_of_interest', 'establishment']","605 Hamilton Avenue, Menlo Park",37.47933889999999,-122.1576376
15,"Redwood City, California",church,ChIJ6_PG48qjj4ARYIBZJuUrefE,Unitarian Universalist Fellowship of Redwood City,"['church', 'place_of_worship', 'point_of_interest', 'establishment']","2124 Brewster Avenue, Redwood City",37.4801218,-122.2454813
16,"Redwood City, California",church,ChIJ3_484xe7j4ARMIPnB7rsIqM,First Presbyterian Church,"['church', 'place_of_worship', 'point_of_interest', 'establishment']","1140 Cowper Street, Palo Alto",37.4430356,-122.1513648
17,"Redwood City, California",church,ChIJje4ELOqkj4ARIfUE57VEZNc,Bethany Lutheran Church,"['church', 'place_of_worship', 'point_of_interest', 'establishment']","1095 Cloud Avenue, Menlo Park",37.4331857,-122.1998205
18,"Redwood City, California",church,ChIJcU134aujj4ARh6kr3kCoKmY,Rise City Church,"['church', 'place_of_worship', 'point_of_interest', 'establishment']","1305 Middlefield Road, Redwood City",37.4837286,-122.224408
19,"Redwood City, California",church,ChIJoy6oGy2ij4AR612X8SKdg2M,The Church of Jesus Christ of Latter-day Saints,"['church', 'place_of_worship', 'point_of_interest', 'establishment']","1475 Edgewood Road, Redwood City",37.47886459999999,-122.2598242
20,"Redwood City, California",church,ChIJ5YBnAM2kj4ARDRefO_gMEos,Memorial Church,"['church', 'place_of_worship', 'point_of_interest', 'establishment']","450 Serra Street, Stanford",37.4268552,-122.1704409
21,"Redwood City, California",church,ChIJdaek56-kj4ARswtebxbAjRw,Menlo Church,"['church', 'place_of_worship', 'point_of_interest', 'establishment']","950 Santa Cruz Avenue, Menlo Park",37.4489816,-122.1874204
22,"Redwood City, California",church,ChIJQYpASqmkj4AR9RnH8nymG8c,Church of the Nativity,"['church', 'place_of_worship', 'point_of_interest', 'establishment']","210 Oak Grove Avenue, Menlo Park",37.4607608,-122.1803641
23,"Redwood City, California",church,ChIJPQSNb9WYj4ARp2G-Z7H-HNA,Central Peninsula Church,"['church', 'place_of_worship', 'point_of_interest', 'establishment']","1005 Shell Boulevard, Foster City",37.55162499999999,-122.263049
24,"Redwood City, California",church,ChIJt4riJD-7j4ARV71m1BL8r3I,First United Methodist Church,"['church', 'place_of_worship', 'school', 'point_of_interest', 'establishment']","625 Hamilton Avenue, Palo Alto",37.44912679999999,-122.1569145
25,"Redwood City, California",church,ChIJ0YJVzLukj4ARLweSH6Ow4ww,St Raymond Catholic Church,"['church', 'place_of_worship', 'point_of_interest', 'establishment']","1100 Santa Cruz Avenue, Menlo Park",37.4467948,-122.1891941
26,"Redwood City, California",church,ChIJm4WCImmjj4ARK0DXU16eia4,St Anthony's Catholic Church,"['church', 'place_of_worship', 'point_of_interest', 'establishment']","3500 Middlefield Road, Menlo Park",37.4695752,-122.2010277
27,"Redwood City, California",church,ChIJ19c07qW8j4ARRbh0Zsj8SEg,Menlo Park Christian Methodist Episcopal Church,"['church', 'place_of_worship', 'point_of_interest', 'establishment']",Menlo Park,37.47382710000001,-122.1624644
28,"Redwood City, California",church,ChIJI921XPWhj4AR_1e_h5_cB4g,St Charles Catholic Church,"['church', 'place_of_worship', 'point_of_interest', 'establishment']","880 Tamarack Avenue, San Carlos",37.4951067,-122.2659047
29,"Redwood City, California",church,ChIJuSZ29SSZj4ARlzMgNQcaDL8,Bayside Community Church,"['church', 'place_of_worship', 'point_of_interest', 'establishment']","1401 Beach Park Boulevard, Foster City",37.56091699999999,-122.248819
30,"Redwood City, California",church,ChIJQY5_mlG7j4ARc5dEWOhc-2E,St. Patrick's Seminary & University,"['university', 'church', 'place_of_worship', 'point_of_interest', 'establishment']","320 Middlefield Road, Menlo Park",37.4595701,-122.1681233
31,"Redwood City, California",church,ChIJeUR-dYqhj4AR8vz-3jK6b0o,Trinity Presbyterian Church,"['church', 'place_of_worship', 'point_of_interest', 'establishment']","1106 Alameda de las Pulgas, San Carlos",37.490376,-122.265847
32,"Redwood City, California",church,ChIJu-uaFjm7j4ARjAjI9ra_zHc,All Saints Episcopal Church,"['church', 'place_of_worship', 'point_of_interest', 'establishment']","555 Waverley Street, Palo Alto",37.4466995,-122.159228
33,"Redwood City, California",church,ChIJzYldnBuij4ARwUzdnhfKQ7g,First Baptist Church,"['church', 'place_of_worship', 'point_of_interest', 'establishment']","787 Walnut Street, San Carlos",37.5033485,-122.2588645
34,"Redwood City, California",church,ChIJndVLVaO8j4ARgrPRS9udSPA,Mt. Olive Apostolic Original Holy Church,"['church', 'place_of_worship', 'point_of_interest', 'establishment']","605 Hamilton Avenue, Menlo Park",37.47933889999999,-122.1576376
35,"Redwood City, California",church,ChIJ6_PG48qjj4ARYIBZJuUrefE,Unitarian Universalist Fellowship of Redwood City,"['church', 'place_of_worship', 'point_of_interest', 'establishment']","2124 Brewster Avenue, Redwood City",37.4801218,-122.2454813
36,"Redwood City, California",church,ChIJ3_484xe7j4ARMIPnB7rsIqM,First Presbyterian Church,"['church', 'place_of_worship', 'point_of_interest', 'establishment']","1140 Cowper Street, Palo Alto",37.4430356,-122.1513648
37,"Redwood City, California",church,ChIJje4ELOqkj4ARIfUE57VEZNc,Bethany Lutheran Church,"['church', 'place_of_worship', 'point_of_interest', 'establishment']","1095 Cloud Avenue, Menlo Park",37.4331857,-122.1998205
38,"Redwood City, California",church,ChIJcU134aujj4ARh6kr3kCoKmY,Rise City Church,"['church', 'place_of_worship', 'point_of_interest', 'establishment']","1305 Middlefield Road, Redwood City",37.4837286,-122.224408
39,"Redwood City, California",church,ChIJoy6oGy2ij4AR612X8SKdg2M,The Church of Jesus Christ of Latter-day Saints,"['church', 'place_of_worship', 'point_of_interest', 'establishment']","1475 Edgewood Road, Redwood City",37.47886459999999,-122.2598242
40,"Redwood City, California",church,ChIJ5YBnAM2kj4ARDRefO_gMEos,Memorial Church,"['church', 'place_of_worship', 'point_of_interest', 'establishment']","450 Serra Street, Stanford",37.4268552,-122.1704409
41,"Redwood City, California",church,ChIJdaek56-kj4ARswtebxbAjRw,Menlo Church,"['church', 'place_of_worship', 'point_of_interest', 'establishment']","950 Santa Cruz Avenue, Menlo Park",37.4489816,-122.1874204
42,"Redwood City, California",church,ChIJQYpASqmkj4AR9RnH8nymG8c,Church of the Nativity,"['church', 'place_of_worship', 'point_of_interest', 'establishment']","210 Oak Grove Avenue, Menlo Park",37.4607608,-122.1803641
43,"Redwood City, California",church,ChIJPQSNb9WYj4ARp2G-Z7H-HNA,Central Peninsula Church,"['church', 'place_of_worship', 'point_of_interest', 'establishment']","1005 Shell Boulevard, Foster City",37.55162499999999,-122.263049
44,"Redwood City, California",church,ChIJt4riJD-7j4ARV71m1BL8r3I,First United Methodist Church,"['church', 'place_of_worship', 'school', 'point_of_interest', 'establishment']","625 Hamilton Avenue, Palo Alto",37.44912679999999,-122.1569145
45,"Redwood City, California",church,ChIJ0YJVzLukj4ARLweSH6Ow4ww,St Raymond Catholic Church,"['church', 'place_of_worship', 'point_of_interest', 'establishment']","1100 Santa Cruz Avenue, Menlo Park",37.4467948,-122.1891941
46,"Redwood City, California",church,ChIJm4WCImmjj4ARK0DXU16eia4,St Anthony's Catholic Church,"['church', 'place_of_worship', 'point_of_interest', 'establishment']","3500 Middlefield Road, Menlo Park",37.4695752,-122.2010277
47,"Redwood City, California",church,ChIJ19c07qW8j4ARRbh0Zsj8SEg,Menlo Park Christian Methodist Episcopal Church,"['church', 'place_of_worship', 'point_of_interest', 'establishment']",Menlo Park,37.47382710000001,-122.1624644
48,"Redwood City, California",church,ChIJI921XPWhj4AR_1e_h5_cB4g,St Charles Catholic Church,"['church', 'place_of_worship', 'point_of_interest', 'establishment']","880 Tamarack Avenue, San Carlos",37.4951067,-122.2659047
49,"Redwood City, California",church,ChIJuSZ29SSZj4ARlzMgNQcaDL8,Bayside Community Church,"['church', 'place_of_worship', 'point_of_interest', 'establishment']","1401 Beach Park Boulevard, Foster City",37.56091699999999,-122.248819
50,"Redwood City, California",church,ChIJQY5_mlG7j4ARc5dEWOhc-2E,St. Patrick's Seminary & University,"['university', 'church', 'place_of_worship', 'point_of_interest', 'establishment']","320 Middlefield Road, Menlo Park",37.4595701,-122.1681233
51,"Redwood City, California",church,ChIJeUR-dYqhj4AR8vz-3jK6b0o,Trinity Presbyterian Church,"['church', 'place_of_worship', 'point_of_interest', 'establishment']","1106 Alameda de las Pulgas, San Carlos",37.490376,-122.265847
52,"Redwood City, California",church,ChIJu-uaFjm7j4ARjAjI9ra_zHc,All Saints Episcopal Church,"['church', 'place_of_worship', 'point_of_interest', 'establishment']","555 Waverley Street, Palo Alto",37.4466995,-122.159228
53,"Redwood City, California",church,ChIJzYldnBuij4ARwUzdnhfKQ7g,First Baptist Church,"['church', 'place_of_worship', 'point_of_interest', 'establishment']","787 Walnut Street, San Carlos",37.5033485,-122.2588645
54,"Redwood City, California",church,ChIJndVLVaO8j4ARgrPRS9udSPA,Mt. Olive Apostolic Original Holy Church,"['church', 'place_of_worship', 'point_of_interest', 'establishment']","605 Hamilton Avenue, Menlo Park",37.47933889999999,-122.1576376
55,"Redwood City, California",church,ChIJ6_PG48qjj4ARYIBZJuUrefE,Unitarian Universalist Fellowship of Redwood City,"['church', 'place_of_worship', 'point_of_interest', 'establishment']","2124 Brewster Avenue, Redwood City",37.4801218,-122.2454813
56,"Redwood City, California",church,ChIJ3_484xe7j4ARMIPnB7rsIqM,First Presbyterian Church,"['church', 'place_of_worship', 'point_of_interest', 'establishment']","1140 Cowper Street, Palo Alto",37.4430356,-122.1513648
57,"Redwood City, California",church,ChIJje4ELOqkj4ARIfUE57VEZNc,Bethany Lutheran Church,"['church', 'place_of_worship', 'point_of_interest', 'establishment']","1095 Cloud Avenue, Menlo Park",37.4331857,-122.1998205
58,"Redwood City, California",church,ChIJcU134aujj4ARh6kr3kCoKmY,Rise City Church,"['church', 'place_of_worship', 'point_of_interest', 'establishment']","1305 Middlefield Road, Redwood City",37.4837286,-122.224408
59,"Redwood City, California",church,ChIJoy6oGy2ij4AR612X8SKdg2M,The Church of Jesus Christ of Latter-day Saints,"['church', 'place_of_worship', 'point_of_interest', 'establishment']","1475 Edgewood Road, Redwood City",37.47886459999999,-122.2598242
0,"Berkeley, California",church,ChIJLZEraE2Hj4ARnsk0nwMi3YU,The Cathedral of Christ the Light,"['church', 'place_of_worship', 'point_of_interest', 'establishment']","2121 Harrison Street, Oakland",37.8102303,-122.2630544
1,"Berkeley, California",church,ChIJhbDXVKWAj4ARtmsWAHrmQEY,First Unitarian Church of Oakland,"['church', 'place_of_worship', 'point_of_interest', 'establishment']","685 14th Street, Oakland",37.8064808,-122.276991
2,"Berkeley, California",church,ChIJ9ysO5G15hYARXh97hiVmL1o,Unitarian Universalist Church of Berkeley,"['church', 'place_of_worship', 'point_of_interest', 'establishment']","1 Lawson Road, Kensington",37.91784809999999,-122.2827213
3,"Berkeley, California",church,ChIJv9s1qHyHj4ARqYMo1XYFI_g,Piedmont Community Church,"['church', 'place_of_worship', 'point_of_interest', 'establishment']","400 Highland Avenue, Piedmont",37.8251689,-122.231129
4,"Berkeley, California",church,ChIJXy9i1WB-hYAR-adBQVs2A6s,St. Columba Catholic Church,"['church', 'place_of_worship', 'point_of_interest', 'establishment']","6401 San Pablo Avenue, Oakland",37.8467394,-122.2852601
5,"Berkeley, California",church,ChIJcy8ftFOHj4AR37E1huFjLEI,First Congregational Church of Oakland,"['place_of_worship', 'church', 'point_of_interest', 'establishment']","2501 Harrison Street, Oakland",37.8134941,-122.2615448
6,"Berkeley, California",church,ChIJLQrwnjJ8hYARfjLNkEYyhmg,St. John’s Presbyterian Church,"['church', 'place_of_worship', 'point_of_interest', 'establishment']","2727 College Avenue, Berkeley",37.8612023,-122.2527225
7,"Berkeley, California",church,ChIJ34VzDZd-hYARbhK2x9H6Zqw,St Joseph the Worker Church,"['church', 'place_of_worship', 'point_of_interest', 'establishment']","1640 Addison Street, Berkeley",37.86963060000001,-122.2782168
8,"Berkeley, California",church,ChIJ8cmdQreHj4ARbJxeu4CILdE,Ascension Greek Orthodox Cathedral,"['church', 'place_of_worship', 'point_of_interest', 'establishment']","4700 Lincoln Avenue, Oakland",37.8096034,-122.2011209
9,"Berkeley, California",church,ChIJnZ-CUGl5hYARFef04II89jI,Arlington Community Church,"['church', 'place_of_worship', 'point_of_interest', 'establishment']","52 Arlington Avenue, Kensington",37.91355169999999,-122.2816598
10,"Berkeley, California",church,ChIJGY8r4al5hYARhKrNjFWbZnE,Hillside Community Church,"['church', 'place_of_worship', 'point_of_interest', 'establishment']","1422 Navellier Street, El Cerrito",37.92269559999999,-122.3034926
11,"Berkeley, California",church,ChIJoZh37DaHj4ARjRP6UWNBpNI,Lake Merritt United Methodist Church,"['church', 'place_of_worship', 'point_of_interest', 'establishment']","1330 Lakeshore Avenue, Oakland",37.7991456,-122.2579746
12,"Berkeley, California",church,ChIJff9jB1KHj4ARZdsfR69vbic,St. Paul's Episcopal Church,"['church', 'place_of_worship', 'point_of_interest', 'establishment']","114 Montecito Avenue, Oakland",37.8110703,-122.2601587
13,"Berkeley, California",church,ChIJaVGhloV9hYARrvH5DiMBiZo,Oakland Center for Spiritual Living,"['parking', 'church', 'place_of_worship', 'store', 'health', 'point_of_interest', 'establishment']","5000 Clarewood Drive, Oakland",37.836187,-122.229928
14,"Berkeley, California",church,ChIJMas23Fl5hYARTr3Bp1W_o20,Shepherd of the Hills Lutheran Church,"['church', 'place_of_worship', 'point_of_interest', 'establishment']","401 Grizzly Peak Boulevard, Berkeley",37.9039534,-122.2692025
15,"Berkeley, California",church,ChIJHalsZa1-hYARgwQOh5vJGAE,Northbrae Community Church,"['church', 'place_of_worship', 'point_of_interest', 'establishment']","941 The Alameda, Berkeley",37.89051480000001,-122.2763109
16,"Berkeley, California",church,ChIJB28XeKGHj4ARr2D09Dx07ec,Corpus Christi Catholic Church,"['church', 'place_of_worship', 'point_of_interest', 'establishment']","322 Saint James Drive, Piedmont",37.81302739999999,-122.2148142
17,"Berkeley, California",church,ChIJR-_wsVSHj4ARgKebcnC298E,First Presbyterian Church,"['church', 'place_of_worship', 'point_of_interest', 'establishment']","2619 Broadway, Oakland",37.8154289,-122.2647662
18,"Berkeley, California",church,ChIJvdfJLcp9hYARN7JCad1fkAw,St. Clement's Episcopal Church,"['church', 'place_of_worship', 'point_of_interest', 'establishment']","2837 Claremont Boulevard, Berkeley",37.8592824,-122.2449029
19,"Berkeley, California",church,ChIJdwx1ljaHj4AR7bvC65ufWaU,Word of Faith Christian,"['church', 'place_of_worship', 'point_of_interest', 'establishment']","1200 Lakeshore Avenue, Oakland",37.798679,-122.258249
20,"Berkeley, California",church,ChIJLZEraE2Hj4ARnsk0nwMi3YU,The Cathedral of Christ the Light,"['church', 'place_of_worship', 'point_of_interest', 'establishment']","2121 Harrison Street, Oakland",37.8102303,-122.2630544
21,"Berkeley, California",church,ChIJhbDXVKWAj4ARtmsWAHrmQEY,First Unitarian Church of Oakland,"['church', 'place_of_worship', 'point_of_interest', 'establishment']","685 14th Street, Oakland",37.8064808,-122.276991
22,"Berkeley, California",church,ChIJ9ysO5G15hYARXh97hiVmL1o,Unitarian Universalist Church of Berkeley,"['church', 'place_of_worship', 'point_of_interest', 'establishment']","1 Lawson Road, Kensington",37.91784809999999,-122.2827213
23,"Berkeley, California",church,ChIJv9s1qHyHj4ARqYMo1XYFI_g,Piedmont Community Church,"['church', 'place_of_worship', 'point_of_interest', 'establishment']","400 Highland Avenue, Piedmont",37.8251689,-122.231129
24,"Berkeley, California",church,ChIJXy9i1WB-hYAR-adBQVs2A6s,St. Columba Catholic Church,"['church', 'place_of_worship', 'point_of_interest', 'establishment']","6401 San Pablo Avenue, Oakland",37.8467394,-122.2852601
25,"Berkeley, California",church,ChIJcy8ftFOHj4AR37E1huFjLEI,First Congregational Church of Oakland,"['place_of_worship', 'church', 'point_of_interest', 'establishment']","2501 Harrison Street, Oakland",37.8134941,-122.2615448
26,"Berkeley, California",church,ChIJLQrwnjJ8hYARfjLNkEYyhmg,St. John’s Presbyterian Church,"['church', 'place_of_worship', 'point_of_interest', 'establishment']","2727 College Avenue, Berkeley",37.8612023,-122.2527225
27,"Berkeley, California",church,ChIJ34VzDZd-hYARbhK2x9H6Zqw,St Joseph the Worker Church,"['church', 'place_of_worship', 'point_of_interest', 'establishment']","1640 Addison Street, Berkeley",37.86963060000001,-122.2782168
28,"Berkeley, California",church,ChIJ8cmdQreHj4ARbJxeu4CILdE,Ascension Greek Orthodox Cathedral,"['church', 'place_of_worship', 'point_of_interest', 'establishment']","4700 Lincoln Avenue, Oakland",37.8096034,-122.2011209
29,"Berkeley, California",church,ChIJnZ-CUGl5hYARFef04II89jI,Arlington Community Church,"['church', 'place_of_worship', 'point_of_interest', 'establishment']","52 Arlington Avenue, Kensington",37.91355169999999,-122.2816598
30,"Berkeley, California",church,ChIJGY8r4al5hYARhKrNjFWbZnE,Hillside Community Church,"['church', 'place_of_worship', 'point_of_interest', 'establishment']","1422 Navellier Street, El Cerrito",37.92269559999999,-122.3034926
31,"Berkeley, California",church,ChIJoZh37DaHj4ARjRP6UWNBpNI,Lake Merritt United Methodist Church,"['church', 'place_of_worship', 'point_of_interest', 'establishment']","1330 Lakeshore Avenue, Oakland",37.7991456,-122.2579746
32,"Berkeley, California",church,ChIJff9jB1KHj4ARZdsfR69vbic,St. Paul's Episcopal Church,"['church', 'place_of_worship', 'point_of_interest', 'establishment']","114 Montecito Avenue, Oakland",37.8110703,-122.2601587
33,"Berkeley, California",church,ChIJaVGhloV9hYARrvH5DiMBiZo,Oakland Center for Spiritual Living,"['parking', 'church', 'place_of_worship', 'store', 'health', 'point_of_interest', 'establishment']","5000 Clarewood Drive, Oakland",37.836187,-122.229928
34,"Berkeley, California",church,ChIJMas23Fl5hYARTr3Bp1W_o20,Shepherd of the Hills Lutheran Church,"['church', 'place_of_worship', 'point_of_interest', 'establishment']","401 Grizzly Peak Boulevard, Berkeley",37.9039534,-122.2692025
35,"Berkeley, California",church,ChIJHalsZa1-hYARgwQOh5vJGAE,Northbrae Community Church,"['church', 'place_of_worship', 'point_of_interest', 'establishment']","941 The Alameda, Berkeley",37.89051480000001,-122.2763109
36,"Berkeley, California",church,ChIJB28XeKGHj4ARr2D09Dx07ec,Corpus Christi Catholic Church,"['church', 'place_of_worship', 'point_of_interest', 'establishment']","322 Saint James Drive, Piedmont",37.81302739999999,-122.2148142
37,"Berkeley, California",church,ChIJR-_wsVSHj4ARgKebcnC298E,First Presbyterian Church,"['church', 'place_of_worship', 'point_of_interest', 'establishment']","2619 Broadway, Oakland",37.8154289,-122.2647662
38,"Berkeley, California",church,ChIJvdfJLcp9hYARN7JCad1fkAw,St. Clement's Episcopal Church,"['church', 'place_of_worship', 'point_of_interest', 'establishment']","2837 Claremont Boulevard, Berkeley",37.8592824,-122.2449029
39,"Berkeley, California",church,ChIJdwx1ljaHj4AR7bvC65ufWaU,Word of Faith Christian,"['church', 'place_of_worship', 'point_of_interest', 'establishment']","1200 Lakeshore Avenue, Oakland",37.798679,-122.258249
40,"Berkeley, California",church,ChIJLZEraE2Hj4ARnsk0nwMi3YU,The Cathedral of Christ the Light,"['church', 'place_of_worship', 'point_of_interest', 'establishment']","2121 Harrison Street, Oakland",37.8102303,-122.2630544
41,"Berkeley, California",church,ChIJhbDXVKWAj4ARtmsWAHrmQEY,First Unitarian Church of Oakland,"['church', 'place_of_worship', 'point_of_interest', 'establishment']","685 14th Street, Oakland",37.8064808,-122.276991
42,"Berkeley, California",church,ChIJ9ysO5G15hYARXh97hiVmL1o,Unitarian Universalist Church of Berkeley,"['church', 'place_of_worship', 'point_of_interest', 'establishment']","1 Lawson Road, Kensington",37.91784809999999,-122.2827213
43,"Berkeley, California",church,ChIJv9s1qHyHj4ARqYMo1XYFI_g,Piedmont Community Church,"['church', 'place_of_worship', 'point_of_interest', 'establishment']","400 Highland Avenue, Piedmont",37.8251689,-122.231129
44,"Berkeley, California",church,ChIJXy9i1WB-hYAR-adBQVs2A6s,St. Columba Catholic Church,"['church', 'place_of_worship', 'point_of_interest', 'establishment']","6401 San Pablo Avenue, Oakland",37.8467394,-122.2852601
45,"Berkeley, California",church,ChIJcy8ftFOHj4AR37E1huFjLEI,First Congregational Church of Oakland,"['place_of_worship', 'church', 'point_of_interest', 'establishment']","2501 Harrison Street, Oakland",37.8134941,-122.2615448
46,"Berkeley, California",church,ChIJLQrwnjJ8hYARfjLNkEYyhmg,St. John’s Presbyterian Church,"['church', 'place_of_worship', 'point_of_interest', 'establishment']","2727 College Avenue, Berkeley",37.8612023,-122.2527225
47,"Berkeley, California",church,ChIJ34VzDZd-hYARbhK2x9H6Zqw,St Joseph the Worker Church,"['church', 'place_of_worship', 'point_of_interest', 'establishment']","1640 Addison Street, Berkeley",37.86963060000001,-122.2782168
48,"Berkeley, California",church,ChIJ8cmdQreHj4ARbJxeu4CILdE,Ascension Greek Orthodox Cathedral,"['church', 'place_of_worship', 'point_of_interest', 'establishment']","4700 Lincoln Avenue, Oakland",37.8096034,-122.2011209
49,"Berkeley, California",church,ChIJnZ-CUGl5hYARFef04II89jI,Arlington Community Church,"['church', 'place_of_worship', 'point_of_interest', 'establishment']","52 Arlington Avenue, Kensington",37.91355169999999,-122.2816598
50,"Berkeley, California",church,ChIJGY8r4al5hYARhKrNjFWbZnE,Hillside Community Church,"['church', 'place_of_worship', 'point_of_interest', 'establishment']","1422 Navellier Street, El Cerrito",37.92269559999999,-122.3034926
51,"Berkeley, California",church,ChIJoZh37DaHj4ARjRP6UWNBpNI,Lake Merritt United Methodist Church,"['church', 'place_of_worship', 'point_of_interest', 'establishment']","1330 Lakeshore Avenue, Oakland",37.7991456,-122.2579746
52,"Berkeley, California",church,ChIJff9jB1KHj4ARZdsfR69vbic,St. Paul's Episcopal Church,"['church', 'place_of_worship', 'point_of_interest', 'establishment']","114 Montecito Avenue, Oakland",37.8110703,-122.2601587
53,"Berkeley, California",church,ChIJaVGhloV9hYARrvH5DiMBiZo,Oakland Center for Spiritual Living,"['parking', 'church', 'place_of_worship', 'store', 'health', 'point_of_interest', 'establishment']","5000 Clarewood Drive, Oakland",37.836187,-122.229928
54,"Berkeley, California",church,ChIJMas23Fl5hYARTr3Bp1W_o20,Shepherd of the Hills Lutheran Church,"['church', 'place_of_worship', 'point_of_interest', 'establishment']","401 Grizzly Peak Boulevard, Berkeley",37.9039534,-122.2692025
55,"Berkeley, California",church,ChIJHalsZa1-hYARgwQOh5vJGAE,Northbrae Community Church,"['church', 'place_of_worship', 'point_of_interest', 'establishment']","941 The Alameda, Berkeley",37.89051480000001,-122.2763109
56,"Berkeley, California",church,ChIJB28XeKGHj4ARr2D09Dx07ec,Corpus Christi Catholic Church,"['church', 'place_of_worship', 'point_of_interest', 'establishment']","322 Saint James Drive, Piedmont",37.81302739999999,-122.2148142
57,"Berkeley, California",church,ChIJR-_wsVSHj4ARgKebcnC298E,First Presbyterian Church,"['church', 'place_of_worship', 'point_of_interest', 'establishment']","2619 Broadway, Oakland",37.8154289,-122.2647662
58,"Berkeley, California",church,ChIJvdfJLcp9hYARN7JCad1fkAw,St. Clement's Episcopal Church,"['church', 'place_of_worship', 'point_of_interest', 'establishment']","2837 Claremont Boulevard, Berkeley",37.8592824,-122.2449029
59,"Berkeley, California",church,ChIJdwx1ljaHj4AR7bvC65ufWaU,Word of Faith Christian,"['church', 'place_of_worship', 'point_of_interest', 'establishment']","1200 Lakeshore Avenue, Oakland",37.798679,-122.258249
0,"Palo Alto, California",church,ChIJ5YBnAM2kj4ARDRefO_gMEos,Memorial Church,"['church', 'place_of_worship', 'point_of_interest', 'establishment']","450 Serra Street, Stanford",37.4268552,-122.1704409
1,"Palo Alto, California",church,ChIJdaek56-kj4ARswtebxbAjRw,Menlo Church,"['church', 'place_of_worship', 'point_of_interest', 'establishment']","950 Santa Cruz Avenue, Menlo Park",37.4489816,-122.1874204
2,"Palo Alto, California",church,ChIJQYpASqmkj4AR9RnH8nymG8c,Church of the Nativity,"['church', 'place_of_worship', 'point_of_interest', 'establishment']","210 Oak Grove Avenue, Menlo Park",37.4607608,-122.1803641
3,"Palo Alto, California",church,ChIJe7EAnG66j4ARqZTm6k7K7K8,Unitarian Universalist Church of Palo Alto,"['church', 'place_of_worship', 'point_of_interest', 'establishment']","505 East Charleston Road, Palo Alto",37.4193831,-122.1122575
4,"Palo Alto, California",church,ChIJr7iunDuxj4ARpQJTOxRxCtk,恩信聖經教會,"['church', 'place_of_worship', 'point_of_interest', 'establishment']","1425 Springer Road, Mountain View",37.380125,-122.0955166
5,"Palo Alto, California",church,ChIJt4riJD-7j4ARV71m1BL8r3I,First United Methodist Church,"['church', 'place_of_worship', 'school', 'point_of_interest', 'establishment']","625 Hamilton Avenue, Palo Alto",37.44912679999999,-122.1569145
6,"Palo Alto, California",church,ChIJdyp811y6j4ARuVkQzMZvblU,Unity Palo Alto,"['church', 'place_of_worship', 'book_store', 'store', 'school', 'point_of_interest', 'establishment']","3391 Middlefield Road, Palo Alto",37.426824,-122.1180131
7,"Palo Alto, California",church,ChIJCeu0h1u6j4AR4jiuVwchay0,St. Thomas Aquinas Parish Pastoral Center,"['church', 'place_of_worship', 'point_of_interest', 'establishment']","3290 Middlefield Road, Palo Alto",37.4280182,-122.1215116
8,"Palo Alto, California",church,ChIJZ7Qzyw-6j4ARO9IAycJWfcU,Abundant Life Christian Fellowship,"['church', 'place_of_worship', 'point_of_interest', 'establishment']","2440 Leghorn Street, Mountain View",37.4198952,-122.098124
9,"Palo Alto, California",church,ChIJ0YJVzLukj4ARLweSH6Ow4ww,St Raymond Catholic Church,"['church', 'place_of_worship', 'point_of_interest', 'establishment']","1100 Santa Cruz Avenue, Menlo Park",37.4467948,-122.1891941
10,"Palo Alto, California",church,ChIJ6aUy8a27j4ARuG8R_nBLq-c,Bay Area Christian Church,"['church', 'place_of_worship', 'point_of_interest', 'establishment']","2525 East Bayshore Road, Palo Alto",37.44735430000001,-122.1180924
11,"Palo Alto, California",church,ChIJ19c07qW8j4ARRbh0Zsj8SEg,Menlo Park Christian Methodist Episcopal Church,"['church', 'place_of_worship', 'point_of_interest', 'establishment']",Menlo Park,37.47382710000001,-122.1624644
12,"Palo Alto, California",church,ChIJFbMfGMawj4ARTUTugpBA3rE,St. Paul Lutheran Child Development Center,"['church', 'place_of_worship', 'school', 'point_of_interest', 'establishment']","1075 North El Monte Avenue, Mountain View",37.38881550000001,-122.0954662
13,"Palo Alto, California",church,ChIJ3_484xe7j4ARMIPnB7rsIqM,First Presbyterian Church,"['church', 'place_of_worship', 'point_of_interest', 'establishment']","1140 Cowper Street, Palo Alto",37.4430356,-122.1513648
14,"Palo Alto, California",church,ChIJm4WCImmjj4ARK0DXU16eia4,St Anthony's Catholic Church,"['church', 'place_of_worship', 'point_of_interest', 'establishment']","3500 Middlefield Road, Menlo Park",37.4695752,-122.2010277
15,"Palo Alto, California",church,ChIJvQlfblK3j4ARm9Zkdq8eZac,Saenuri Church,"['church', 'place_of_worship', 'point_of_interest', 'establishment']","1250 West Middlefield Road, Mountain View",37.407949,-122.080276
16,"Palo Alto, California",church,ChIJu-uaFjm7j4ARjAjI9ra_zHc,All Saints Episcopal Church,"['church', 'place_of_worship', 'point_of_interest', 'establishment']","555 Waverley Street, Palo Alto",37.4466995,-122.159228
17,"Palo Alto, California",church,ChIJQY5_mlG7j4ARc5dEWOhc-2E,St. Patrick's Seminary & University,"['university', 'church', 'place_of_worship', 'point_of_interest', 'establishment']","320 Middlefield Road, Menlo Park",37.4595701,-122.1681233
18,"Palo Alto, California",church,ChIJy8xtx0K6j4ARpd_s8_62zng,Peninsula Bible Church,"['church', 'place_of_worship', 'point_of_interest', 'establishment']","3505 Middlefield Road, Palo Alto",37.4259948,-122.11685
19,"Palo Alto, California",church,ChIJEzafSBe7j4AR2j89KiW9JcM,Trinity Lutheran Church,"['church', 'place_of_worship', 'point_of_interest', 'establishment']","1295 Middlefield Road, Palo Alto",37.4449882,-122.1468909
20,"Palo Alto, California",church,ChIJ5YBnAM2kj4ARDRefO_gMEos,Memorial Church,"['church', 'place_of_worship', 'point_of_interest', 'establishment']","450 Serra Street, Stanford",37.4268552,-122.1704409
21,"Palo Alto, California",church,ChIJdaek56-kj4ARswtebxbAjRw,Menlo Church,"['church', 'place_of_worship', 'point_of_interest', 'establishment']","950 Santa Cruz Avenue, Menlo Park",37.4489816,-122.1874204
22,"Palo Alto, California",church,ChIJQYpASqmkj4AR9RnH8nymG8c,Church of the Nativity,"['church', 'place_of_worship', 'point_of_interest', 'establishment']","210 Oak Grove Avenue, Menlo Park",37.4607608,-122.1803641
23,"Palo Alto, California",church,ChIJe7EAnG66j4ARqZTm6k7K7K8,Unitarian Universalist Church of Palo Alto,"['church', 'place_of_worship', 'point_of_interest', 'establishment']","505 East Charleston Road, Palo Alto",37.4193831,-122.1122575
24,"Palo Alto, California",church,ChIJr7iunDuxj4ARpQJTOxRxCtk,恩信聖經教會,"['church', 'place_of_worship', 'point_of_interest', 'establishment']","1425 Springer Road, Mountain View",37.380125,-122.0955166
25,"Palo Alto, California",church,ChIJt4riJD-7j4ARV71m1BL8r3I,First United Methodist Church,"['church', 'place_of_worship', 'school', 'point_of_interest', 'establishment']","625 Hamilton Avenue, Palo Alto",37.44912679999999,-122.1569145
26,"Palo Alto, California",church,ChIJdyp811y6j4ARuVkQzMZvblU,Unity Palo Alto,"['church', 'place_of_worship', 'book_store', 'store', 'school', 'point_of_interest', 'establishment']","3391 Middlefield Road, Palo Alto",37.426824,-122.1180131
27,"Palo Alto, California",church,ChIJCeu0h1u6j4AR4jiuVwchay0,St. Thomas Aquinas Parish Pastoral Center,"['church', 'place_of_worship', 'point_of_interest', 'establishment']","3290 Middlefield Road, Palo Alto",37.4280182,-122.1215116
28,"Palo Alto, California",church,ChIJZ7Qzyw-6j4ARO9IAycJWfcU,Abundant Life Christian Fellowship,"['church', 'place_of_worship', 'point_of_interest', 'establishment']","2440 Leghorn Street, Mountain View",37.4198952,-122.098124
29,"Palo Alto, California",church,ChIJ0YJVzLukj4ARLweSH6Ow4ww,St Raymond Catholic Church,"['church', 'place_of_worship', 'point_of_interest', 'establishment']","1100 Santa Cruz Avenue, Menlo Park",37.4467948,-122.1891941
30,"Palo Alto, California",church,ChIJ6aUy8a27j4ARuG8R_nBLq-c,Bay Area Christian Church,"['church', 'place_of_worship', 'point_of_interest', 'establishment']","2525 East Bayshore Road, Palo Alto",37.44735430000001,-122.1180924
31,"Palo Alto, California",church,ChIJ19c07qW8j4ARRbh0Zsj8SEg,Menlo Park Christian Methodist Episcopal Church,"['church', 'place_of_worship', 'point_of_interest', 'establishment']",Menlo Park,37.47382710000001,-122.1624644
32,"Palo Alto, California",church,ChIJFbMfGMawj4ARTUTugpBA3rE,St. Paul Lutheran Child Development Center,"['church', 'place_of_worship', 'school', 'point_of_interest', 'establishment']","1075 North El Monte Avenue, Mountain View",37.38881550000001,-122.0954662
33,"Palo Alto, California",church,ChIJ3_484xe7j4ARMIPnB7rsIqM,First Presbyterian Church,"['church', 'place_of_worship', 'point_of_interest', 'establishment']","1140 Cowper Street, Palo Alto",37.4430356,-122.1513648
34,"Palo Alto, California",church,ChIJm4WCImmjj4ARK0DXU16eia4,St Anthony's Catholic Church,"['church', 'place_of_worship', 'point_of_interest', 'establishment']","3500 Middlefield Road, Menlo Park",37.4695752,-122.2010277
35,"Palo Alto, California",church,ChIJvQlfblK3j4ARm9Zkdq8eZac,Saenuri Church,"['church', 'place_of_worship', 'point_of_interest', 'establishment']","1250 West Middlefield Road, Mountain View",37.407949,-122.080276
36,"Palo Alto, California",church,ChIJu-uaFjm7j4ARjAjI9ra_zHc,All Saints Episcopal Church,"['church', 'place_of_worship', 'point_of_interest', 'establishment']","555 Waverley Street, Palo Alto",37.4466995,-122.159228
37,"Palo Alto, California",church,ChIJQY5_mlG7j4ARc5dEWOhc-2E,St. Patrick's Seminary & University,"['university', 'church', 'place_of_worship', 'point_of_interest', 'establishment']","320 Middlefield Road, Menlo Park",37.4595701,-122.1681233
38,"Palo Alto, California",church,ChIJy8xtx0K6j4ARpd_s8_62zng,Peninsula Bible Church,"['church', 'place_of_worship', 'point_of_interest', 'establishment']","3505 Middlefield Road, Palo Alto",37.4259948,-122.11685
39,"Palo Alto, California",church,ChIJEzafSBe7j4AR2j89KiW9JcM,Trinity Lutheran Church,"['church', 'place_of_worship', 'point_of_interest', 'establishment']","1295 Middlefield Road, Palo Alto",37.4449882,-122.1468909
40,"Palo Alto, California",church,ChIJ5YBnAM2kj4ARDRefO_gMEos,Memorial Church,"['church', 'place_of_worship', 'point_of_interest', 'establishment']","450 Serra Street, Stanford",37.4268552,-122.1704409
41,"Palo Alto, California",church,ChIJdaek56-kj4ARswtebxbAjRw,Menlo Church,"['church', 'place_of_worship', 'point_of_interest', 'establishment']","950 Santa Cruz Avenue, Menlo Park",37.4489816,-122.1874204
42,"Palo Alto, California",church,ChIJQYpASqmkj4AR9RnH8nymG8c,Church of the Nativity,"['church', 'place_of_worship', 'point_of_interest', 'establishment']","210 Oak Grove Avenue, Menlo Park",37.4607608,-122.1803641
43,"Palo Alto, California",church,ChIJe7EAnG66j4ARqZTm6k7K7K8,Unitarian Universalist Church of Palo Alto,"['church', 'place_of_worship', 'point_of_interest', 'establishment']","505 East Charleston Road, Palo Alto",37.4193831,-122.1122575
44,"Palo Alto, California",church,ChIJr7iunDuxj4ARpQJTOxRxCtk,恩信聖經教會,"['church', 'place_of_worship', 'point_of_interest', 'establishment']","1425 Springer Road, Mountain View",37.380125,-122.0955166
45,"Palo Alto, California",church,ChIJt4riJD-7j4ARV71m1BL8r3I,First United Methodist Church,"['church', 'place_of_worship', 'school', 'point_of_interest', 'establishment']","625 Hamilton Avenue, Palo Alto",37.44912679999999,-122.1569145
46,"Palo Alto, California",church,ChIJdyp811y6j4ARuVkQzMZvblU,Unity Palo Alto,"['church', 'place_of_worship', 'book_store', 'store', 'school', 'point_of_interest', 'establishment']","3391 Middlefield Road, Palo Alto",37.426824,-122.1180131
47,"Palo Alto, California",church,ChIJCeu0h1u6j4AR4jiuVwchay0,St. Thomas Aquinas Parish Pastoral Center,"['church', 'place_of_worship', 'point_of_interest', 'establishment']","3290 Middlefield Road, Palo Alto",37.4280182,-122.1215116
48,"Palo Alto, California",church,ChIJZ7Qzyw-6j4ARO9IAycJWfcU,Abundant Life Christian Fellowship,"['church', 'place_of_worship', 'point_of_interest', 'establishment']","2440 Leghorn Street, Mountain View",37.4198952,-122.098124
49,"Palo Alto, California",church,ChIJ0YJVzLukj4ARLweSH6Ow4ww,St Raymond Catholic Church,"['church', 'place_of_worship', 'point_of_interest', 'establishment']","1100 Santa Cruz Avenue, Menlo Park",37.4467948,-122.1891941
50,"Palo Alto, California",church,ChIJ6aUy8a27j4ARuG8R_nBLq-c,Bay Area Christian Church,"['church', 'place_of_worship', 'point_of_interest', 'establishment']","2525 East Bayshore Road, Palo Alto",37.44735430000001,-122.1180924
51,"Palo Alto, California",church,ChIJ19c07qW8j4ARRbh0Zsj8SEg,Menlo Park Christian Methodist Episcopal Church,"['church', 'place_of_worship', 'point_of_interest', 'establishment']",Menlo Park,37.47382710000001,-122.1624644
52,"Palo Alto, California",church,ChIJFbMfGMawj4ARTUTugpBA3rE,St. Paul Lutheran Child Development Center,"['church', 'place_of_worship', 'school', 'point_of_interest', 'establishment']","1075 North El Monte Avenue, Mountain View",37.38881550000001,-122.0954662
53,"Palo Alto, California",church,ChIJ3_484xe7j4ARMIPnB7rsIqM,First Presbyterian Church,"['church', 'place_of_worship', 'point_of_interest', 'establishment']","1140 Cowper Street, Palo Alto",37.4430356,-122.1513648
54,"Palo Alto, California",church,ChIJm4WCImmjj4ARK0DXU16eia4,St Anthony's Catholic Church,"['church', 'place_of_worship', 'point_of_interest', 'establishment']","3500 Middlefield Road, Menlo Park",37.4695752,-122.2010277
55,"Palo Alto, California",church,ChIJvQlfblK3j4ARm9Zkdq8eZac,Saenuri Church,"['church', 'place_of_worship', 'point_of_interest', 'establishment']","1250 West Middlefield Road, Mountain View",37.407949,-122.080276
56,"Palo Alto, California",church,ChIJu-uaFjm7j4ARjAjI9ra_zHc,All Saints Episcopal Church,"['church', 'place_of_worship', 'point_of_interest', 'establishment']","555 Waverley Street, Palo Alto",37.4466995,-122.159228
57,"Palo Alto, California",church,ChIJQY5_mlG7j4ARc5dEWOhc-2E,St. Patrick's Seminary & University,"['university', 'church', 'place_of_worship', 'point_of_interest', 'establishment']","320 Middlefield Road, Menlo Park",37.4595701,-122.1681233
58,"Palo Alto, California",church,ChIJy8xtx0K6j4ARpd_s8_62zng,Peninsula Bible Church,"['church', 'place_of_worship', 'point_of_interest', 'establishment']","3505 Middlefield Road, Palo Alto",37.4259948,-122.11685
59,"Palo Alto, California",church,ChIJEzafSBe7j4AR2j89KiW9JcM,Trinity Lutheran Church,"['church', 'place_of_worship', 'point_of_interest', 'establishment']","1295 Middlefield Road, Palo Alto",37.4449882,-122.1468909
0,"Mountain View, California",church,ChIJ5YBnAM2kj4ARDRefO_gMEos,Memorial Church,"['church', 'place_of_worship', 'point_of_interest', 'establishment']","450 Serra Street, Stanford",37.4268552,-122.1704409
1,"Mountain View, California",church,ChIJr7iunDuxj4ARpQJTOxRxCtk,恩信聖經教會,"['church', 'place_of_worship', 'point_of_interest', 'establishment']","1425 Springer Road, Mountain View",37.380125,-122.0955166
2,"Mountain View, California",church,ChIJVZxpPjS0j4ARmtu77gAWhi4,Valley Church,"['church', 'place_of_worship', 'point_of_interest', 'establishment']","10885 North Stelling Road, Cupertino",37.3353712,-122.0419478
3,"Mountain View, California",church,ChIJB78DEU20j4ARAxuGpJBcGKQ,Abundant Life Assembly of God,"['place_of_worship', 'church', 'point_of_interest', 'establishment']","10100 North Stelling Road, Cupertino",37.3247013,-122.0402837
4,"Mountain View, California",church,ChIJr7iunDuxj4ARZEZOQxcJGgk,Triune Korean Baptist Church,"['church', 'place_of_worship', 'point_of_interest', 'establishment']","625 Magdalena Court, Los Altos Hills",37.3597674,-122.1004299
5,"Mountain View, California",church,ChIJGzWSTjy2j4ARUuJgkEUDNIQ,America Chinese Evangelical Seminary,"['church', 'place_of_worship', 'school', 'point_of_interest', 'establishment']","4513, 850 Stewart Drive, Sunnyvale",37.38342799999999,-122.007965
6,"Mountain View, California",church,ChIJofpQLL61j4ARgqlUdb4gmdQ,Good Samaritan United Methodist Church,"['church', 'place_of_worship', 'point_of_interest', 'establishment']","19624 Homestead Road, Cupertino",37.3374095,-122.0162057
7,"Mountain View, California",church,ChIJe7EAnG66j4ARqZTm6k7K7K8,Unitarian Universalist Church of Palo Alto,"['church', 'place_of_worship', 'point_of_interest', 'establishment']","505 East Charleston Road, Palo Alto",37.4193831,-122.1122575
8,"Mountain View, California",church,ChIJITTmRCq0j4ARF3u_60rMlcs,Church of the Resurrection,"['church', 'place_of_worship', 'point_of_interest', 'establishment']","725 Cascade Drive, Sunnyvale",37.3485026,-122.0427016
9,"Mountain View, California",church,ChIJdyp811y6j4ARuVkQzMZvblU,Unity Palo Alto,"['church', 'place_of_worship', 'book_store', 'store', 'school', 'point_of_interest', 'establishment']","3391 Middlefield Road, Palo Alto",37.426824,-122.1180131
10,"Mountain View, California",church,ChIJs8FHsje3j4ARFAa1ocefn8Q,St Martin Catholic Church,"['church', 'place_of_worship', 'point_of_interest', 'establishment']","593 Central Avenue, Sunnyvale",37.3679638,-122.0254316
11,"Mountain View, California",church,ChIJZ7Qzyw-6j4ARO9IAycJWfcU,Abundant Life Christian Fellowship,"['church', 'place_of_worship', 'point_of_interest', 'establishment']","2440 Leghorn Street, Mountain View",37.4198952,-122.098124
12,"Mountain View, California",church,ChIJCeu0h1u6j4AR4jiuVwchay0,St. Thomas Aquinas Parish Pastoral Center,"['church', 'place_of_worship', 'point_of_interest', 'establishment']","3290 Middlefield Road, Palo Alto",37.4280182,-122.1215116
13,"Mountain View, California",church,ChIJMUDlxSC0j4ARRglN-aywUWg,St Luke Lutheran Church,"['church', 'place_of_worship', 'point_of_interest', 'establishment']","1025 The Dalles Avenue, Sunnyvale",37.34530519999999,-122.0560092
14,"Mountain View, California",church,ChIJwYnd5cTJj4ARpUXcbYymsrI,New Hope,"['church', 'place_of_worship', 'point_of_interest', 'establishment']","2900 Patrick Henry Drive, Santa Clara",37.3954539,-121.9795695
15,"Mountain View, California",church,ChIJxwsRWE-3j4AR-ctCIu-lx5g,Kingdom Hall of Jehovah's Witnesses,"['church', 'place_of_worship', 'point_of_interest', 'establishment']","120 Pioneer Way, Mountain View",37.3880866,-122.0674771
16,"Mountain View, California",church,ChIJFbMfGMawj4ARTUTugpBA3rE,St. Paul Lutheran Child Development Center,"['church', 'place_of_worship', 'school', 'point_of_interest', 'establishment']","1075 North El Monte Avenue, Mountain View",37.38881550000001,-122.0954662
17,"Mountain View, California",church,ChIJvQlfblK3j4ARm9Zkdq8eZac,Saenuri Church,"['church', 'place_of_worship', 'point_of_interest', 'establishment']","1250 West Middlefield Road, Mountain View",37.407949,-122.080276
18,"Mountain View, California",church,ChIJ6aUy8a27j4ARuG8R_nBLq-c,Bay Area Christian Church,"['church', 'place_of_worship', 'point_of_interest', 'establishment']","2525 East Bayshore Road, Palo Alto",37.44735430000001,-122.1180924
19,"Mountain View, California",church,ChIJQ0cHxeS2j4AR-UooPGxZFzw,St Cyprian Church,"['church', 'place_of_worship', 'point_of_interest', 'establishment']","195 Leota Avenue, Sunnyvale",37.3806638,-122.0497625
20,"Mountain View, California",church,ChIJ5YBnAM2kj4ARDRefO_gMEos,Memorial Church,"['church', 'place_of_worship', 'point_of_interest', 'establishment']","450 Serra Street, Stanford",37.4268552,-122.1704409
21,"Mountain View, California",church,ChIJr7iunDuxj4ARpQJTOxRxCtk,恩信聖經教會,"['church', 'place_of_worship', 'point_of_interest', 'establishment']","1425 Springer Road, Mountain View",37.380125,-122.0955166
22,"Mountain View, California",church,ChIJVZxpPjS0j4ARmtu77gAWhi4,Valley Church,"['church', 'place_of_worship', 'point_of_interest', 'establishment']","10885 North Stelling Road, Cupertino",37.3353712,-122.0419478
23,"Mountain View, California",church,ChIJB78DEU20j4ARAxuGpJBcGKQ,Abundant Life Assembly of God,"['place_of_worship', 'church', 'point_of_interest', 'establishment']","10100 North Stelling Road, Cupertino",37.3247013,-122.0402837
24,"Mountain View, California",church,ChIJr7iunDuxj4ARZEZOQxcJGgk,Triune Korean Baptist Church,"['church', 'place_of_worship', 'point_of_interest', 'establishment']","625 Magdalena Court, Los Altos Hills",37.3597674,-122.1004299
25,"Mountain View, California",church,ChIJGzWSTjy2j4ARUuJgkEUDNIQ,America Chinese Evangelical Seminary,"['church', 'place_of_worship', 'school', 'point_of_interest', 'establishment']","4513, 850 Stewart Drive, Sunnyvale",37.38342799999999,-122.007965
26,"Mountain View, California",church,ChIJofpQLL61j4ARgqlUdb4gmdQ,Good Samaritan United Methodist Church,"['church', 'place_of_worship', 'point_of_interest', 'establishment']","19624 Homestead Road, Cupertino",37.3374095,-122.0162057
27,"Mountain View, California",church,ChIJe7EAnG66j4ARqZTm6k7K7K8,Unitarian Universalist Church of Palo Alto,"['church', 'place_of_worship', 'point_of_interest', 'establishment']","505 East Charleston Road, Palo Alto",37.4193831,-122.1122575
28,"Mountain View, California",church,ChIJITTmRCq0j4ARF3u_60rMlcs,Church of the Resurrection,"['church', 'place_of_worship', 'point_of_interest', 'establishment']","725 Cascade Drive, Sunnyvale",37.3485026,-122.0427016
29,"Mountain View, California",church,ChIJdyp811y6j4ARuVkQzMZvblU,Unity Palo Alto,"['church', 'place_of_worship', 'book_store', 'store', 'school', 'point_of_interest', 'establishment']","3391 Middlefield Road, Palo Alto",37.426824,-122.1180131
30,"Mountain View, California",church,ChIJs8FHsje3j4ARFAa1ocefn8Q,St Martin Catholic Church,"['church', 'place_of_worship', 'point_of_interest', 'establishment']","593 Central Avenue, Sunnyvale",37.3679638,-122.0254316
31,"Mountain View, California",church,ChIJZ7Qzyw-6j4ARO9IAycJWfcU,Abundant Life Christian Fellowship,"['church', 'place_of_worship', 'point_of_interest', 'establishment']","2440 Leghorn Street, Mountain View",37.4198952,-122.098124
32,"Mountain View, California",church,ChIJCeu0h1u6j4AR4jiuVwchay0,St. Thomas Aquinas Parish Pastoral Center,"['church', 'place_of_worship', 'point_of_interest', 'establishment']","3290 Middlefield Road, Palo Alto",37.4280182,-122.1215116
33,"Mountain View, California",church,ChIJMUDlxSC0j4ARRglN-aywUWg,St Luke Lutheran Church,"['church', 'place_of_worship', 'point_of_interest', 'establishment']","1025 The Dalles Avenue, Sunnyvale",37.34530519999999,-122.0560092
34,"Mountain View, California",church,ChIJwYnd5cTJj4ARpUXcbYymsrI,New Hope,"['church', 'place_of_worship', 'point_of_interest', 'establishment']","2900 Patrick Henry Drive, Santa Clara",37.3954539,-121.9795695
35,"Mountain View, California",church,ChIJxwsRWE-3j4AR-ctCIu-lx5g,Kingdom Hall of Jehovah's Witnesses,"['church', 'place_of_worship', 'point_of_interest', 'establishment']","120 Pioneer Way, Mountain View",37.3880866,-122.0674771
36,"Mountain View, California",church,ChIJFbMfGMawj4ARTUTugpBA3rE,St. Paul Lutheran Child Development Center,"['church', 'place_of_worship', 'school', 'point_of_interest', 'establishment']","1075 North El Monte Avenue, Mountain View",37.38881550000001,-122.0954662
37,"Mountain View, California",church,ChIJvQlfblK3j4ARm9Zkdq8eZac,Saenuri Church,"['church', 'place_of_worship', 'point_of_interest', 'establishment']","1250 West Middlefield Road, Mountain View",37.407949,-122.080276
38,"Mountain View, California",church,ChIJ6aUy8a27j4ARuG8R_nBLq-c,Bay Area Christian Church,"['church', 'place_of_worship', 'point_of_interest', 'establishment']","2525 East Bayshore Road, Palo Alto",37.44735430000001,-122.1180924
39,"Mountain View, California",church,ChIJQ0cHxeS2j4AR-UooPGxZFzw,St Cyprian Church,"['church', 'place_of_worship', 'point_of_interest', 'establishment']","195 Leota Avenue, Sunnyvale",37.3806638,-122.0497625
40,"Mountain View, California",church,ChIJ5YBnAM2kj4ARDRefO_gMEos,Memorial Church,"['church', 'place_of_worship', 'point_of_interest', 'establishment']","450 Serra Street, Stanford",37.4268552,-122.1704409
41,"Mountain View, California",church,ChIJr7iunDuxj4ARpQJTOxRxCtk,恩信聖經教會,"['church', 'place_of_worship', 'point_of_interest', 'establishment']","1425 Springer Road, Mountain View",37.380125,-122.0955166
42,"Mountain View, California",church,ChIJVZxpPjS0j4ARmtu77gAWhi4,Valley Church,"['church', 'place_of_worship', 'point_of_interest', 'establishment']","10885 North Stelling Road, Cupertino",37.3353712,-122.0419478
43,"Mountain View, California",church,ChIJB78DEU20j4ARAxuGpJBcGKQ,Abundant Life Assembly of God,"['place_of_worship', 'church', 'point_of_interest', 'establishment']","10100 North Stelling Road, Cupertino",37.3247013,-122.0402837
44,"Mountain View, California",church,ChIJr7iunDuxj4ARZEZOQxcJGgk,Triune Korean Baptist Church,"['church', 'place_of_worship', 'point_of_interest', 'establishment']","625 Magdalena Court, Los Altos Hills",37.3597674,-122.1004299
45,"Mountain View, California",church,ChIJGzWSTjy2j4ARUuJgkEUDNIQ,America Chinese Evangelical Seminary,"['church', 'place_of_worship', 'school', 'point_of_interest', 'establishment']","4513, 850 Stewart Drive, Sunnyvale",37.38342799999999,-122.007965
46,"Mountain View, California",church,ChIJofpQLL61j4ARgqlUdb4gmdQ,Good Samaritan United Methodist Church,"['church', 'place_of_worship', 'point_of_interest', 'establishment']","19624 Homestead Road, Cupertino",37.3374095,-122.0162057
47,"Mountain View, California",church,ChIJe7EAnG66j4ARqZTm6k7K7K8,Unitarian Universalist Church of Palo Alto,"['church', 'place_of_worship', 'point_of_interest', 'establishment']","505 East Charleston Road, Palo Alto",37.4193831,-122.1122575
48,"Mountain View, California",church,ChIJITTmRCq0j4ARF3u_60rMlcs,Church of the Resurrection,"['church', 'place_of_worship', 'point_of_interest', 'establishment']","725 Cascade Drive, Sunnyvale",37.3485026,-122.0427016
49,"Mountain View, California",church,ChIJdyp811y6j4ARuVkQzMZvblU,Unity Palo Alto,"['church', 'place_of_worship', 'book_store', 'store', 'school', 'point_of_interest', 'establishment']","3391 Middlefield Road, Palo Alto",37.426824,-122.1180131
50,"Mountain View, California",church,ChIJs8FHsje3j4ARFAa1ocefn8Q,St Martin Catholic Church,"['church', 'place_of_worship', 'point_of_interest', 'establishment']","593 Central Avenue, Sunnyvale",37.3679638,-122.0254316
51,"Mountain View, California",church,ChIJZ7Qzyw-6j4ARO9IAycJWfcU,Abundant Life Christian Fellowship,"['church', 'place_of_worship', 'point_of_interest', 'establishment']","2440 Leghorn Street, Mountain View",37.4198952,-122.098124
52,"Mountain View, California",church,ChIJCeu0h1u6j4AR4jiuVwchay0,St. Thomas Aquinas Parish Pastoral Center,"['church', 'place_of_worship', 'point_of_interest', 'establishment']","3290 Middlefield Road, Palo Alto",37.4280182,-122.1215116
53,"Mountain View, California",church,ChIJMUDlxSC0j4ARRglN-aywUWg,St Luke Lutheran Church,"['church', 'place_of_worship', 'point_of_interest', 'establishment']","1025 The Dalles Avenue, Sunnyvale",37.34530519999999,-122.0560092
54,"Mountain View, California",church,ChIJwYnd5cTJj4ARpUXcbYymsrI,New Hope,"['church', 'place_of_worship', 'point_of_interest', 'establishment']","2900 Patrick Henry Drive, Santa Clara",37.3954539,-121.9795695
55,"Mountain View, California",church,ChIJxwsRWE-3j4AR-ctCIu-lx5g,Kingdom Hall of Jehovah's Witnesses,"['church', 'place_of_worship', 'point_of_interest', 'establishment']","120 Pioneer Way, Mountain View",37.3880866,-122.0674771
56,"Mountain View, California",church,ChIJFbMfGMawj4ARTUTugpBA3rE,St. Paul Lutheran Child Development Center,"['church', 'place_of_worship', 'school', 'point_of_interest', 'establishment']","1075 North El Monte Avenue, Mountain View",37.38881550000001,-122.0954662
57,"Mountain View, California",church,ChIJvQlfblK3j4ARm9Zkdq8eZac,Saenuri Church,"['church', 'place_of_worship', 'point_of_interest', 'establishment']","1250 West Middlefield Road, Mountain View",37.407949,-122.080276
58,"Mountain View, California",church,ChIJ6aUy8a27j4ARuG8R_nBLq-c,Bay Area Christian Church,"['church', 'place_of_worship', 'point_of_interest', 'establishment']","2525 East Bayshore Road, Palo Alto",37.44735430000001,-122.1180924
59,"Mountain View, California",church,ChIJQ0cHxeS2j4AR-UooPGxZFzw,St Cyprian Church,"['church', 'place_of_worship', 'point_of_interest', 'establishment']","195 Leota Avenue, Sunnyvale",37.3806638,-122.0497625
0,"Sunnyvale, California",church,ChIJ5xUWtoDJj4ARlwvBlP1YcnM,River of Life Christian Church / 生命河靈糧堂,"['church', 'place_of_worship', 'point_of_interest', 'establishment']","1177 Laurelwood Road, Santa Clara",37.3794023,-121.9525665
1,"Sunnyvale, California",church,ChIJB78DEU20j4ARAxuGpJBcGKQ,Abundant Life Assembly of God,"['place_of_worship', 'church', 'point_of_interest', 'establishment']","10100 North Stelling Road, Cupertino",37.3247013,-122.0402837
2,"Sunnyvale, California",church,ChIJofpQLL61j4ARgqlUdb4gmdQ,Good Samaritan United Methodist Church,"['church', 'place_of_worship', 'point_of_interest', 'establishment']","19624 Homestead Road, Cupertino",37.3374095,-122.0162057
3,"Sunnyvale, California",church,ChIJVZxpPjS0j4ARmtu77gAWhi4,Valley Church,"['church', 'place_of_worship', 'point_of_interest', 'establishment']","10885 North Stelling Road, Cupertino",37.3353712,-122.0419478
4,"Sunnyvale, California",church,ChIJr7iunDuxj4ARpQJTOxRxCtk,恩信聖經教會,"['church', 'place_of_worship', 'point_of_interest', 'establishment']","1425 Springer Road, Mountain View",37.380125,-122.0955166
5,"Sunnyvale, California",church,ChIJGzWSTjy2j4ARUuJgkEUDNIQ,America Chinese Evangelical Seminary,"['church', 'place_of_worship', 'school', 'point_of_interest', 'establishment']","4513, 850 Stewart Drive, Sunnyvale",37.38342799999999,-122.007965
6,"Sunnyvale, California",church,ChIJwYnd5cTJj4ARpUXcbYymsrI,New Hope,"['church', 'place_of_worship', 'point_of_interest', 'establishment']","2900 Patrick Henry Drive, Santa Clara",37.3954539,-121.9795695
7,"Sunnyvale, California",church,ChIJr7iunDuxj4ARZEZOQxcJGgk,Triune Korean Baptist Church,"['church', 'place_of_worship', 'point_of_interest', 'establishment']","625 Magdalena Court, Los Altos Hills",37.3597674,-122.1004299
8,"Sunnyvale, California",church,ChIJ27fhV_zKj4ARM-ulD2Wtloo,Church of the Valley,"['church', 'place_of_worship', 'point_of_interest', 'establishment']","400 North Winchester Boulevard, Santa Clara",37.333334,-121.951305
9,"Sunnyvale, California",church,ChIJITTmRCq0j4ARF3u_60rMlcs,Church of the Resurrection,"['church', 'place_of_worship', 'point_of_interest', 'establishment']","725 Cascade Drive, Sunnyvale",37.3485026,-122.0427016
10,"Sunnyvale, California",church,ChIJncAWhQnLj4ARsMy7A42GpbM,Coachella Valley Church,"['church', 'place_of_worship', 'store', 'point_of_interest', 'establishment']","2142 The Alameda, San Jose",37.3441135,-121.9296123
11,"Sunnyvale, California",church,ChIJe7EAnG66j4ARqZTm6k7K7K8,Unitarian Universalist Church of Palo Alto,"['church', 'place_of_worship', 'point_of_interest', 'establishment']","505 East Charleston Road, Palo Alto",37.4193831,-122.1122575
12,"Sunnyvale, California",church,ChIJs8FHsje3j4ARFAa1ocefn8Q,St Martin Catholic Church,"['church', 'place_of_worship', 'point_of_interest', 'establishment']","593 Central Avenue, Sunnyvale",37.3679638,-122.0254316
13,"Sunnyvale, California",church,ChIJUbKLBVDIj4AR9z6aOj66v0U,Redemption Church,"['church', 'place_of_worship', 'point_of_interest', 'establishment']","105 Nortech Parkway, San Jose",37.4257003,-121.9599686
14,"Sunnyvale, California",church,ChIJMUDlxSC0j4ARRglN-aywUWg,St Luke Lutheran Church,"['church', 'place_of_worship', 'point_of_interest', 'establishment']","1025 The Dalles Avenue, Sunnyvale",37.34530519999999,-122.0560092
15,"Sunnyvale, California",church,ChIJadR7fGbKj4ARnRaARHZTQY0,St Justin Parish Community,"['church', 'place_of_worship', 'store', 'school', 'point_of_interest', 'establishment']","2655 Homestead Road, Santa Clara",37.3400658,-121.9751288
16,"Sunnyvale, California",church,ChIJxwsRWE-3j4AR-ctCIu-lx5g,Kingdom Hall of Jehovah's Witnesses,"['church', 'place_of_worship', 'point_of_interest', 'establishment']","120 Pioneer Way, Mountain View",37.3880866,-122.0674771
17,"Sunnyvale, California",church,ChIJZ7Qzyw-6j4ARO9IAycJWfcU,Abundant Life Christian Fellowship,"['church', 'place_of_worship', 'point_of_interest', 'establishment']","2440 Leghorn Street, Mountain View",37.4198952,-122.098124
18,"Sunnyvale, California",church,ChIJFbMfGMawj4ARTUTugpBA3rE,St. Paul Lutheran Child Development Center,"['church', 'place_of_worship', 'school', 'point_of_interest', 'establishment']","1075 North El Monte Avenue, Mountain View",37.38881550000001,-122.0954662
19,"Sunnyvale, California",church,ChIJvQlfblK3j4ARm9Zkdq8eZac,Saenuri Church,"['church', 'place_of_worship', 'point_of_interest', 'establishment']","1250 West Middlefield Road, Mountain View",37.407949,-122.080276
20,"Sunnyvale, California",church,ChIJ5xUWtoDJj4ARlwvBlP1YcnM,River of Life Christian Church / 生命河靈糧堂,"['church', 'place_of_worship', 'point_of_interest', 'establishment']","1177 Laurelwood Road, Santa Clara",37.3794023,-121.9525665
21,"Sunnyvale, California",church,ChIJB78DEU20j4ARAxuGpJBcGKQ,Abundant Life Assembly of God,"['place_of_worship', 'church', 'point_of_interest', 'establishment']","10100 North Stelling Road, Cupertino",37.3247013,-122.0402837
22,"Sunnyvale, California",church,ChIJofpQLL61j4ARgqlUdb4gmdQ,Good Samaritan United Methodist Church,"['church', 'place_of_worship', 'point_of_interest', 'establishment']","19624 Homestead Road, Cupertino",37.3374095,-122.0162057
23,"Sunnyvale, California",church,ChIJVZxpPjS0j4ARmtu77gAWhi4,Valley Church,"['church', 'place_of_worship', 'point_of_interest', 'establishment']","10885 North Stelling Road, Cupertino",37.3353712,-122.0419478
24,"Sunnyvale, California",church,ChIJr7iunDuxj4ARpQJTOxRxCtk,恩信聖經教會,"['church', 'place_of_worship', 'point_of_interest', 'establishment']","1425 Springer Road, Mountain View",37.380125,-122.0955166
25,"Sunnyvale, California",church,ChIJGzWSTjy2j4ARUuJgkEUDNIQ,America Chinese Evangelical Seminary,"['church', 'place_of_worship', 'school', 'point_of_interest', 'establishment']","4513, 850 Stewart Drive, Sunnyvale",37.38342799999999,-122.007965
26,"Sunnyvale, California",church,ChIJwYnd5cTJj4ARpUXcbYymsrI,New Hope,"['church', 'place_of_worship', 'point_of_interest', 'establishment']","2900 Patrick Henry Drive, Santa Clara",37.3954539,-121.9795695
27,"Sunnyvale, California",church,ChIJr7iunDuxj4ARZEZOQxcJGgk,Triune Korean Baptist Church,"['church', 'place_of_worship', 'point_of_interest', 'establishment']","625 Magdalena Court, Los Altos Hills",37.3597674,-122.1004299
28,"Sunnyvale, California",church,ChIJ27fhV_zKj4ARM-ulD2Wtloo,Church of the Valley,"['church', 'place_of_worship', 'point_of_interest', 'establishment']","400 North Winchester Boulevard, Santa Clara",37.333334,-121.951305
29,"Sunnyvale, California",church,ChIJITTmRCq0j4ARF3u_60rMlcs,Church of the Resurrection,"['church', 'place_of_worship', 'point_of_interest', 'establishment']","725 Cascade Drive, Sunnyvale",37.3485026,-122.0427016
30,"Sunnyvale, California",church,ChIJncAWhQnLj4ARsMy7A42GpbM,Coachella Valley Church,"['church', 'place_of_worship', 'store', 'point_of_interest', 'establishment']","2142 The Alameda, San Jose",37.3441135,-121.9296123
31,"Sunnyvale, California",church,ChIJe7EAnG66j4ARqZTm6k7K7K8,Unitarian Universalist Church of Palo Alto,"['church', 'place_of_worship', 'point_of_interest', 'establishment']","505 East Charleston Road, Palo Alto",37.4193831,-122.1122575
32,"Sunnyvale, California",church,ChIJs8FHsje3j4ARFAa1ocefn8Q,St Martin Catholic Church,"['church', 'place_of_worship', 'point_of_interest', 'establishment']","593 Central Avenue, Sunnyvale",37.3679638,-122.0254316
33,"Sunnyvale, California",church,ChIJUbKLBVDIj4AR9z6aOj66v0U,Redemption Church,"['church', 'place_of_worship', 'point_of_interest', 'establishment']","105 Nortech Parkway, San Jose",37.4257003,-121.9599686
34,"Sunnyvale, California",church,ChIJMUDlxSC0j4ARRglN-aywUWg,St Luke Lutheran Church,"['church', 'place_of_worship', 'point_of_interest', 'establishment']","1025 The Dalles Avenue, Sunnyvale",37.34530519999999,-122.0560092
35,"Sunnyvale, California",church,ChIJadR7fGbKj4ARnRaARHZTQY0,St Justin Parish Community,"['church', 'place_of_worship', 'store', 'school', 'point_of_interest', 'establishment']","2655 Homestead Road, Santa Clara",37.3400658,-121.9751288
36,"Sunnyvale, California",church,ChIJxwsRWE-3j4AR-ctCIu-lx5g,Kingdom Hall of Jehovah's Witnesses,"['church', 'place_of_worship', 'point_of_interest', 'establishment']","120 Pioneer Way, Mountain View",37.3880866,-122.0674771
37,"Sunnyvale, California",church,ChIJZ7Qzyw-6j4ARO9IAycJWfcU,Abundant Life Christian Fellowship,"['church', 'place_of_worship', 'point_of_interest', 'establishment']","2440 Leghorn Street, Mountain View",37.4198952,-122.098124
38,"Sunnyvale, California",church,ChIJFbMfGMawj4ARTUTugpBA3rE,St. Paul Lutheran Child Development Center,"['church', 'place_of_worship', 'school', 'point_of_interest', 'establishment']","1075 North El Monte Avenue, Mountain View",37.38881550000001,-122.0954662
39,"Sunnyvale, California",church,ChIJvQlfblK3j4ARm9Zkdq8eZac,Saenuri Church,"['church', 'place_of_worship', 'point_of_interest', 'establishment']","1250 West Middlefield Road, Mountain View",37.407949,-122.080276
40,"Sunnyvale, California",church,ChIJ5xUWtoDJj4ARlwvBlP1YcnM,River of Life Christian Church / 生命河靈糧堂,"['church', 'place_of_worship', 'point_of_interest', 'establishment']","1177 Laurelwood Road, Santa Clara",37.3794023,-121.9525665
41,"Sunnyvale, California",church,ChIJB78DEU20j4ARAxuGpJBcGKQ,Abundant Life Assembly of God,"['place_of_worship', 'church', 'point_of_interest', 'establishment']","10100 North Stelling Road, Cupertino",37.3247013,-122.0402837
42,"Sunnyvale, California",church,ChIJofpQLL61j4ARgqlUdb4gmdQ,Good Samaritan United Methodist Church,"['church', 'place_of_worship', 'point_of_interest', 'establishment']","19624 Homestead Road, Cupertino",37.3374095,-122.0162057
43,"Sunnyvale, California",church,ChIJVZxpPjS0j4ARmtu77gAWhi4,Valley Church,"['church', 'place_of_worship', 'point_of_interest', 'establishment']","10885 North Stelling Road, Cupertino",37.3353712,-122.0419478
44,"Sunnyvale, California",church,ChIJr7iunDuxj4ARpQJTOxRxCtk,恩信聖經教會,"['church', 'place_of_worship', 'point_of_interest', 'establishment']","1425 Springer Road, Mountain View",37.380125,-122.0955166
45,"Sunnyvale, California",church,ChIJGzWSTjy2j4ARUuJgkEUDNIQ,America Chinese Evangelical Seminary,"['church', 'place_of_worship', 'school', 'point_of_interest', 'establishment']","4513, 850 Stewart Drive, Sunnyvale",37.38342799999999,-122.007965
46,"Sunnyvale, California",church,ChIJwYnd5cTJj4ARpUXcbYymsrI,New Hope,"['church', 'place_of_worship', 'point_of_interest', 'establishment']","2900 Patrick Henry Drive, Santa Clara",37.3954539,-121.9795695
47,"Sunnyvale, California",church,ChIJr7iunDuxj4ARZEZOQxcJGgk,Triune Korean Baptist Church,"['church', 'place_of_worship', 'point_of_interest', 'establishment']","625 Magdalena Court, Los Altos Hills",37.3597674,-122.1004299
48,"Sunnyvale, California",church,ChIJ27fhV_zKj4ARM-ulD2Wtloo,Church of the Valley,"['church', 'place_of_worship', 'point_of_interest', 'establishment']","400 North Winchester Boulevard, Santa Clara",37.333334,-121.951305
49,"Sunnyvale, California",church,ChIJITTmRCq0j4ARF3u_60rMlcs,Church of the Resurrection,"['church', 'place_of_worship', 'point_of_interest', 'establishment']","725 Cascade Drive, Sunnyvale",37.3485026,-122.0427016
50,"Sunnyvale, California",church,ChIJncAWhQnLj4ARsMy7A42GpbM,Coachella Valley Church,"['church', 'place_of_worship', 'store', 'point_of_interest', 'establishment']","2142 The Alameda, San Jose",37.3441135,-121.9296123
51,"Sunnyvale, California",church,ChIJe7EAnG66j4ARqZTm6k7K7K8,Unitarian Universalist Church of Palo Alto,"['church', 'place_of_worship', 'point_of_interest', 'establishment']","505 East Charleston Road, Palo Alto",37.4193831,-122.1122575
52,"Sunnyvale, California",church,ChIJs8FHsje3j4ARFAa1ocefn8Q,St Martin Catholic Church,"['church', 'place_of_worship', 'point_of_interest', 'establishment']","593 Central Avenue, Sunnyvale",37.3679638,-122.0254316
53,"Sunnyvale, California",church,ChIJUbKLBVDIj4AR9z6aOj66v0U,Redemption Church,"['church', 'place_of_worship', 'point_of_interest', 'establishment']","105 Nortech Parkway, San Jose",37.4257003,-121.9599686
54,"Sunnyvale, California",church,ChIJMUDlxSC0j4ARRglN-aywUWg,St Luke Lutheran Church,"['church', 'place_of_worship', 'point_of_interest', 'establishment']","1025 The Dalles Avenue, Sunnyvale",37.34530519999999,-122.0560092
55,"Sunnyvale, California",church,ChIJadR7fGbKj4ARnRaARHZTQY0,St Justin Parish Community,"['church', 'place_of_worship', 'store', 'school', 'point_of_interest', 'establishment']","2655 Homestead Road, Santa Clara",37.3400658,-121.9751288
56,"Sunnyvale, California",church,ChIJxwsRWE-3j4AR-ctCIu-lx5g,Kingdom Hall of Jehovah's Witnesses,"['church', 'place_of_worship', 'point_of_interest', 'establishment']","120 Pioneer Way, Mountain View",37.3880866,-122.0674771
57,"Sunnyvale, California",church,ChIJZ7Qzyw-6j4ARO9IAycJWfcU,Abundant Life Christian Fellowship,"['church', 'place_of_worship', 'point_of_interest', 'establishment']","2440 Leghorn Street, Mountain View",37.4198952,-122.098124
58,"Sunnyvale, California",church,ChIJFbMfGMawj4ARTUTugpBA3rE,St. Paul Lutheran Child Development Center,"['church', 'place_of_worship', 'school', 'point_of_interest', 'establishment']","1075 North El Monte Avenue, Mountain View",37.38881550000001,-122.0954662
59,"Sunnyvale, California",church,ChIJvQlfblK3j4ARm9Zkdq8eZac,Saenuri Church,"['church', 'place_of_worship', 'point_of_interest', 'establishment']","1250 West Middlefield Road, Mountain View",37.407949,-122.080276
0,"Cupertino, California",church,ChIJB78DEU20j4ARAxuGpJBcGKQ,Abundant Life Assembly of God,"['place_of_worship', 'church', 'point_of_interest', 'establishment']","10100 North Stelling Road, Cupertino",37.3247013,-122.0402837
1,"Cupertino, California",church,ChIJofpQLL61j4ARgqlUdb4gmdQ,Good Samaritan United Methodist Church,"['church', 'place_of_worship', 'point_of_interest', 'establishment']","19624 Homestead Road, Cupertino",37.3374095,-122.0162057
2,"Cupertino, California",church,ChIJVZxpPjS0j4ARmtu77gAWhi4,Valley Church,"['church', 'place_of_worship', 'point_of_interest', 'establishment']","10885 North Stelling Road, Cupertino",37.3353712,-122.0419478
3,"Cupertino, California",church,ChIJncAWhQnLj4ARsMy7A42GpbM,Coachella Valley Church,"['church', 'place_of_worship', 'store', 'point_of_interest', 'establishment']","2142 The Alameda, San Jose",37.3441135,-121.9296123
4,"Cupertino, California",church,ChIJ27fhV_zKj4ARM-ulD2Wtloo,Church of the Valley,"['church', 'place_of_worship', 'point_of_interest', 'establishment']","400 North Winchester Boulevard, Santa Clara",37.333334,-121.951305
5,"Cupertino, California",church,ChIJ5xUWtoDJj4ARlwvBlP1YcnM,River of Life Christian Church / 生命河靈糧堂,"['church', 'place_of_worship', 'point_of_interest', 'establishment']","1177 Laurelwood Road, Santa Clara",37.3794023,-121.9525665
6,"Cupertino, California",church,ChIJm0P3hyg1joARETkSlczqyMc,Campbell United Methodist Church,"['church', 'place_of_worship', 'point_of_interest', 'establishment']","1675 South Winchester Boulevard, Campbell",37.2929445,-121.950244
7,"Cupertino, California",church,ChIJGzWSTjy2j4ARUuJgkEUDNIQ,America Chinese Evangelical Seminary,"['church', 'place_of_worship', 'school', 'point_of_interest', 'establishment']","4513, 850 Stewart Drive, Sunnyvale",37.38342799999999,-122.007965
8,"Cupertino, California",church,ChIJP7sIVVS1j4ARTpkHHtPNHyQ,WestGate Church | Saratoga Campus,"['church', 'place_of_worship', 'point_of_interest', 'establishment']","1735 Saratoga Avenue, San Jose",37.2907949,-121.9945419
9,"Cupertino, California",church,ChIJMw7-W9TKj4ARu7VEt8Rcs_o,Bethel Church of San Jose,"['church', 'place_of_worship', 'point_of_interest', 'establishment']","1201 South Winchester Boulevard, San Jose",37.304042,-121.951374
10,"Cupertino, California",church,ChIJr7iunDuxj4ARZEZOQxcJGgk,Triune Korean Baptist Church,"['church', 'place_of_worship', 'point_of_interest', 'establishment']","625 Magdalena Court, Los Altos Hills",37.3597674,-122.1004299
11,"Cupertino, California",church,ChIJr7iunDuxj4ARpQJTOxRxCtk,恩信聖經教會,"['church', 'place_of_worship', 'point_of_interest', 'establishment']","1425 Springer Road, Mountain View",37.380125,-122.0955166
12,"Cupertino, California",church,ChIJITTmRCq0j4ARF3u_60rMlcs,Church of the Resurrection,"['church', 'place_of_worship', 'point_of_interest', 'establishment']","725 Cascade Drive, Sunnyvale",37.3485026,-122.0427016
13,"Cupertino, California",church,ChIJs8FHsje3j4ARFAa1ocefn8Q,St Martin Catholic Church,"['church', 'place_of_worship', 'point_of_interest', 'establishment']","593 Central Avenue, Sunnyvale",37.3679638,-122.0254316
14,"Cupertino, California",church,ChIJ1yCxn9BKjoARvJWD8Tg39HQ,Menlo Church - Saratoga Campus,"['church', 'place_of_worship', 'point_of_interest', 'establishment']","20455 Herriman Avenue, Saratoga",37.2678564,-122.0313665
15,"Cupertino, California",church,ChIJMw7-W9TKj4ARfwC99cTVwP0,Bernhard Johnson Ministries,"['church', 'place_of_worship', 'point_of_interest', 'establishment']","1201 South Winchester Boulevard, San Jose",37.3040415,-121.9513739
16,"Cupertino, California",church,ChIJJTqWsdhKjoAR7LiB3vldzww,St. Nicholas Orthodox Church,"['church', 'place_of_worship', 'point_of_interest', 'establishment']","14220 Elva Avenue, Saratoga",37.2614337,-122.037535
17,"Cupertino, California",church,ChIJadR7fGbKj4ARnRaARHZTQY0,St Justin Parish Community,"['church', 'place_of_worship', 'store', 'school', 'point_of_interest', 'establishment']","2655 Homestead Road, Santa Clara",37.3400658,-121.9751288
18,"Cupertino, California",church,ChIJMUDlxSC0j4ARRglN-aywUWg,St Luke Lutheran Church,"['church', 'place_of_worship', 'point_of_interest', 'establishment']","1025 The Dalles Avenue, Sunnyvale",37.34530519999999,-122.0560092
19,"Cupertino, California",church,ChIJD0grSB41joARF9F18KGC2to,St. Lucy Parish,"['church', 'place_of_worship', 'point_of_interest', 'establishment']","2350 Winchester Boulevard, Campbell",37.28005069999999,-121.9490895
20,"Cupertino, California",church,ChIJB78DEU20j4ARAxuGpJBcGKQ,Abundant Life Assembly of God,"['place_of_worship', 'church', 'point_of_interest', 'establishment']","10100 North Stelling Road, Cupertino",37.3247013,-122.0402837
21,"Cupertino, California",church,ChIJofpQLL61j4ARgqlUdb4gmdQ,Good Samaritan United Methodist Church,"['church', 'place_of_worship', 'point_of_interest', 'establishment']","19624 Homestead Road, Cupertino",37.3374095,-122.0162057
22,"Cupertino, California",church,ChIJVZxpPjS0j4ARmtu77gAWhi4,Valley Church,"['church', 'place_of_worship', 'point_of_interest', 'establishment']","10885 North Stelling Road, Cupertino",37.3353712,-122.0419478
23,"Cupertino, California",church,ChIJncAWhQnLj4ARsMy7A42GpbM,Coachella Valley Church,"['church', 'place_of_worship', 'store', 'point_of_interest', 'establishment']","2142 The Alameda, San Jose",37.3441135,-121.9296123
24,"Cupertino, California",church,ChIJ27fhV_zKj4ARM-ulD2Wtloo,Church of the Valley,"['church', 'place_of_worship', 'point_of_interest', 'establishment']","400 North Winchester Boulevard, Santa Clara",37.333334,-121.951305
25,"Cupertino, California",church,ChIJ5xUWtoDJj4ARlwvBlP1YcnM,River of Life Christian Church / 生命河靈糧堂,"['church', 'place_of_worship', 'point_of_interest', 'establishment']","1177 Laurelwood Road, Santa Clara",37.3794023,-121.9525665
26,"Cupertino, California",church,ChIJm0P3hyg1joARETkSlczqyMc,Campbell United Methodist Church,"['church', 'place_of_worship', 'point_of_interest', 'establishment']","1675 South Winchester Boulevard, Campbell",37.2929445,-121.950244
27,"Cupertino, California",church,ChIJGzWSTjy2j4ARUuJgkEUDNIQ,America Chinese Evangelical Seminary,"['church', 'place_of_worship', 'school', 'point_of_interest', 'establishment']","4513, 850 Stewart Drive, Sunnyvale",37.38342799999999,-122.007965
28,"Cupertino, California",church,ChIJP7sIVVS1j4ARTpkHHtPNHyQ,WestGate Church | Saratoga Campus,"['church', 'place_of_worship', 'point_of_interest', 'establishment']","1735 Saratoga Avenue, San Jose",37.2907949,-121.9945419
29,"Cupertino, California",church,ChIJMw7-W9TKj4ARu7VEt8Rcs_o,Bethel Church of San Jose,"['church', 'place_of_worship', 'point_of_interest', 'establishment']","1201 South Winchester Boulevard, San Jose",37.304042,-121.951374
30,"Cupertino, California",church,ChIJr7iunDuxj4ARZEZOQxcJGgk,Triune Korean Baptist Church,"['church', 'place_of_worship', 'point_of_interest', 'establishment']","625 Magdalena Court, Los Altos Hills",37.3597674,-122.1004299
31,"Cupertino, California",church,ChIJr7iunDuxj4ARpQJTOxRxCtk,恩信聖經教會,"['church', 'place_of_worship', 'point_of_interest', 'establishment']","1425 Springer Road, Mountain View",37.380125,-122.0955166
32,"Cupertino, California",church,ChIJITTmRCq0j4ARF3u_60rMlcs,Church of the Resurrection,"['church', 'place_of_worship', 'point_of_interest', 'establishment']","725 Cascade Drive, Sunnyvale",37.3485026,-122.0427016
33,"Cupertino, California",church,ChIJs8FHsje3j4ARFAa1ocefn8Q,St Martin Catholic Church,"['church', 'place_of_worship', 'point_of_interest', 'establishment']","593 Central Avenue, Sunnyvale",37.3679638,-122.0254316
34,"Cupertino, California",church,ChIJ1yCxn9BKjoARvJWD8Tg39HQ,Menlo Church - Saratoga Campus,"['church', 'place_of_worship', 'point_of_interest', 'establishment']","20455 Herriman Avenue, Saratoga",37.2678564,-122.0313665
35,"Cupertino, California",church,ChIJMw7-W9TKj4ARfwC99cTVwP0,Bernhard Johnson Ministries,"['church', 'place_of_worship', 'point_of_interest', 'establishment']","1201 South Winchester Boulevard, San Jose",37.3040415,-121.9513739
36,"Cupertino, California",church,ChIJJTqWsdhKjoAR7LiB3vldzww,St. Nicholas Orthodox Church,"['church', 'place_of_worship', 'point_of_interest', 'establishment']","14220 Elva Avenue, Saratoga",37.2614337,-122.037535
37,"Cupertino, California",church,ChIJadR7fGbKj4ARnRaARHZTQY0,St Justin Parish Community,"['church', 'place_of_worship', 'store', 'school', 'point_of_interest', 'establishment']","2655 Homestead Road, Santa Clara",37.3400658,-121.9751288
38,"Cupertino, California",church,ChIJMUDlxSC0j4ARRglN-aywUWg,St Luke Lutheran Church,"['church', 'place_of_worship', 'point_of_interest', 'establishment']","1025 The Dalles Avenue, Sunnyvale",37.34530519999999,-122.0560092
39,"Cupertino, California",church,ChIJD0grSB41joARF9F18KGC2to,St. Lucy Parish,"['church', 'place_of_worship', 'point_of_interest', 'establishment']","2350 Winchester Boulevard, Campbell",37.28005069999999,-121.9490895
40,"Cupertino, California",church,ChIJB78DEU20j4ARAxuGpJBcGKQ,Abundant Life Assembly of God,"['place_of_worship', 'church', 'point_of_interest', 'establishment']","10100 North Stelling Road, Cupertino",37.3247013,-122.0402837
41,"Cupertino, California",church,ChIJofpQLL61j4ARgqlUdb4gmdQ,Good Samaritan United Methodist Church,"['church', 'place_of_worship', 'point_of_interest', 'establishment']","19624 Homestead Road, Cupertino",37.3374095,-122.0162057
42,"Cupertino, California",church,ChIJVZxpPjS0j4ARmtu77gAWhi4,Valley Church,"['church', 'place_of_worship', 'point_of_interest', 'establishment']","10885 North Stelling Road, Cupertino",37.3353712,-122.0419478
43,"Cupertino, California",church,ChIJncAWhQnLj4ARsMy7A42GpbM,Coachella Valley Church,"['church', 'place_of_worship', 'store', 'point_of_interest', 'establishment']","2142 The Alameda, San Jose",37.3441135,-121.9296123
44,"Cupertino, California",church,ChIJ27fhV_zKj4ARM-ulD2Wtloo,Church of the Valley,"['church', 'place_of_worship', 'point_of_interest', 'establishment']","400 North Winchester Boulevard, Santa Clara",37.333334,-121.951305
45,"Cupertino, California",church,ChIJ5xUWtoDJj4ARlwvBlP1YcnM,River of Life Christian Church / 生命河靈糧堂,"['church', 'place_of_worship', 'point_of_interest', 'establishment']","1177 Laurelwood Road, Santa Clara",37.3794023,-121.9525665
46,"Cupertino, California",church,ChIJm0P3hyg1joARETkSlczqyMc,Campbell United Methodist Church,"['church', 'place_of_worship', 'point_of_interest', 'establishment']","1675 South Winchester Boulevard, Campbell",37.2929445,-121.950244
47,"Cupertino, California",church,ChIJGzWSTjy2j4ARUuJgkEUDNIQ,America Chinese Evangelical Seminary,"['church', 'place_of_worship', 'school', 'point_of_interest', 'establishment']","4513, 850 Stewart Drive, Sunnyvale",37.38342799999999,-122.007965
48,"Cupertino, California",church,ChIJP7sIVVS1j4ARTpkHHtPNHyQ,WestGate Church | Saratoga Campus,"['church', 'place_of_worship', 'point_of_interest', 'establishment']","1735 Saratoga Avenue, San Jose",37.2907949,-121.9945419
49,"Cupertino, California",church,ChIJMw7-W9TKj4ARu7VEt8Rcs_o,Bethel Church of San Jose,"['church', 'place_of_worship', 'point_of_interest', 'establishment']","1201 South Winchester Boulevard, San Jose",37.304042,-121.951374
50,"Cupertino, California",church,ChIJr7iunDuxj4ARZEZOQxcJGgk,Triune Korean Baptist Church,"['church', 'place_of_worship', 'point_of_interest', 'establishment']","625 Magdalena Court, Los Altos Hills",37.3597674,-122.1004299
51,"Cupertino, California",church,ChIJr7iunDuxj4ARpQJTOxRxCtk,恩信聖經教會,"['church', 'place_of_worship', 'point_of_interest', 'establishment']","1425 Springer Road, Mountain View",37.380125,-122.0955166
52,"Cupertino, California",church,ChIJITTmRCq0j4ARF3u_60rMlcs,Church of the Resurrection,"['church', 'place_of_worship', 'point_of_interest', 'establishment']","725 Cascade Drive, Sunnyvale",37.3485026,-122.0427016
53,"Cupertino, California",church,ChIJs8FHsje3j4ARFAa1ocefn8Q,St Martin Catholic Church,"['church', 'place_of_worship', 'point_of_interest', 'establishment']","593 Central Avenue, Sunnyvale",37.3679638,-122.0254316
54,"Cupertino, California",church,ChIJ1yCxn9BKjoARvJWD8Tg39HQ,Menlo Church - Saratoga Campus,"['church', 'place_of_worship', 'point_of_interest', 'establishment']","20455 Herriman Avenue, Saratoga",37.2678564,-122.0313665
55,"Cupertino, California",church,ChIJMw7-W9TKj4ARfwC99cTVwP0,Bernhard Johnson Ministries,"['church', 'place_of_worship', 'point_of_interest', 'establishment']","1201 South Winchester Boulevard, San Jose",37.3040415,-121.9513739
56,"Cupertino, California",church,ChIJJTqWsdhKjoAR7LiB3vldzww,St. Nicholas Orthodox Church,"['church', 'place_of_worship', 'point_of_interest', 'establishment']","14220 Elva Avenue, Saratoga",37.2614337,-122.037535
57,"Cupertino, California",church,ChIJadR7fGbKj4ARnRaARHZTQY0,St Justin Parish Community,"['church', 'place_of_worship', 'store', 'school', 'point_of_interest', 'establishment']","2655 Homestead Road, Santa Clara",37.3400658,-121.9751288
58,"Cupertino, California",church,ChIJMUDlxSC0j4ARRglN-aywUWg,St Luke Lutheran Church,"['church', 'place_of_worship', 'point_of_interest', 'establishment']","1025 The Dalles Avenue, Sunnyvale",37.34530519999999,-122.0560092
59,"Cupertino, California",church,ChIJD0grSB41joARF9F18KGC2to,St. Lucy Parish,"['church', 'place_of_worship', 'point_of_interest', 'establishment']","2350 Winchester Boulevard, Campbell",37.28005069999999,-121.9490895
0,"Santa Clara, California",church,ChIJncAWhQnLj4ARsMy7A42GpbM,Coachella Valley Church,"['church', 'place_of_worship', 'store', 'point_of_interest', 'establishment']","2142 The Alameda, San Jose",37.3441135,-121.9296123
1,"Santa Clara, California",church,ChIJ5xUWtoDJj4ARlwvBlP1YcnM,River of Life Christian Church / 生命河靈糧堂,"['church', 'place_of_worship', 'point_of_interest', 'establishment']","1177 Laurelwood Road, Santa Clara",37.3794023,-121.9525665
2,"Santa Clara, California",church,ChIJ-SbjPwwzjoARsaAUQ5k18t0,Cathedral of Faith,"['church', 'place_of_worship', 'point_of_interest', 'establishment']","2315 Canoas Garden Avenue, San Jose",37.2919781,-121.8748571
3,"Santa Clara, California",church,ChIJG6NVelLLj4ARy2oLct8kg2Y,San Juan Bautista Child Development,"['church', 'place_of_worship', 'point_of_interest', 'establishment']","1400 Parkmoor Avenue, San Jose",37.3159595,-121.9127442
4,"Santa Clara, California",church,ChIJofpQLL61j4ARgqlUdb4gmdQ,Good Samaritan United Methodist Church,"['church', 'place_of_worship', 'point_of_interest', 'establishment']","19624 Homestead Road, Cupertino",37.3374095,-122.0162057
5,"Santa Clara, California",church,ChIJ27fhV_zKj4ARM-ulD2Wtloo,Church of the Valley,"['church', 'place_of_worship', 'point_of_interest', 'establishment']","400 North Winchester Boulevard, Santa Clara",37.333334,-121.951305
6,"Santa Clara, California",church,ChIJm0P3hyg1joARETkSlczqyMc,Campbell United Methodist Church,"['church', 'place_of_worship', 'point_of_interest', 'establishment']","1675 South Winchester Boulevard, Campbell",37.2929445,-121.950244
7,"Santa Clara, California",church,ChIJvYWTfG3Lj4ARKV9JxB0x52c,Center For Spiritual Enlightenment,"['church', 'place_of_worship', 'gym', 'health', 'point_of_interest', 'establishment']","1146 University Avenue, San Jose",37.33901739999999,-121.9224343
8,"Santa Clara, California",church,ChIJGzWSTjy2j4ARUuJgkEUDNIQ,America Chinese Evangelical Seminary,"['church', 'place_of_worship', 'school', 'point_of_interest', 'establishment']","4513, 850 Stewart Drive, Sunnyvale",37.38342799999999,-122.007965
9,"Santa Clara, California",church,ChIJMw7-W9TKj4ARu7VEt8Rcs_o,Bethel Church of San Jose,"['church', 'place_of_worship', 'point_of_interest', 'establishment']","1201 South Winchester Boulevard, San Jose",37.304042,-121.951374
10,"Santa Clara, California",church,ChIJwYnd5cTJj4ARpUXcbYymsrI,New Hope,"['church', 'place_of_worship', 'point_of_interest', 'establishment']","2900 Patrick Henry Drive, Santa Clara",37.3954539,-121.9795695
11,"Santa Clara, California",church,ChIJVZxpPjS0j4ARmtu77gAWhi4,Valley Church,"['church', 'place_of_worship', 'point_of_interest', 'establishment']","10885 North Stelling Road, Cupertino",37.3353712,-122.0419478
12,"Santa Clara, California",church,ChIJB78DEU20j4ARAxuGpJBcGKQ,Abundant Life Assembly of God,"['place_of_worship', 'church', 'point_of_interest', 'establishment']","10100 North Stelling Road, Cupertino",37.3247013,-122.0402837
13,"Santa Clara, California",church,ChIJUbKLBVDIj4AR9z6aOj66v0U,Redemption Church,"['church', 'place_of_worship', 'point_of_interest', 'establishment']","105 Nortech Parkway, San Jose",37.4257003,-121.9599686
14,"Santa Clara, California",church,ChIJg2u_Y2jJj4ARsiCerbsM0zY,Echo.Church - North San Jose Campus,"['church', 'place_of_worship', 'point_of_interest', 'establishment']","1180 Murphy Avenue, San Jose",37.381502,-121.8939253
15,"Santa Clara, California",church,ChIJP7sIVVS1j4ARTpkHHtPNHyQ,WestGate Church | Saratoga Campus,"['church', 'place_of_worship', 'point_of_interest', 'establishment']","1735 Saratoga Avenue, San Jose",37.2907949,-121.9945419
16,"Santa Clara, California",church,ChIJm7f2yaLMj4ARAiQ3A8_cq7Q,Nuestra Senora De Guadalupe,"['church', 'place_of_worship', 'point_of_interest', 'establishment']","81 North 2nd Street, San Jose",37.3378239,-121.8907958
17,"Santa Clara, California",church,ChIJH5KXsWQzjoAR6lhY4jho7fY,New Life Covenant Church San Jose,"['church', 'place_of_worship', 'point_of_interest', 'establishment']","3504, 2175 Lincoln Avenue, San Jose",37.29118,-121.889124
18,"Santa Clara, California",church,ChIJNyHx9o7Mj4ARV5-L1yhUnhA,Holy Cross Parish,"['church', 'place_of_worship', 'point_of_interest', 'establishment']","580 Jackson Street, San Jose",37.3524509,-121.8864263
19,"Santa Clara, California",church,ChIJITTmRCq0j4ARF3u_60rMlcs,Church of the Resurrection,"['church', 'place_of_worship', 'point_of_interest', 'establishment']","725 Cascade Drive, Sunnyvale",37.3485026,-122.0427016
20,"Santa Clara, California",church,ChIJncAWhQnLj4ARsMy7A42GpbM,Coachella Valley Church,"['church', 'place_of_worship', 'store', 'point_of_interest', 'establishment']","2142 The Alameda, San Jose",37.3441135,-121.9296123
21,"Santa Clara, California",church,ChIJ5xUWtoDJj4ARlwvBlP1YcnM,River of Life Christian Church / 生命河靈糧堂,"['church', 'place_of_worship', 'point_of_interest', 'establishment']","1177 Laurelwood Road, Santa Clara",37.3794023,-121.9525665
22,"Santa Clara, California",church,ChIJ-SbjPwwzjoARsaAUQ5k18t0,Cathedral of Faith,"['church', 'place_of_worship', 'point_of_interest', 'establishment']","2315 Canoas Garden Avenue, San Jose",37.2919781,-121.8748571
23,"Santa Clara, California",church,ChIJG6NVelLLj4ARy2oLct8kg2Y,San Juan Bautista Child Development,"['church', 'place_of_worship', 'point_of_interest', 'establishment']","1400 Parkmoor Avenue, San Jose",37.3159595,-121.9127442
24,"Santa Clara, California",church,ChIJofpQLL61j4ARgqlUdb4gmdQ,Good Samaritan United Methodist Church,"['church', 'place_of_worship', 'point_of_interest', 'establishment']","19624 Homestead Road, Cupertino",37.3374095,-122.0162057
25,"Santa Clara, California",church,ChIJ27fhV_zKj4ARM-ulD2Wtloo,Church of the Valley,"['church', 'place_of_worship', 'point_of_interest', 'establishment']","400 North Winchester Boulevard, Santa Clara",37.333334,-121.951305
26,"Santa Clara, California",church,ChIJm0P3hyg1joARETkSlczqyMc,Campbell United Methodist Church,"['church', 'place_of_worship', 'point_of_interest', 'establishment']","1675 South Winchester Boulevard, Campbell",37.2929445,-121.950244
27,"Santa Clara, California",church,ChIJvYWTfG3Lj4ARKV9JxB0x52c,Center For Spiritual Enlightenment,"['church', 'place_of_worship', 'gym', 'health', 'point_of_interest', 'establishment']","1146 University Avenue, San Jose",37.33901739999999,-121.9224343
28,"Santa Clara, California",church,ChIJGzWSTjy2j4ARUuJgkEUDNIQ,America Chinese Evangelical Seminary,"['church', 'place_of_worship', 'school', 'point_of_interest', 'establishment']","4513, 850 Stewart Drive, Sunnyvale",37.38342799999999,-122.007965
29,"Santa Clara, California",church,ChIJMw7-W9TKj4ARu7VEt8Rcs_o,Bethel Church of San Jose,"['church', 'place_of_worship', 'point_of_interest', 'establishment']","1201 South Winchester Boulevard, San Jose",37.304042,-121.951374
30,"Santa Clara, California",church,ChIJwYnd5cTJj4ARpUXcbYymsrI,New Hope,"['church', 'place_of_worship', 'point_of_interest', 'establishment']","2900 Patrick Henry Drive, Santa Clara",37.3954539,-121.9795695
31,"Santa Clara, California",church,ChIJVZxpPjS0j4ARmtu77gAWhi4,Valley Church,"['church', 'place_of_worship', 'point_of_interest', 'establishment']","10885 North Stelling Road, Cupertino",37.3353712,-122.0419478
32,"Santa Clara, California",church,ChIJB78DEU20j4ARAxuGpJBcGKQ,Abundant Life Assembly of God,"['place_of_worship', 'church', 'point_of_interest', 'establishment']","10100 North Stelling Road, Cupertino",37.3247013,-122.0402837
33,"Santa Clara, California",church,ChIJUbKLBVDIj4AR9z6aOj66v0U,Redemption Church,"['church', 'place_of_worship', 'point_of_interest', 'establishment']","105 Nortech Parkway, San Jose",37.4257003,-121.9599686
34,"Santa Clara, California",church,ChIJg2u_Y2jJj4ARsiCerbsM0zY,Echo.Church - North San Jose Campus,"['church', 'place_of_worship', 'point_of_interest', 'establishment']","1180 Murphy Avenue, San Jose",37.381502,-121.8939253
35,"Santa Clara, California",church,ChIJP7sIVVS1j4ARTpkHHtPNHyQ,WestGate Church | Saratoga Campus,"['church', 'place_of_worship', 'point_of_interest', 'establishment']","1735 Saratoga Avenue, San Jose",37.2907949,-121.9945419
36,"Santa Clara, California",church,ChIJm7f2yaLMj4ARAiQ3A8_cq7Q,Nuestra Senora De Guadalupe,"['church', 'place_of_worship', 'point_of_interest', 'establishment']","81 North 2nd Street, San Jose",37.3378239,-121.8907958
37,"Santa Clara, California",church,ChIJH5KXsWQzjoAR6lhY4jho7fY,New Life Covenant Church San Jose,"['church', 'place_of_worship', 'point_of_interest', 'establishment']","3504, 2175 Lincoln Avenue, San Jose",37.29118,-121.889124
38,"Santa Clara, California",church,ChIJNyHx9o7Mj4ARV5-L1yhUnhA,Holy Cross Parish,"['church', 'place_of_worship', 'point_of_interest', 'establishment']","580 Jackson Street, San Jose",37.3524509,-121.8864263
39,"Santa Clara, California",church,ChIJITTmRCq0j4ARF3u_60rMlcs,Church of the Resurrection,"['church', 'place_of_worship', 'point_of_interest', 'establishment']","725 Cascade Drive, Sunnyvale",37.3485026,-122.0427016
40,"Santa Clara, California",church,ChIJncAWhQnLj4ARsMy7A42GpbM,Coachella Valley Church,"['church', 'place_of_worship', 'store', 'point_of_interest', 'establishment']","2142 The Alameda, San Jose",37.3441135,-121.9296123
41,"Santa Clara, California",church,ChIJ5xUWtoDJj4ARlwvBlP1YcnM,River of Life Christian Church / 生命河靈糧堂,"['church', 'place_of_worship', 'point_of_interest', 'establishment']","1177 Laurelwood Road, Santa Clara",37.3794023,-121.9525665
42,"Santa Clara, California",church,ChIJ-SbjPwwzjoARsaAUQ5k18t0,Cathedral of Faith,"['church', 'place_of_worship', 'point_of_interest', 'establishment']","2315 Canoas Garden Avenue, San Jose",37.2919781,-121.8748571
43,"Santa Clara, California",church,ChIJG6NVelLLj4ARy2oLct8kg2Y,San Juan Bautista Child Development,"['church', 'place_of_worship', 'point_of_interest', 'establishment']","1400 Parkmoor Avenue, San Jose",37.3159595,-121.9127442
44,"Santa Clara, California",church,ChIJofpQLL61j4ARgqlUdb4gmdQ,Good Samaritan United Methodist Church,"['church', 'place_of_worship', 'point_of_interest', 'establishment']","19624 Homestead Road, Cupertino",37.3374095,-122.0162057
45,"Santa Clara, California",church,ChIJ27fhV_zKj4ARM-ulD2Wtloo,Church of the Valley,"['church', 'place_of_worship', 'point_of_interest', 'establishment']","400 North Winchester Boulevard, Santa Clara",37.333334,-121.951305
46,"Santa Clara, California",church,ChIJm0P3hyg1joARETkSlczqyMc,Campbell United Methodist Church,"['church', 'place_of_worship', 'point_of_interest', 'establishment']","1675 South Winchester Boulevard, Campbell",37.2929445,-121.950244
47,"Santa Clara, California",church,ChIJvYWTfG3Lj4ARKV9JxB0x52c,Center For Spiritual Enlightenment,"['church', 'place_of_worship', 'gym', 'health', 'point_of_interest', 'establishment']","1146 University Avenue, San Jose",37.33901739999999,-121.9224343
48,"Santa Clara, California",church,ChIJGzWSTjy2j4ARUuJgkEUDNIQ,America Chinese Evangelical Seminary,"['church', 'place_of_worship', 'school', 'point_of_interest', 'establishment']","4513, 850 Stewart Drive, Sunnyvale",37.38342799999999,-122.007965
49,"Santa Clara, California",church,ChIJMw7-W9TKj4ARu7VEt8Rcs_o,Bethel Church of San Jose,"['church', 'place_of_worship', 'point_of_interest', 'establishment']","1201 South Winchester Boulevard, San Jose",37.304042,-121.951374
50,"Santa Clara, California",church,ChIJwYnd5cTJj4ARpUXcbYymsrI,New Hope,"['church', 'place_of_worship', 'point_of_interest', 'establishment']","2900 Patrick Henry Drive, Santa Clara",37.3954539,-121.9795695
51,"Santa Clara, California",church,ChIJVZxpPjS0j4ARmtu77gAWhi4,Valley Church,"['church', 'place_of_worship', 'point_of_interest', 'establishment']","10885 North Stelling Road, Cupertino",37.3353712,-122.0419478
52,"Santa Clara, California",church,ChIJB78DEU20j4ARAxuGpJBcGKQ,Abundant Life Assembly of God,"['place_of_worship', 'church', 'point_of_interest', 'establishment']","10100 North Stelling Road, Cupertino",37.3247013,-122.0402837
53,"Santa Clara, California",church,ChIJUbKLBVDIj4AR9z6aOj66v0U,Redemption Church,"['church', 'place_of_worship', 'point_of_interest', 'establishment']","105 Nortech Parkway, San Jose",37.4257003,-121.9599686
54,"Santa Clara, California",church,ChIJg2u_Y2jJj4ARsiCerbsM0zY,Echo.Church - North San Jose Campus,"['church', 'place_of_worship', 'point_of_interest', 'establishment']","1180 Murphy Avenue, San Jose",37.381502,-121.8939253
55,"Santa Clara, California",church,ChIJP7sIVVS1j4ARTpkHHtPNHyQ,WestGate Church | Saratoga Campus,"['church', 'place_of_worship', 'point_of_interest', 'establishment']","1735 Saratoga Avenue, San Jose",37.2907949,-121.9945419
56,"Santa Clara, California",church,ChIJm7f2yaLMj4ARAiQ3A8_cq7Q,Nuestra Senora De Guadalupe,"['church', 'place_of_worship', 'point_of_interest', 'establishment']","81 North 2nd Street, San Jose",37.3378239,-121.8907958
57,"Santa Clara, California",church,ChIJH5KXsWQzjoAR6lhY4jho7fY,New Life Covenant Church San Jose,"['church', 'place_of_worship', 'point_of_interest', 'establishment']","3504, 2175 Lincoln Avenue, San Jose",37.29118,-121.889124
58,"Santa Clara, California",church,ChIJNyHx9o7Mj4ARV5-L1yhUnhA,Holy Cross Parish,"['church', 'place_of_worship', 'point_of_interest', 'establishment']","580 Jackson Street, San Jose",37.3524509,-121.8864263
59,"Santa Clara, California",church,ChIJITTmRCq0j4ARF3u_60rMlcs,Church of the Resurrection,"['church', 'place_of_worship', 'point_of_interest', 'establishment']","725 Cascade Drive, Sunnyvale",37.3485026,-122.0427016
0,"San Jose, California",church,ChIJ-SbjPwwzjoARsaAUQ5k18t0,Cathedral of Faith,"['church', 'place_of_worship', 'point_of_interest', 'establishment']","2315 Canoas Garden Avenue, San Jose",37.2919781,-121.8748571
1,"San Jose, California",church,ChIJncAWhQnLj4ARsMy7A42GpbM,Coachella Valley Church,"['church', 'place_of_worship', 'store', 'point_of_interest', 'establishment']","2142 The Alameda, San Jose",37.3441135,-121.9296123
2,"San Jose, California",church,ChIJ5xUWtoDJj4ARlwvBlP1YcnM,River of Life Christian Church / 生命河靈糧堂,"['church', 'place_of_worship', 'point_of_interest', 'establishment']","1177 Laurelwood Road, Santa Clara",37.3794023,-121.9525665
3,"San Jose, California",church,ChIJH5KXsWQzjoAR6lhY4jho7fY,New Life Covenant Church San Jose,"['church', 'place_of_worship', 'point_of_interest', 'establishment']","3504, 2175 Lincoln Avenue, San Jose",37.29118,-121.889124
4,"San Jose, California",church,ChIJG6NVelLLj4ARy2oLct8kg2Y,San Juan Bautista Child Development,"['church', 'place_of_worship', 'point_of_interest', 'establishment']","1400 Parkmoor Avenue, San Jose",37.3159595,-121.9127442
5,"San Jose, California",church,ChIJpdzGWxEyjoAR2-HErEDdQss,Valley Christian Schools,"['church', 'place_of_worship', 'school', 'point_of_interest', 'establishment']","100 Skyway Drive #130, San Jose",37.276279,-121.826706
6,"San Jose, California",church,ChIJ27fhV_zKj4ARM-ulD2Wtloo,Church of the Valley,"['church', 'place_of_worship', 'point_of_interest', 'establishment']","400 North Winchester Boulevard, Santa Clara",37.333334,-121.951305
7,"San Jose, California",church,ChIJvYWTfG3Lj4ARKV9JxB0x52c,Center For Spiritual Enlightenment,"['church', 'place_of_worship', 'gym', 'health', 'point_of_interest', 'establishment']","1146 University Avenue, San Jose",37.33901739999999,-121.9224343
8,"San Jose, California",church,ChIJm0P3hyg1joARETkSlczqyMc,Campbell United Methodist Church,"['church', 'place_of_worship', 'point_of_interest', 'establishment']","1675 South Winchester Boulevard, Campbell",37.2929445,-121.950244
9,"San Jose, California",church,ChIJMw7-W9TKj4ARu7VEt8Rcs_o,Bethel Church of San Jose,"['church', 'place_of_worship', 'point_of_interest', 'establishment']","1201 South Winchester Boulevard, San Jose",37.304042,-121.951374
10,"San Jose, California",church,ChIJKWAOBQozjoARACoZ8pY2-x0,Iglesia Sobre La Roca,"['church', 'place_of_worship', 'point_of_interest', 'establishment']","500 Sands Drive, San Jose",37.2871684,-121.8745404
11,"San Jose, California",church,ChIJJXJcW4EzjoARYVgB2k74yHg,Lincoln Glen Church,"['church', 'place_of_worship', 'point_of_interest', 'establishment']","2700 Booksin Avenue, San Jose",37.275558,-121.897078
12,"San Jose, California",church,ChIJW3u-sLAyjoAROUiIJJ2UykA,Most Holy Trinity Catholic Church,"['church', 'place_of_worship', 'point_of_interest', 'establishment']","2040 Nassau Drive, San Jose",37.33046969999999,-121.8273821
13,"San Jose, California",church,ChIJl56iDpIzjoARqs9txiYwmMY,Church of the Chimes,"['church', 'place_of_worship', 'point_of_interest', 'establishment']","1447 Bryan Avenue, San Jose",37.26595040000001,-121.8903091
14,"San Jose, California",church,ChIJg2u_Y2jJj4ARsiCerbsM0zY,Echo.Church - North San Jose Campus,"['church', 'place_of_worship', 'point_of_interest', 'establishment']","1180 Murphy Avenue, San Jose",37.381502,-121.8939253
15,"San Jose, California",church,ChIJm7f2yaLMj4ARAiQ3A8_cq7Q,Nuestra Senora De Guadalupe,"['church', 'place_of_worship', 'point_of_interest', 'establishment']","81 North 2nd Street, San Jose",37.3378239,-121.8907958
16,"San Jose, California",church,ChIJNyHx9o7Mj4ARV5-L1yhUnhA,Holy Cross Parish,"['church', 'place_of_worship', 'point_of_interest', 'establishment']","580 Jackson Street, San Jose",37.3524509,-121.8864263
17,"San Jose, California",church,ChIJL5KyFQozjoARP_IRFZWK4m8,Church on the Hill,"['church', 'place_of_worship', 'point_of_interest', 'establishment']","500 Sands Drive, San Jose",37.28717299999999,-121.874535
18,"San Jose, California",church,ChIJMw7-W9TKj4ARfwC99cTVwP0,Bernhard Johnson Ministries,"['church', 'place_of_worship', 'point_of_interest', 'establishment']","1201 South Winchester Boulevard, San Jose",37.3040415,-121.9513739
19,"San Jose, California",church,ChIJD0grSB41joARF9F18KGC2to,St. Lucy Parish,"['church', 'place_of_worship', 'point_of_interest', 'establishment']","2350 Winchester Boulevard, Campbell",37.28005069999999,-121.9490895
20,"San Jose, California",church,ChIJ-SbjPwwzjoARsaAUQ5k18t0,Cathedral of Faith,"['church', 'place_of_worship', 'point_of_interest', 'establishment']","2315 Canoas Garden Avenue, San Jose",37.2919781,-121.8748571
21,"San Jose, California",church,ChIJncAWhQnLj4ARsMy7A42GpbM,Coachella Valley Church,"['church', 'place_of_worship', 'store', 'point_of_interest', 'establishment']","2142 The Alameda, San Jose",37.3441135,-121.9296123
22,"San Jose, California",church,ChIJ5xUWtoDJj4ARlwvBlP1YcnM,River of Life Christian Church / 生命河靈糧堂,"['church', 'place_of_worship', 'point_of_interest', 'establishment']","1177 Laurelwood Road, Santa Clara",37.3794023,-121.9525665
23,"San Jose, California",church,ChIJH5KXsWQzjoAR6lhY4jho7fY,New Life Covenant Church San Jose,"['church', 'place_of_worship', 'point_of_interest', 'establishment']","3504, 2175 Lincoln Avenue, San Jose",37.29118,-121.889124
24,"San Jose, California",church,ChIJG6NVelLLj4ARy2oLct8kg2Y,San Juan Bautista Child Development,"['church', 'place_of_worship', 'point_of_interest', 'establishment']","1400 Parkmoor Avenue, San Jose",37.3159595,-121.9127442
25,"San Jose, California",church,ChIJpdzGWxEyjoAR2-HErEDdQss,Valley Christian Schools,"['church', 'place_of_worship', 'school', 'point_of_interest', 'establishment']","100 Skyway Drive #130, San Jose",37.276279,-121.826706
26,"San Jose, California",church,ChIJ27fhV_zKj4ARM-ulD2Wtloo,Church of the Valley,"['church', 'place_of_worship', 'point_of_interest', 'establishment']","400 North Winchester Boulevard, Santa Clara",37.333334,-121.951305
27,"San Jose, California",church,ChIJvYWTfG3Lj4ARKV9JxB0x52c,Center For Spiritual Enlightenment,"['church', 'place_of_worship', 'gym', 'health', 'point_of_interest', 'establishment']","1146 University Avenue, San Jose",37.33901739999999,-121.9224343
28,"San Jose, California",church,ChIJm0P3hyg1joARETkSlczqyMc,Campbell United Methodist Church,"['church', 'place_of_worship', 'point_of_interest', 'establishment']","1675 South Winchester Boulevard, Campbell",37.2929445,-121.950244
29,"San Jose, California",church,ChIJMw7-W9TKj4ARu7VEt8Rcs_o,Bethel Church of San Jose,"['church', 'place_of_worship', 'point_of_interest', 'establishment']","1201 South Winchester Boulevard, San Jose",37.304042,-121.951374
30,"San Jose, California",church,ChIJKWAOBQozjoARACoZ8pY2-x0,Iglesia Sobre La Roca,"['church', 'place_of_worship', 'point_of_interest', 'establishment']","500 Sands Drive, San Jose",37.2871684,-121.8745404
31,"San Jose, California",church,ChIJJXJcW4EzjoARYVgB2k74yHg,Lincoln Glen Church,"['church', 'place_of_worship', 'point_of_interest', 'establishment']","2700 Booksin Avenue, San Jose",37.275558,-121.897078
32,"San Jose, California",church,ChIJW3u-sLAyjoAROUiIJJ2UykA,Most Holy Trinity Catholic Church,"['church', 'place_of_worship', 'point_of_interest', 'establishment']","2040 Nassau Drive, San Jose",37.33046969999999,-121.8273821
33,"San Jose, California",church,ChIJl56iDpIzjoARqs9txiYwmMY,Church of the Chimes,"['church', 'place_of_worship', 'point_of_interest', 'establishment']","1447 Bryan Avenue, San Jose",37.26595040000001,-121.8903091
34,"San Jose, California",church,ChIJg2u_Y2jJj4ARsiCerbsM0zY,Echo.Church - North San Jose Campus,"['church', 'place_of_worship', 'point_of_interest', 'establishment']","1180 Murphy Avenue, San Jose",37.381502,-121.8939253
35,"San Jose, California",church,ChIJm7f2yaLMj4ARAiQ3A8_cq7Q,Nuestra Senora De Guadalupe,"['church', 'place_of_worship', 'point_of_interest', 'establishment']","81 North 2nd Street, San Jose",37.3378239,-121.8907958
36,"San Jose, California",church,ChIJNyHx9o7Mj4ARV5-L1yhUnhA,Holy Cross Parish,"['church', 'place_of_worship', 'point_of_interest', 'establishment']","580 Jackson Street, San Jose",37.3524509,-121.8864263
37,"San Jose, California",church,ChIJL5KyFQozjoARP_IRFZWK4m8,Church on the Hill,"['church', 'place_of_worship', 'point_of_interest', 'establishment']","500 Sands Drive, San Jose",37.28717299999999,-121.874535
38,"San Jose, California",church,ChIJMw7-W9TKj4ARfwC99cTVwP0,Bernhard Johnson Ministries,"['church', 'place_of_worship', 'point_of_interest', 'establishment']","1201 South Winchester Boulevard, San Jose",37.3040415,-121.9513739
39,"San Jose, California",church,ChIJD0grSB41joARF9F18KGC2to,St. Lucy Parish,"['church', 'place_of_worship', 'point_of_interest', 'establishment']","2350 Winchester Boulevard, Campbell",37.28005069999999,-121.9490895
40,"San Jose, California",church,ChIJ-SbjPwwzjoARsaAUQ5k18t0,Cathedral of Faith,"['church', 'place_of_worship', 'point_of_interest', 'establishment']","2315 Canoas Garden Avenue, San Jose",37.2919781,-121.8748571
41,"San Jose, California",church,ChIJncAWhQnLj4ARsMy7A42GpbM,Coachella Valley Church,"['church', 'place_of_worship', 'store', 'point_of_interest', 'establishment']","2142 The Alameda, San Jose",37.3441135,-121.9296123
42,"San Jose, California",church,ChIJ5xUWtoDJj4ARlwvBlP1YcnM,River of Life Christian Church / 生命河靈糧堂,"['church', 'place_of_worship', 'point_of_interest', 'establishment']","1177 Laurelwood Road, Santa Clara",37.3794023,-121.9525665
43,"San Jose, California",church,ChIJH5KXsWQzjoAR6lhY4jho7fY,New Life Covenant Church San Jose,"['church', 'place_of_worship', 'point_of_interest', 'establishment']","3504, 2175 Lincoln Avenue, San Jose",37.29118,-121.889124
44,"San Jose, California",church,ChIJG6NVelLLj4ARy2oLct8kg2Y,San Juan Bautista Child Development,"['church', 'place_of_worship', 'point_of_interest', 'establishment']","1400 Parkmoor Avenue, San Jose",37.3159595,-121.9127442
45,"San Jose, California",church,ChIJpdzGWxEyjoAR2-HErEDdQss,Valley Christian Schools,"['church', 'place_of_worship', 'school', 'point_of_interest', 'establishment']","100 Skyway Drive #130, San Jose",37.276279,-121.826706
46,"San Jose, California",church,ChIJ27fhV_zKj4ARM-ulD2Wtloo,Church of the Valley,"['church', 'place_of_worship', 'point_of_interest', 'establishment']","400 North Winchester Boulevard, Santa Clara",37.333334,-121.951305
47,"San Jose, California",church,ChIJvYWTfG3Lj4ARKV9JxB0x52c,Center For Spiritual Enlightenment,"['church', 'place_of_worship', 'gym', 'health', 'point_of_interest', 'establishment']","1146 University Avenue, San Jose",37.33901739999999,-121.9224343
48,"San Jose, California",church,ChIJm0P3hyg1joARETkSlczqyMc,Campbell United Methodist Church,"['church', 'place_of_worship', 'point_of_interest', 'establishment']","1675 South Winchester Boulevard, Campbell",37.2929445,-121.950244
49,"San Jose, California",church,ChIJMw7-W9TKj4ARu7VEt8Rcs_o,Bethel Church of San Jose,"['church', 'place_of_worship', 'point_of_interest', 'establishment']","1201 South Winchester Boulevard, San Jose",37.304042,-121.951374
50,"San Jose, California",church,ChIJKWAOBQozjoARACoZ8pY2-x0,Iglesia Sobre La Roca,"['church', 'place_of_worship', 'point_of_interest', 'establishment']","500 Sands Drive, San Jose",37.2871684,-121.8745404
51,"San Jose, California",church,ChIJJXJcW4EzjoARYVgB2k74yHg,Lincoln Glen Church,"['church', 'place_of_worship', 'point_of_interest', 'establishment']","2700 Booksin Avenue, San Jose",37.275558,-121.897078
52,"San Jose, California",church,ChIJW3u-sLAyjoAROUiIJJ2UykA,Most Holy Trinity Catholic Church,"['church', 'place_of_worship', 'point_of_interest', 'establishment']","2040 Nassau Drive, San Jose",37.33046969999999,-121.8273821
53,"San Jose, California",church,ChIJl56iDpIzjoARqs9txiYwmMY,Church of the Chimes,"['church', 'place_of_worship', 'point_of_interest', 'establishment']","1447 Bryan Avenue, San Jose",37.26595040000001,-121.8903091
54,"San Jose, California",church,ChIJg2u_Y2jJj4ARsiCerbsM0zY,Echo.Church - North San Jose Campus,"['church', 'place_of_worship', 'point_of_interest', 'establishment']","1180 Murphy Avenue, San Jose",37.381502,-121.8939253
55,"San Jose, California",church,ChIJm7f2yaLMj4ARAiQ3A8_cq7Q,Nuestra Senora De Guadalupe,"['church', 'place_of_worship', 'point_of_interest', 'establishment']","81 North 2nd Street, San Jose",37.3378239,-121.8907958
56,"San Jose, California",church,ChIJNyHx9o7Mj4ARV5-L1yhUnhA,Holy Cross Parish,"['church', 'place_of_worship', 'point_of_interest', 'establishment']","580 Jackson Street, San Jose",37.3524509,-121.8864263
57,"San Jose, California",church,ChIJL5KyFQozjoARP_IRFZWK4m8,Church on the Hill,"['church', 'place_of_worship', 'point_of_interest', 'establishment']","500 Sands Drive, San Jose",37.28717299999999,-121.874535
58,"San Jose, California",church,ChIJMw7-W9TKj4ARfwC99cTVwP0,Bernhard Johnson Ministries,"['church', 'place_of_worship', 'point_of_interest', 'establishment']","1201 South Winchester Boulevard, San Jose",37.3040415,-121.9513739
59,"San Jose, California",church,ChIJD0grSB41joARF9F18KGC2to,St. Lucy Parish,"['church', 'place_of_worship', 'point_of_interest', 'establishment']","2350 Winchester Boulevard, Campbell",37.28005069999999,-121.9490895
0,"Fremont, California",church,ChIJdWwAmqC_j4ARWTGCSI5SgaU,Harbor Light Church,"['church', 'place_of_worship', 'point_of_interest', 'establishment']","4760 Thornton Avenue, Fremont",37.5504494,-122.0192462
1,"Fremont, California",church,ChIJ-0e0jUu_j4ARqDlf5QvEquc,New Life Mission Church of Fremont,"['church', 'place_of_worship', 'point_of_interest', 'establishment']","4700 Calaveras Avenue, Fremont",37.5380314,-121.9908449
2,"Fremont, California",church,ChIJj_067X_Aj4ARJTFxTsLvV8I,Central Church of Christ,"['church', 'place_of_worship', 'point_of_interest', 'establishment']","38069 Martha Avenue # 100, Fremont",37.5597235,-121.9921175
3,"Fremont, California",church,ChIJEb_n04K_j4ARd5QhGh8bx-Q,Holy Spirit Church,"['church', 'place_of_worship', 'point_of_interest', 'establishment']","37588 Fremont Boulevard, Fremont",37.5571007,-122.0035225
4,"Fremont, California",church,ChIJA_y1H5fAj4ARLT41vOCf_Xo,Fremont Hospital Chemical Dependency Treament,"['church', 'place_of_worship', 'health', 'point_of_interest', 'establishment']","39001 Sundale Drive, Fremont",37.5463283,-121.9793654
5,"Fremont, California",church,ChIJJUmIICTBj4ARD1XUR0UpXrI,Bridges Community Church,"['church', 'place_of_worship', 'point_of_interest', 'establishment']","505 Driscoll Road, Fremont",37.5482204,-121.9425053
6,"Fremont, California",church,ChIJFUngZS3Hj4ARKuQ88umvk0A,Irvington Baptist Church,"['church', 'place_of_worship', 'point_of_interest', 'establishment']",Fremont,37.5286111,-121.9580556
7,"Fremont, California",church,ChIJx9Q2RgvAj4ARh4hjOXsnzQw,Central Church of Christ,"['church', 'place_of_worship', 'point_of_interest', 'establishment']",Fremont,37.5791667,-121.9883333
8,"Fremont, California",church,ChIJNTgQIg6Vj4ARvmEkRzNZFSU,Garden Baptist Church,"['church', 'place_of_worship', 'point_of_interest', 'establishment']",Hayward,37.6110753,-122.0275175
9,"Fremont, California",church,ChIJM1PhQS3Hj4ARoWwxAJZripU,Crossroads Church - Fremont Campus,"['church', 'place_of_worship', 'point_of_interest', 'establishment']","4825, 41386 Fremont Boulevard, Fremont",37.529088,-121.95754
10,"Fremont, California",church,ChIJOZbftirHj4AR0rZ7xOVDUBw,Mission United Methodist Church,"['church', 'place_of_worship', 'point_of_interest', 'establishment']","2856 Washington Boulevard, Fremont",37.53252850000001,-121.9485553
11,"Fremont, California",church,ChIJjX1XZxDHj4ARqRlN7YMvmt0,Church of God International,"['church', 'place_of_worship', 'point_of_interest', 'establishment']","4450 Enterprise Street # 115, Fremont",37.5025908,-121.96035
12,"Fremont, California",church,ChIJmbZ60irHj4AR2addrrOvDXY,First United Methodist Church,"['church', 'place_of_worship', 'point_of_interest', 'establishment']","2950 Washington Boulevard, Fremont",37.5328065,-121.9499208
13,"Fremont, California",church,ChIJTW8zNbHGj4ARj8N5p_4U3AA,Old Mission San Jose,"['church', 'museum', 'place_of_worship', 'point_of_interest', 'establishment']","43300 Mission Boulevard, Fremont",37.53388990000001,-121.9196936
14,"Fremont, California",church,ChIJT4M4tXe_j4ARwYLJuU9X8zU,Centerville Presbyterian Church,"['church', 'place_of_worship', 'point_of_interest', 'establishment']","4360 Central Avenue, Fremont",37.55219400000001,-122.006851
15,"Fremont, California",church,ChIJ9ygJYdjGj4ARbhDsUGksi54,Calvary Chapel Fremont,"['church', 'place_of_worship', 'point_of_interest', 'establishment']","42986 Osgood Road, Fremont",37.52188599999999,-121.946123
16,"Fremont, California",church,ChIJ3Q9-wkG_j4ARQIuk8wDDDds,Cedars Church,"['church', 'place_of_worship', 'point_of_interest', 'establishment']","38325 Cedar Boulevard, Newark",37.5322471,-122.0117041
17,"Fremont, California",church,ChIJzWwmg5vAj4ARbuoDYFepv3A,Resonate Church Office,"['church', 'place_of_worship', 'point_of_interest', 'establishment']","44244 Fremont Boulevard, Fremont",37.5064299,-121.9486527
18,"Fremont, California",church,ChIJ3RgZ6WLAj4AR7-7_uG9a0lU,Christ the King Lutheran Church,"['church', 'place_of_worship', 'point_of_interest', 'establishment']","1301 Mowry Avenue, Fremont",37.563552,-121.97976
19,"Fremont, California",church,ChIJ0e8OM2_Aj4ARrrLUiT36-1c,Corpus Christi Church,"['church', 'place_of_worship', 'point_of_interest', 'establishment']","37968 3rd Street, Fremont",37.5747025,-121.9756503
20,"Fremont, California",church,ChIJdWwAmqC_j4ARWTGCSI5SgaU,Harbor Light Church,"['church', 'place_of_worship', 'point_of_interest', 'establishment']","4760 Thornton Avenue, Fremont",37.5504494,-122.0192462
21,"Fremont, California",church,ChIJ-0e0jUu_j4ARqDlf5QvEquc,New Life Mission Church of Fremont,"['church', 'place_of_worship', 'point_of_interest', 'establishment']","4700 Calaveras Avenue, Fremont",37.5380314,-121.9908449
22,"Fremont, California",church,ChIJj_067X_Aj4ARJTFxTsLvV8I,Central Church of Christ,"['church', 'place_of_worship', 'point_of_interest', 'establishment']","38069 Martha Avenue # 100, Fremont",37.5597235,-121.9921175
23,"Fremont, California",church,ChIJEb_n04K_j4ARd5QhGh8bx-Q,Holy Spirit Church,"['church', 'place_of_worship', 'point_of_interest', 'establishment']","37588 Fremont Boulevard, Fremont",37.5571007,-122.0035225
24,"Fremont, California",church,ChIJA_y1H5fAj4ARLT41vOCf_Xo,Fremont Hospital Chemical Dependency Treament,"['church', 'place_of_worship', 'health', 'point_of_interest', 'establishment']","39001 Sundale Drive, Fremont",37.5463283,-121.9793654
25,"Fremont, California",church,ChIJJUmIICTBj4ARD1XUR0UpXrI,Bridges Community Church,"['church', 'place_of_worship', 'point_of_interest', 'establishment']","505 Driscoll Road, Fremont",37.5482204,-121.9425053
26,"Fremont, California",church,ChIJFUngZS3Hj4ARKuQ88umvk0A,Irvington Baptist Church,"['church', 'place_of_worship', 'point_of_interest', 'establishment']",Fremont,37.5286111,-121.9580556
27,"Fremont, California",church,ChIJx9Q2RgvAj4ARh4hjOXsnzQw,Central Church of Christ,"['church', 'place_of_worship', 'point_of_interest', 'establishment']",Fremont,37.5791667,-121.9883333
28,"Fremont, California",church,ChIJNTgQIg6Vj4ARvmEkRzNZFSU,Garden Baptist Church,"['church', 'place_of_worship', 'point_of_interest', 'establishment']",Hayward,37.6110753,-122.0275175
29,"Fremont, California",church,ChIJM1PhQS3Hj4ARoWwxAJZripU,Crossroads Church - Fremont Campus,"['church', 'place_of_worship', 'point_of_interest', 'establishment']","4825, 41386 Fremont Boulevard, Fremont",37.529088,-121.95754
30,"Fremont, California",church,ChIJOZbftirHj4AR0rZ7xOVDUBw,Mission United Methodist Church,"['church', 'place_of_worship', 'point_of_interest', 'establishment']","2856 Washington Boulevard, Fremont",37.53252850000001,-121.9485553
31,"Fremont, California",church,ChIJjX1XZxDHj4ARqRlN7YMvmt0,Church of God International,"['church', 'place_of_worship', 'point_of_interest', 'establishment']","4450 Enterprise Street # 115, Fremont",37.5025908,-121.96035
32,"Fremont, California",church,ChIJmbZ60irHj4AR2addrrOvDXY,First United Methodist Church,"['church', 'place_of_worship', 'point_of_interest', 'establishment']","2950 Washington Boulevard, Fremont",37.5328065,-121.9499208
33,"Fremont, California",church,ChIJTW8zNbHGj4ARj8N5p_4U3AA,Old Mission San Jose,"['church', 'museum', 'place_of_worship', 'point_of_interest', 'establishment']","43300 Mission Boulevard, Fremont",37.53388990000001,-121.9196936
34,"Fremont, California",church,ChIJT4M4tXe_j4ARwYLJuU9X8zU,Centerville Presbyterian Church,"['church', 'place_of_worship', 'point_of_interest', 'establishment']","4360 Central Avenue, Fremont",37.55219400000001,-122.006851
35,"Fremont, California",church,ChIJ9ygJYdjGj4ARbhDsUGksi54,Calvary Chapel Fremont,"['church', 'place_of_worship', 'point_of_interest', 'establishment']","42986 Osgood Road, Fremont",37.52188599999999,-121.946123
36,"Fremont, California",church,ChIJ3Q9-wkG_j4ARQIuk8wDDDds,Cedars Church,"['church', 'place_of_worship', 'point_of_interest', 'establishment']","38325 Cedar Boulevard, Newark",37.5322471,-122.0117041
37,"Fremont, California",church,ChIJzWwmg5vAj4ARbuoDYFepv3A,Resonate Church Office,"['church', 'place_of_worship', 'point_of_interest', 'establishment']","44244 Fremont Boulevard, Fremont",37.5064299,-121.9486527
38,"Fremont, California",church,ChIJ3RgZ6WLAj4AR7-7_uG9a0lU,Christ the King Lutheran Church,"['church', 'place_of_worship', 'point_of_interest', 'establishment']","1301 Mowry Avenue, Fremont",37.563552,-121.97976
39,"Fremont, California",church,ChIJ0e8OM2_Aj4ARrrLUiT36-1c,Corpus Christi Church,"['church', 'place_of_worship', 'point_of_interest', 'establishment']","37968 3rd Street, Fremont",37.5747025,-121.9756503
40,"Fremont, California",church,ChIJdWwAmqC_j4ARWTGCSI5SgaU,Harbor Light Church,"['church', 'place_of_worship', 'point_of_interest', 'establishment']","4760 Thornton Avenue, Fremont",37.5504494,-122.0192462
41,"Fremont, California",church,ChIJ-0e0jUu_j4ARqDlf5QvEquc,New Life Mission Church of Fremont,"['church', 'place_of_worship', 'point_of_interest', 'establishment']","4700 Calaveras Avenue, Fremont",37.5380314,-121.9908449
42,"Fremont, California",church,ChIJj_067X_Aj4ARJTFxTsLvV8I,Central Church of Christ,"['church', 'place_of_worship', 'point_of_interest', 'establishment']","38069 Martha Avenue # 100, Fremont",37.5597235,-121.9921175
43,"Fremont, California",church,ChIJEb_n04K_j4ARd5QhGh8bx-Q,Holy Spirit Church,"['church', 'place_of_worship', 'point_of_interest', 'establishment']","37588 Fremont Boulevard, Fremont",37.5571007,-122.0035225
44,"Fremont, California",church,ChIJA_y1H5fAj4ARLT41vOCf_Xo,Fremont Hospital Chemical Dependency Treament,"['church', 'place_of_worship', 'health', 'point_of_interest', 'establishment']","39001 Sundale Drive, Fremont",37.5463283,-121.9793654
45,"Fremont, California",church,ChIJJUmIICTBj4ARD1XUR0UpXrI,Bridges Community Church,"['church', 'place_of_worship', 'point_of_interest', 'establishment']","505 Driscoll Road, Fremont",37.5482204,-121.9425053
46,"Fremont, California",church,ChIJFUngZS3Hj4ARKuQ88umvk0A,Irvington Baptist Church,"['church', 'place_of_worship', 'point_of_interest', 'establishment']",Fremont,37.5286111,-121.9580556
47,"Fremont, California",church,ChIJx9Q2RgvAj4ARh4hjOXsnzQw,Central Church of Christ,"['church', 'place_of_worship', 'point_of_interest', 'establishment']",Fremont,37.5791667,-121.9883333
48,"Fremont, California",church,ChIJNTgQIg6Vj4ARvmEkRzNZFSU,Garden Baptist Church,"['church', 'place_of_worship', 'point_of_interest', 'establishment']",Hayward,37.6110753,-122.0275175
49,"Fremont, California",church,ChIJM1PhQS3Hj4ARoWwxAJZripU,Crossroads Church - Fremont Campus,"['church', 'place_of_worship', 'point_of_interest', 'establishment']","4825, 41386 Fremont Boulevard, Fremont",37.529088,-121.95754
50,"Fremont, California",church,ChIJOZbftirHj4AR0rZ7xOVDUBw,Mission United Methodist Church,"['church', 'place_of_worship', 'point_of_interest', 'establishment']","2856 Washington Boulevard, Fremont",37.53252850000001,-121.9485553
51,"Fremont, California",church,ChIJjX1XZxDHj4ARqRlN7YMvmt0,Church of God International,"['church', 'place_of_worship', 'point_of_interest', 'establishment']","4450 Enterprise Street # 115, Fremont",37.5025908,-121.96035
52,"Fremont, California",church,ChIJmbZ60irHj4AR2addrrOvDXY,First United Methodist Church,"['church', 'place_of_worship', 'point_of_interest', 'establishment']","2950 Washington Boulevard, Fremont",37.5328065,-121.9499208
53,"Fremont, California",church,ChIJTW8zNbHGj4ARj8N5p_4U3AA,Old Mission San Jose,"['church', 'museum', 'place_of_worship', 'point_of_interest', 'establishment']","43300 Mission Boulevard, Fremont",37.53388990000001,-121.9196936
54,"Fremont, California",church,ChIJT4M4tXe_j4ARwYLJuU9X8zU,Centerville Presbyterian Church,"['church', 'place_of_worship', 'point_of_interest', 'establishment']","4360 Central Avenue, Fremont",37.55219400000001,-122.006851
55,"Fremont, California",church,ChIJ9ygJYdjGj4ARbhDsUGksi54,Calvary Chapel Fremont,"['church', 'place_of_worship', 'point_of_interest', 'establishment']","42986 Osgood Road, Fremont",37.52188599999999,-121.946123
56,"Fremont, California",church,ChIJ3Q9-wkG_j4ARQIuk8wDDDds,Cedars Church,"['church', 'place_of_worship', 'point_of_interest', 'establishment']","38325 Cedar Boulevard, Newark",37.5322471,-122.0117041
57,"Fremont, California",church,ChIJzWwmg5vAj4ARbuoDYFepv3A,Resonate Church Office,"['church', 'place_of_worship', 'point_of_interest', 'establishment']","44244 Fremont Boulevard, Fremont",37.5064299,-121.9486527
58,"Fremont, California",church,ChIJ3RgZ6WLAj4AR7-7_uG9a0lU,Christ the King Lutheran Church,"['church', 'place_of_worship', 'point_of_interest', 'establishment']","1301 Mowry Avenue, Fremont",37.563552,-121.97976
59,"Fremont, California",church,ChIJ0e8OM2_Aj4ARrrLUiT36-1c,Corpus Christi Church,"['church', 'place_of_worship', 'point_of_interest', 'establishment']","37968 3rd Street, Fremont",37.5747025,-121.9756503
