,City,Type,Place ID,Name,Point of interests,Address,Lat,Lng
0,"San Francisco, California",department_store,ChIJLx5kIomAhYARyJn4Qqe_-K8,Saks Fifth Avenue,"['department_store', 'shoe_store', 'jewelry_store', 'clothing_store', 'store', 'point_of_interest', 'establishment']","384 Post Street, San Francisco",37.7886037,-122.4081067
1,"San Francisco, California",department_store,ChIJ6zMe3oWAhYARaZ33Z1BAMRo,Westfield San Francisco Centre,"['shopping_mall', 'shoe_store', 'movie_theater', 'department_store', 'clothing_store', 'store', 'restaurant', 'food', 'point_of_interest', 'establishment']","865 Market Street, San Francisco",37.784142,-122.4068825
2,"San Francisco, California",department_store,ChIJBWRDUyl-j4ARo_dSLaN2R5w,Nordstrom Rack Downtown San Francisco,"['clothing_store', 'shoe_store', 'department_store', 'store', 'point_of_interest', 'establishment']","555 9th Street, San Francisco",37.7706065,-122.4067762
3,"San Francisco, California",department_store,ChIJ8ZE9JI-AhYAR4bd19NbGWUk,Macy's,"['department_store', 'shoe_store', 'jewelry_store', 'furniture_store', 'clothing_store', 'home_goods_store', 'store', 'point_of_interest', 'establishment']","170 O'Farrell Street, San Francisco",37.7869829,-122.4072103
4,"San Francisco, California",department_store,ChIJ5y1zsoeAhYARJl9k0fuMdRs,Target,"['department_store', 'furniture_store', 'grocery_or_supermarket', 'clothing_store', 'electronics_store', 'home_goods_store', 'store', 'food', 'point_of_interest', 'establishment']","789 Mission Street, San Francisco",37.7844021,-122.4037347
5,"San Francisco, California",department_store,ChIJIeLvsUqHhYARYDJ1HzoLki0,Target,"['department_store', 'furniture_store', 'grocery_or_supermarket', 'clothing_store', 'electronics_store', 'home_goods_store', 'store', 'food', 'point_of_interest', 'establishment']","2675 Geary Boulevard, San Francisco",37.7820293,-122.446747
6,"San Francisco, California",department_store,ChIJocxp5oWAhYARbnBCbC8lKdk,Nordstrom San Francisco Centre,"['clothing_store', 'shoe_store', 'department_store', 'store', 'point_of_interest', 'establishment']","865 Market Street, San Francisco",37.7839663,-122.4075291
7,"San Francisco, California",department_store,ChIJC2juwih-j4ARvLq4f6Oyeuc,Costco Wholesale,"['department_store', 'store', 'point_of_interest', 'establishment']","450 10th Street, San Francisco",37.7702938,-122.410863
8,"San Francisco, California",department_store,ChIJy4kpbIaAhYARyPe8IPcne9k,Bloomingdale's,"['department_store', 'shoe_store', 'jewelry_store', 'clothing_store', 'store', 'point_of_interest', 'establishment']","845 Market Street, San Francisco",37.7838058,-122.4057627
9,"San Francisco, California",department_store,ChIJM6caJIaAhYARM_2YtmPwMNI,Ross Dress for Less,"['clothing_store', 'shoe_store', 'department_store', 'store', 'point_of_interest', 'establishment']","799 Market Street, San Francisco",37.7856762,-122.4054101
10,"San Francisco, California",department_store,ChIJ63JoBSx-j4ARRkst_FMbEiA,Bed Bath & Beyond,"['department_store', 'home_goods_store', 'store', 'point_of_interest', 'establishment']","555 9th Street, San Francisco",37.7714388,-122.4079621
11,"San Francisco, California",department_store,ChIJp75FwIWAhYARZmjHfc5VVws,Marshalls,"['department_store', 'clothing_store', 'store', 'point_of_interest', 'establishment']","760 Market Street, San Francisco",37.7866189,-122.4052741
12,"San Francisco, California",department_store,ChIJ9a3hyi9-j4AR0YuP1VpHjJk,Ross Dress for Less,"['clothing_store', 'shoe_store', 'department_store', 'store', 'point_of_interest', 'establishment']","2300 16th Street, San Francisco",37.7667022,-122.4084839
13,"San Francisco, California",department_store,ChIJfwmnqomAhYARyEOVb6t3Oso,Gump's,"['department_store', 'jewelry_store', 'furniture_store', 'home_goods_store', 'store', 'point_of_interest', 'establishment']","135 Post Street, San Francisco",37.7887296,-122.4042469
14,"San Francisco, California",department_store,ChIJF4YG8-SAhYAR8TM35cb2X7w,Ross Dress for Less,"['clothing_store', 'shoe_store', 'department_store', 'store', 'point_of_interest', 'establishment']","2550 Taylor Street, San Francisco",37.80599999999999,-122.414558
15,"San Francisco, California",department_store,ChIJ6YdKLxGHhYARBkrXVKqe7A0,Ross Dress for Less,"['clothing_store', 'shoe_store', 'department_store', 'store', 'point_of_interest', 'establishment']","5200 Geary Boulevard, San Francisco",37.780683,-122.475693
16,"San Francisco, California",department_store,ChIJ08T7AZ99j4ARlFcx4eFMlqM,Ross Dress for Less,"['clothing_store', 'shoe_store', 'department_store', 'store', 'point_of_interest', 'establishment']","1545 Sloat Boulevard, San Francisco",37.73250949999999,-122.4911549
17,"San Francisco, California",department_store,ChIJY2NmSImAhYARSKURmRma6lw,Wilkes Bashford,"['clothing_store', 'department_store', 'store', 'point_of_interest', 'establishment']","375 Sutter Street, San Francisco",37.78944209999999,-122.4064863
18,"San Francisco, California",department_store,ChIJx7P1sY6AhYAR7SM672TtgyQ,Alessi Store,"['department_store', 'store', 'point_of_interest', 'establishment']","424 Sutter Street, San Francisco",37.7895721,-122.4074915
19,"San Francisco, California",department_store,ChIJAX21qn6AhYAR-G0CrZeYxEQ,Joyus,"['department_store', 'store', 'point_of_interest', 'establishment']","375 Alabama Street #325, San Francisco",37.76453679999999,-122.4121519
20,"San Francisco, California",department_store,ChIJLx5kIomAhYARyJn4Qqe_-K8,Saks Fifth Avenue,"['department_store', 'shoe_store', 'jewelry_store', 'clothing_store', 'store', 'point_of_interest', 'establishment']","384 Post Street, San Francisco",37.7886037,-122.4081067
21,"San Francisco, California",department_store,ChIJ6zMe3oWAhYARaZ33Z1BAMRo,Westfield San Francisco Centre,"['shopping_mall', 'shoe_store', 'movie_theater', 'department_store', 'clothing_store', 'store', 'restaurant', 'food', 'point_of_interest', 'establishment']","865 Market Street, San Francisco",37.784142,-122.4068825
22,"San Francisco, California",department_store,ChIJBWRDUyl-j4ARo_dSLaN2R5w,Nordstrom Rack Downtown San Francisco,"['clothing_store', 'shoe_store', 'department_store', 'store', 'point_of_interest', 'establishment']","555 9th Street, San Francisco",37.7706065,-122.4067762
23,"San Francisco, California",department_store,ChIJ8ZE9JI-AhYAR4bd19NbGWUk,Macy's,"['department_store', 'shoe_store', 'jewelry_store', 'furniture_store', 'clothing_store', 'home_goods_store', 'store', 'point_of_interest', 'establishment']","170 O'Farrell Street, San Francisco",37.7869829,-122.4072103
24,"San Francisco, California",department_store,ChIJ5y1zsoeAhYARJl9k0fuMdRs,Target,"['department_store', 'furniture_store', 'grocery_or_supermarket', 'clothing_store', 'electronics_store', 'home_goods_store', 'store', 'food', 'point_of_interest', 'establishment']","789 Mission Street, San Francisco",37.7844021,-122.4037347
25,"San Francisco, California",department_store,ChIJIeLvsUqHhYARYDJ1HzoLki0,Target,"['department_store', 'furniture_store', 'grocery_or_supermarket', 'clothing_store', 'electronics_store', 'home_goods_store', 'store', 'food', 'point_of_interest', 'establishment']","2675 Geary Boulevard, San Francisco",37.7820293,-122.446747
26,"San Francisco, California",department_store,ChIJocxp5oWAhYARbnBCbC8lKdk,Nordstrom San Francisco Centre,"['clothing_store', 'shoe_store', 'department_store', 'store', 'point_of_interest', 'establishment']","865 Market Street, San Francisco",37.7839663,-122.4075291
27,"San Francisco, California",department_store,ChIJC2juwih-j4ARvLq4f6Oyeuc,Costco Wholesale,"['department_store', 'store', 'point_of_interest', 'establishment']","450 10th Street, San Francisco",37.7702938,-122.410863
28,"San Francisco, California",department_store,ChIJy4kpbIaAhYARyPe8IPcne9k,Bloomingdale's,"['department_store', 'shoe_store', 'jewelry_store', 'clothing_store', 'store', 'point_of_interest', 'establishment']","845 Market Street, San Francisco",37.7838058,-122.4057627
29,"San Francisco, California",department_store,ChIJM6caJIaAhYARM_2YtmPwMNI,Ross Dress for Less,"['clothing_store', 'shoe_store', 'department_store', 'store', 'point_of_interest', 'establishment']","799 Market Street, San Francisco",37.7856762,-122.4054101
30,"San Francisco, California",department_store,ChIJ63JoBSx-j4ARRkst_FMbEiA,Bed Bath & Beyond,"['department_store', 'home_goods_store', 'store', 'point_of_interest', 'establishment']","555 9th Street, San Francisco",37.7714388,-122.4079621
31,"San Francisco, California",department_store,ChIJp75FwIWAhYARZmjHfc5VVws,Marshalls,"['department_store', 'clothing_store', 'store', 'point_of_interest', 'establishment']","760 Market Street, San Francisco",37.7866189,-122.4052741
32,"San Francisco, California",department_store,ChIJ9a3hyi9-j4AR0YuP1VpHjJk,Ross Dress for Less,"['clothing_store', 'shoe_store', 'department_store', 'store', 'point_of_interest', 'establishment']","2300 16th Street, San Francisco",37.7667022,-122.4084839
33,"San Francisco, California",department_store,ChIJfwmnqomAhYARyEOVb6t3Oso,Gump's,"['department_store', 'jewelry_store', 'furniture_store', 'home_goods_store', 'store', 'point_of_interest', 'establishment']","135 Post Street, San Francisco",37.7887296,-122.4042469
34,"San Francisco, California",department_store,ChIJF4YG8-SAhYAR8TM35cb2X7w,Ross Dress for Less,"['clothing_store', 'shoe_store', 'department_store', 'store', 'point_of_interest', 'establishment']","2550 Taylor Street, San Francisco",37.80599999999999,-122.414558
35,"San Francisco, California",department_store,ChIJ6YdKLxGHhYARBkrXVKqe7A0,Ross Dress for Less,"['clothing_store', 'shoe_store', 'department_store', 'store', 'point_of_interest', 'establishment']","5200 Geary Boulevard, San Francisco",37.780683,-122.475693
36,"San Francisco, California",department_store,ChIJ08T7AZ99j4ARlFcx4eFMlqM,Ross Dress for Less,"['clothing_store', 'shoe_store', 'department_store', 'store', 'point_of_interest', 'establishment']","1545 Sloat Boulevard, San Francisco",37.73250949999999,-122.4911549
37,"San Francisco, California",department_store,ChIJY2NmSImAhYARSKURmRma6lw,Wilkes Bashford,"['clothing_store', 'department_store', 'store', 'point_of_interest', 'establishment']","375 Sutter Street, San Francisco",37.78944209999999,-122.4064863
38,"San Francisco, California",department_store,ChIJx7P1sY6AhYAR7SM672TtgyQ,Alessi Store,"['department_store', 'store', 'point_of_interest', 'establishment']","424 Sutter Street, San Francisco",37.7895721,-122.4074915
39,"San Francisco, California",department_store,ChIJAX21qn6AhYAR-G0CrZeYxEQ,Joyus,"['department_store', 'store', 'point_of_interest', 'establishment']","375 Alabama Street #325, San Francisco",37.76453679999999,-122.4121519
40,"San Francisco, California",department_store,ChIJLx5kIomAhYARyJn4Qqe_-K8,Saks Fifth Avenue,"['department_store', 'shoe_store', 'jewelry_store', 'clothing_store', 'store', 'point_of_interest', 'establishment']","384 Post Street, San Francisco",37.7886037,-122.4081067
41,"San Francisco, California",department_store,ChIJ6zMe3oWAhYARaZ33Z1BAMRo,Westfield San Francisco Centre,"['shopping_mall', 'shoe_store', 'movie_theater', 'department_store', 'clothing_store', 'store', 'restaurant', 'food', 'point_of_interest', 'establishment']","865 Market Street, San Francisco",37.784142,-122.4068825
42,"San Francisco, California",department_store,ChIJBWRDUyl-j4ARo_dSLaN2R5w,Nordstrom Rack Downtown San Francisco,"['clothing_store', 'shoe_store', 'department_store', 'store', 'point_of_interest', 'establishment']","555 9th Street, San Francisco",37.7706065,-122.4067762
43,"San Francisco, California",department_store,ChIJ8ZE9JI-AhYAR4bd19NbGWUk,Macy's,"['department_store', 'shoe_store', 'jewelry_store', 'furniture_store', 'clothing_store', 'home_goods_store', 'store', 'point_of_interest', 'establishment']","170 O'Farrell Street, San Francisco",37.7869829,-122.4072103
44,"San Francisco, California",department_store,ChIJ5y1zsoeAhYARJl9k0fuMdRs,Target,"['department_store', 'furniture_store', 'grocery_or_supermarket', 'clothing_store', 'electronics_store', 'home_goods_store', 'store', 'food', 'point_of_interest', 'establishment']","789 Mission Street, San Francisco",37.7844021,-122.4037347
45,"San Francisco, California",department_store,ChIJIeLvsUqHhYARYDJ1HzoLki0,Target,"['department_store', 'furniture_store', 'grocery_or_supermarket', 'clothing_store', 'electronics_store', 'home_goods_store', 'store', 'food', 'point_of_interest', 'establishment']","2675 Geary Boulevard, San Francisco",37.7820293,-122.446747
46,"San Francisco, California",department_store,ChIJocxp5oWAhYARbnBCbC8lKdk,Nordstrom San Francisco Centre,"['clothing_store', 'shoe_store', 'department_store', 'store', 'point_of_interest', 'establishment']","865 Market Street, San Francisco",37.7839663,-122.4075291
47,"San Francisco, California",department_store,ChIJC2juwih-j4ARvLq4f6Oyeuc,Costco Wholesale,"['department_store', 'store', 'point_of_interest', 'establishment']","450 10th Street, San Francisco",37.7702938,-122.410863
48,"San Francisco, California",department_store,ChIJy4kpbIaAhYARyPe8IPcne9k,Bloomingdale's,"['department_store', 'shoe_store', 'jewelry_store', 'clothing_store', 'store', 'point_of_interest', 'establishment']","845 Market Street, San Francisco",37.7838058,-122.4057627
49,"San Francisco, California",department_store,ChIJM6caJIaAhYARM_2YtmPwMNI,Ross Dress for Less,"['clothing_store', 'shoe_store', 'department_store', 'store', 'point_of_interest', 'establishment']","799 Market Street, San Francisco",37.7856762,-122.4054101
50,"San Francisco, California",department_store,ChIJ63JoBSx-j4ARRkst_FMbEiA,Bed Bath & Beyond,"['department_store', 'home_goods_store', 'store', 'point_of_interest', 'establishment']","555 9th Street, San Francisco",37.7714388,-122.4079621
51,"San Francisco, California",department_store,ChIJp75FwIWAhYARZmjHfc5VVws,Marshalls,"['department_store', 'clothing_store', 'store', 'point_of_interest', 'establishment']","760 Market Street, San Francisco",37.7866189,-122.4052741
52,"San Francisco, California",department_store,ChIJ9a3hyi9-j4AR0YuP1VpHjJk,Ross Dress for Less,"['clothing_store', 'shoe_store', 'department_store', 'store', 'point_of_interest', 'establishment']","2300 16th Street, San Francisco",37.7667022,-122.4084839
53,"San Francisco, California",department_store,ChIJfwmnqomAhYARyEOVb6t3Oso,Gump's,"['department_store', 'jewelry_store', 'furniture_store', 'home_goods_store', 'store', 'point_of_interest', 'establishment']","135 Post Street, San Francisco",37.7887296,-122.4042469
54,"San Francisco, California",department_store,ChIJF4YG8-SAhYAR8TM35cb2X7w,Ross Dress for Less,"['clothing_store', 'shoe_store', 'department_store', 'store', 'point_of_interest', 'establishment']","2550 Taylor Street, San Francisco",37.80599999999999,-122.414558
55,"San Francisco, California",department_store,ChIJ6YdKLxGHhYARBkrXVKqe7A0,Ross Dress for Less,"['clothing_store', 'shoe_store', 'department_store', 'store', 'point_of_interest', 'establishment']","5200 Geary Boulevard, San Francisco",37.780683,-122.475693
56,"San Francisco, California",department_store,ChIJ08T7AZ99j4ARlFcx4eFMlqM,Ross Dress for Less,"['clothing_store', 'shoe_store', 'department_store', 'store', 'point_of_interest', 'establishment']","1545 Sloat Boulevard, San Francisco",37.73250949999999,-122.4911549
57,"San Francisco, California",department_store,ChIJY2NmSImAhYARSKURmRma6lw,Wilkes Bashford,"['clothing_store', 'department_store', 'store', 'point_of_interest', 'establishment']","375 Sutter Street, San Francisco",37.78944209999999,-122.4064863
58,"San Francisco, California",department_store,ChIJx7P1sY6AhYAR7SM672TtgyQ,Alessi Store,"['department_store', 'store', 'point_of_interest', 'establishment']","424 Sutter Street, San Francisco",37.7895721,-122.4074915
59,"San Francisco, California",department_store,ChIJAX21qn6AhYAR-G0CrZeYxEQ,Joyus,"['department_store', 'store', 'point_of_interest', 'establishment']","375 Alabama Street #325, San Francisco",37.76453679999999,-122.4121519
0,"Redwood City, California",department_store,ChIJw3cEKQqjj4ARywep3n0-Svo,Target,"['department_store', 'furniture_store', 'grocery_or_supermarket', 'clothing_store', 'electronics_store', 'home_goods_store', 'store', 'food', 'point_of_interest', 'establishment']","2485 El Camino Real, Redwood City",37.4756541,-122.2171836
1,"Redwood City, California",department_store,ChIJN5ySAFWij4ARf1MokPPv87o,Kmart,"['shoe_store', 'department_store', 'clothing_store', 'electronics_store', 'home_goods_store', 'store', 'point_of_interest', 'establishment']","1155 Veterans Boulevard, Redwood City",37.4910827,-122.2226108
2,"Redwood City, California",department_store,ChIJFzb5MDO7j4ARhjAFe0kgjNU,Nordstrom Stanford Shopping Center,"['department_store', 'shoe_store', 'clothing_store', 'store', 'point_of_interest', 'establishment']","550 Stanford Shopping Center, Palo Alto",37.4389726,-122.1735251
3,"Redwood City, California",department_store,ChIJNaE_S6ajj4AR4LlQMS4MMVo,Bed Bath & Beyond,"['department_store', 'home_goods_store', 'store', 'point_of_interest', 'establishment']","1950 El Camino Real, Redwood City",37.4766928,-122.2232945
4,"Redwood City, California",department_store,ChIJc984RgOfj4ARtet4-jPqsks,Nordstrom Hillsdale Shopping Center,"['department_store', 'shoe_store', 'clothing_store', 'store', 'point_of_interest', 'establishment']","130 Hillsdale Shopping Center, San Mateo",37.5374906,-122.3013999
5,"Redwood City, California",department_store,ChIJ90KMPQOfj4ARXFud9kG-AAg,Macy's,"['department_store', 'shoe_store', 'jewelry_store', 'clothing_store', 'store', 'point_of_interest', 'establishment']","115 W East Hillsdale Boulevard, San Mateo",37.537696,-122.2999826
6,"Redwood City, California",department_store,ChIJZVtgIVSij4ARb2EDUtCru5Y,Kohl's Redwood City,"['department_store', 'store', 'point_of_interest', 'establishment']","250 Walnut Street, Redwood City",37.4922092,-122.2244171
7,"Redwood City, California",department_store,ChIJs28IDc-ej4AR3at9IImuI5Y,Costco Wholesale,"['department_store', 'store', 'point_of_interest', 'establishment']","1001 Metro Center Boulevard, Foster City",37.56178999999999,-122.2743285
8,"Redwood City, California",department_store,ChIJNfQOmcOej4ARYP_KpKrwbnw,Target,"['department_store', 'furniture_store', 'grocery_or_supermarket', 'clothing_store', 'electronics_store', 'home_goods_store', 'store', 'food', 'point_of_interest', 'establishment']","2220 Bridgepointe Parkway, San Mateo",37.5588598,-122.2833966
9,"Redwood City, California",department_store,ChIJT0VSEHO7j4ARVg1X-K-nLEQ,Nordstrom Rack East Palo Alto,"['clothing_store', 'shoe_store', 'department_store', 'store', 'point_of_interest', 'establishment']","1771 E Bayshore Rd, East Palo Alto",37.4602944,-122.1354815
10,"Redwood City, California",department_store,ChIJo6wg-wijj4ARau3zQUzPzE8,Costco Wholesale,"['department_store', 'store', 'point_of_interest', 'establishment']","2300 Middlefield Road, Redwood City",37.4791336,-122.2168821
11,"Redwood City, California",department_store,ChIJ5a6JnRWij4ARrz_upHXFl1k,T.J. Maxx & HomeGoods,"['department_store', 'jewelry_store', 'clothing_store', 'store', 'point_of_interest', 'establishment']","1251 Industrial Road, San Carlos",37.5016925,-122.2451077
12,"Redwood City, California",department_store,ChIJ2bT0s8aej4ARlvHVfI64-z8,Bed Bath & Beyond,"['department_store', 'home_goods_store', 'store', 'point_of_interest', 'establishment']","2280 Bridgepointe Parkway, San Mateo",37.5605024,-122.2803037
13,"Redwood City, California",department_store,ChIJCVeFFDS7j4ARGTzKH4byEkw,Bloomingdale's,"['department_store', 'shoe_store', 'jewelry_store', 'clothing_store', 'store', 'point_of_interest', 'establishment']","1 Stanford Shopping Center, Palo Alto",37.4437983,-122.169646
14,"Redwood City, California",department_store,ChIJW3vJcxSij4ARaBuYsbJN8vI,Ross Dress for Less,"['clothing_store', 'shoe_store', 'department_store', 'store', 'point_of_interest', 'establishment']","1119 Industrial Road, San Carlos",37.5036121,-122.2465814
15,"Redwood City, California",department_store,ChIJH3rs4sOej4ARqWiirUOOT8g,Marshalls,"['department_store', 'clothing_store', 'store', 'point_of_interest', 'establishment']","2240 Bridgepointe Parkway, San Mateo",37.55929,-122.281912
16,"Redwood City, California",department_store,ChIJH5JOTgqjj4ARUFDhARQYFYw,Marshalls,"['department_store', 'clothing_store', 'store', 'point_of_interest', 'establishment']","2545 El Camino Real, Redwood City",37.47552499999999,-122.216106
17,"Redwood City, California",department_store,ChIJK67VtZqjj4ARlaBkuY53_lg,Ross Dress for Less,"['clothing_store', 'shoe_store', 'department_store', 'store', 'point_of_interest', 'establishment']","150 Woodside Road, Redwood City",37.45750160000001,-122.2302014
18,"Redwood City, California",department_store,ChIJ5a6JnRWij4AR8lvFxjntvOo,HomeGoods,"['home_goods_store', 'department_store', 'furniture_store', 'store', 'point_of_interest', 'establishment']","1275 Industrial Road, San Carlos",37.50173579999999,-122.2450395
19,"Redwood City, California",department_store,ChIJP7pcUvGej4ARY0Un-HA8hwI,Ross Dress for Less,"['clothing_store', 'shoe_store', 'department_store', 'store', 'point_of_interest', 'establishment']","640 Concar Drive, San Mateo",37.55370089999999,-122.304659
20,"Redwood City, California",department_store,ChIJw3cEKQqjj4ARywep3n0-Svo,Target,"['department_store', 'furniture_store', 'grocery_or_supermarket', 'clothing_store', 'electronics_store', 'home_goods_store', 'store', 'food', 'point_of_interest', 'establishment']","2485 El Camino Real, Redwood City",37.4756541,-122.2171836
21,"Redwood City, California",department_store,ChIJN5ySAFWij4ARf1MokPPv87o,Kmart,"['shoe_store', 'department_store', 'clothing_store', 'electronics_store', 'home_goods_store', 'store', 'point_of_interest', 'establishment']","1155 Veterans Boulevard, Redwood City",37.4910827,-122.2226108
22,"Redwood City, California",department_store,ChIJFzb5MDO7j4ARhjAFe0kgjNU,Nordstrom Stanford Shopping Center,"['department_store', 'shoe_store', 'clothing_store', 'store', 'point_of_interest', 'establishment']","550 Stanford Shopping Center, Palo Alto",37.4389726,-122.1735251
23,"Redwood City, California",department_store,ChIJNaE_S6ajj4AR4LlQMS4MMVo,Bed Bath & Beyond,"['department_store', 'home_goods_store', 'store', 'point_of_interest', 'establishment']","1950 El Camino Real, Redwood City",37.4766928,-122.2232945
24,"Redwood City, California",department_store,ChIJc984RgOfj4ARtet4-jPqsks,Nordstrom Hillsdale Shopping Center,"['department_store', 'shoe_store', 'clothing_store', 'store', 'point_of_interest', 'establishment']","130 Hillsdale Shopping Center, San Mateo",37.5374906,-122.3013999
25,"Redwood City, California",department_store,ChIJ90KMPQOfj4ARXFud9kG-AAg,Macy's,"['department_store', 'shoe_store', 'jewelry_store', 'clothing_store', 'store', 'point_of_interest', 'establishment']","115 W East Hillsdale Boulevard, San Mateo",37.537696,-122.2999826
26,"Redwood City, California",department_store,ChIJZVtgIVSij4ARb2EDUtCru5Y,Kohl's Redwood City,"['department_store', 'store', 'point_of_interest', 'establishment']","250 Walnut Street, Redwood City",37.4922092,-122.2244171
27,"Redwood City, California",department_store,ChIJs28IDc-ej4AR3at9IImuI5Y,Costco Wholesale,"['department_store', 'store', 'point_of_interest', 'establishment']","1001 Metro Center Boulevard, Foster City",37.56178999999999,-122.2743285
28,"Redwood City, California",department_store,ChIJNfQOmcOej4ARYP_KpKrwbnw,Target,"['department_store', 'furniture_store', 'grocery_or_supermarket', 'clothing_store', 'electronics_store', 'home_goods_store', 'store', 'food', 'point_of_interest', 'establishment']","2220 Bridgepointe Parkway, San Mateo",37.5588598,-122.2833966
29,"Redwood City, California",department_store,ChIJT0VSEHO7j4ARVg1X-K-nLEQ,Nordstrom Rack East Palo Alto,"['clothing_store', 'shoe_store', 'department_store', 'store', 'point_of_interest', 'establishment']","1771 E Bayshore Rd, East Palo Alto",37.4602944,-122.1354815
30,"Redwood City, California",department_store,ChIJo6wg-wijj4ARau3zQUzPzE8,Costco Wholesale,"['department_store', 'store', 'point_of_interest', 'establishment']","2300 Middlefield Road, Redwood City",37.4791336,-122.2168821
31,"Redwood City, California",department_store,ChIJ5a6JnRWij4ARrz_upHXFl1k,T.J. Maxx & HomeGoods,"['department_store', 'jewelry_store', 'clothing_store', 'store', 'point_of_interest', 'establishment']","1251 Industrial Road, San Carlos",37.5016925,-122.2451077
32,"Redwood City, California",department_store,ChIJ2bT0s8aej4ARlvHVfI64-z8,Bed Bath & Beyond,"['department_store', 'home_goods_store', 'store', 'point_of_interest', 'establishment']","2280 Bridgepointe Parkway, San Mateo",37.5605024,-122.2803037
33,"Redwood City, California",department_store,ChIJCVeFFDS7j4ARGTzKH4byEkw,Bloomingdale's,"['department_store', 'shoe_store', 'jewelry_store', 'clothing_store', 'store', 'point_of_interest', 'establishment']","1 Stanford Shopping Center, Palo Alto",37.4437983,-122.169646
34,"Redwood City, California",department_store,ChIJW3vJcxSij4ARaBuYsbJN8vI,Ross Dress for Less,"['clothing_store', 'shoe_store', 'department_store', 'store', 'point_of_interest', 'establishment']","1119 Industrial Road, San Carlos",37.5036121,-122.2465814
35,"Redwood City, California",department_store,ChIJH3rs4sOej4ARqWiirUOOT8g,Marshalls,"['department_store', 'clothing_store', 'store', 'point_of_interest', 'establishment']","2240 Bridgepointe Parkway, San Mateo",37.55929,-122.281912
36,"Redwood City, California",department_store,ChIJH5JOTgqjj4ARUFDhARQYFYw,Marshalls,"['department_store', 'clothing_store', 'store', 'point_of_interest', 'establishment']","2545 El Camino Real, Redwood City",37.47552499999999,-122.216106
37,"Redwood City, California",department_store,ChIJK67VtZqjj4ARlaBkuY53_lg,Ross Dress for Less,"['clothing_store', 'shoe_store', 'department_store', 'store', 'point_of_interest', 'establishment']","150 Woodside Road, Redwood City",37.45750160000001,-122.2302014
38,"Redwood City, California",department_store,ChIJ5a6JnRWij4AR8lvFxjntvOo,HomeGoods,"['home_goods_store', 'department_store', 'furniture_store', 'store', 'point_of_interest', 'establishment']","1275 Industrial Road, San Carlos",37.50173579999999,-122.2450395
39,"Redwood City, California",department_store,ChIJP7pcUvGej4ARY0Un-HA8hwI,Ross Dress for Less,"['clothing_store', 'shoe_store', 'department_store', 'store', 'point_of_interest', 'establishment']","640 Concar Drive, San Mateo",37.55370089999999,-122.304659
40,"Redwood City, California",department_store,ChIJw3cEKQqjj4ARywep3n0-Svo,Target,"['department_store', 'furniture_store', 'grocery_or_supermarket', 'clothing_store', 'electronics_store', 'home_goods_store', 'store', 'food', 'point_of_interest', 'establishment']","2485 El Camino Real, Redwood City",37.4756541,-122.2171836
41,"Redwood City, California",department_store,ChIJN5ySAFWij4ARf1MokPPv87o,Kmart,"['shoe_store', 'department_store', 'clothing_store', 'electronics_store', 'home_goods_store', 'store', 'point_of_interest', 'establishment']","1155 Veterans Boulevard, Redwood City",37.4910827,-122.2226108
42,"Redwood City, California",department_store,ChIJFzb5MDO7j4ARhjAFe0kgjNU,Nordstrom Stanford Shopping Center,"['department_store', 'shoe_store', 'clothing_store', 'store', 'point_of_interest', 'establishment']","550 Stanford Shopping Center, Palo Alto",37.4389726,-122.1735251
43,"Redwood City, California",department_store,ChIJNaE_S6ajj4AR4LlQMS4MMVo,Bed Bath & Beyond,"['department_store', 'home_goods_store', 'store', 'point_of_interest', 'establishment']","1950 El Camino Real, Redwood City",37.4766928,-122.2232945
44,"Redwood City, California",department_store,ChIJc984RgOfj4ARtet4-jPqsks,Nordstrom Hillsdale Shopping Center,"['department_store', 'shoe_store', 'clothing_store', 'store', 'point_of_interest', 'establishment']","130 Hillsdale Shopping Center, San Mateo",37.5374906,-122.3013999
45,"Redwood City, California",department_store,ChIJ90KMPQOfj4ARXFud9kG-AAg,Macy's,"['department_store', 'shoe_store', 'jewelry_store', 'clothing_store', 'store', 'point_of_interest', 'establishment']","115 W East Hillsdale Boulevard, San Mateo",37.537696,-122.2999826
46,"Redwood City, California",department_store,ChIJZVtgIVSij4ARb2EDUtCru5Y,Kohl's Redwood City,"['department_store', 'store', 'point_of_interest', 'establishment']","250 Walnut Street, Redwood City",37.4922092,-122.2244171
47,"Redwood City, California",department_store,ChIJs28IDc-ej4AR3at9IImuI5Y,Costco Wholesale,"['department_store', 'store', 'point_of_interest', 'establishment']","1001 Metro Center Boulevard, Foster City",37.56178999999999,-122.2743285
48,"Redwood City, California",department_store,ChIJNfQOmcOej4ARYP_KpKrwbnw,Target,"['department_store', 'furniture_store', 'grocery_or_supermarket', 'clothing_store', 'electronics_store', 'home_goods_store', 'store', 'food', 'point_of_interest', 'establishment']","2220 Bridgepointe Parkway, San Mateo",37.5588598,-122.2833966
49,"Redwood City, California",department_store,ChIJT0VSEHO7j4ARVg1X-K-nLEQ,Nordstrom Rack East Palo Alto,"['clothing_store', 'shoe_store', 'department_store', 'store', 'point_of_interest', 'establishment']","1771 E Bayshore Rd, East Palo Alto",37.4602944,-122.1354815
50,"Redwood City, California",department_store,ChIJo6wg-wijj4ARau3zQUzPzE8,Costco Wholesale,"['department_store', 'store', 'point_of_interest', 'establishment']","2300 Middlefield Road, Redwood City",37.4791336,-122.2168821
51,"Redwood City, California",department_store,ChIJ5a6JnRWij4ARrz_upHXFl1k,T.J. Maxx & HomeGoods,"['department_store', 'jewelry_store', 'clothing_store', 'store', 'point_of_interest', 'establishment']","1251 Industrial Road, San Carlos",37.5016925,-122.2451077
52,"Redwood City, California",department_store,ChIJ2bT0s8aej4ARlvHVfI64-z8,Bed Bath & Beyond,"['department_store', 'home_goods_store', 'store', 'point_of_interest', 'establishment']","2280 Bridgepointe Parkway, San Mateo",37.5605024,-122.2803037
53,"Redwood City, California",department_store,ChIJCVeFFDS7j4ARGTzKH4byEkw,Bloomingdale's,"['department_store', 'shoe_store', 'jewelry_store', 'clothing_store', 'store', 'point_of_interest', 'establishment']","1 Stanford Shopping Center, Palo Alto",37.4437983,-122.169646
54,"Redwood City, California",department_store,ChIJW3vJcxSij4ARaBuYsbJN8vI,Ross Dress for Less,"['clothing_store', 'shoe_store', 'department_store', 'store', 'point_of_interest', 'establishment']","1119 Industrial Road, San Carlos",37.5036121,-122.2465814
55,"Redwood City, California",department_store,ChIJH3rs4sOej4ARqWiirUOOT8g,Marshalls,"['department_store', 'clothing_store', 'store', 'point_of_interest', 'establishment']","2240 Bridgepointe Parkway, San Mateo",37.55929,-122.281912
56,"Redwood City, California",department_store,ChIJH5JOTgqjj4ARUFDhARQYFYw,Marshalls,"['department_store', 'clothing_store', 'store', 'point_of_interest', 'establishment']","2545 El Camino Real, Redwood City",37.47552499999999,-122.216106
57,"Redwood City, California",department_store,ChIJK67VtZqjj4ARlaBkuY53_lg,Ross Dress for Less,"['clothing_store', 'shoe_store', 'department_store', 'store', 'point_of_interest', 'establishment']","150 Woodside Road, Redwood City",37.45750160000001,-122.2302014
58,"Redwood City, California",department_store,ChIJ5a6JnRWij4AR8lvFxjntvOo,HomeGoods,"['home_goods_store', 'department_store', 'furniture_store', 'store', 'point_of_interest', 'establishment']","1275 Industrial Road, San Carlos",37.50173579999999,-122.2450395
59,"Redwood City, California",department_store,ChIJP7pcUvGej4ARY0Un-HA8hwI,Ross Dress for Less,"['clothing_store', 'shoe_store', 'department_store', 'store', 'point_of_interest', 'establishment']","640 Concar Drive, San Mateo",37.55370089999999,-122.304659
0,"Berkeley, California",department_store,ChIJcT8ml-d4hYARcuL5aed2-ao,Costco Wholesale,"['department_store', 'store', 'point_of_interest', 'establishment']","4801 Central Avenue, Richmond",37.89829160000001,-122.3210418
1,"Berkeley, California",department_store,ChIJzURMRbiAj4ARLG24xjtjjr8,Bed Bath & Beyond,"['department_store', 'home_goods_store', 'store', 'point_of_interest', 'establishment']","590 2nd Street, Oakland",37.7973259,-122.2791819
2,"Berkeley, California",department_store,ChIJv_7_ND5-hYAR8UBqWZ3t1Vg,Target,"['department_store', 'furniture_store', 'grocery_or_supermarket', 'clothing_store', 'electronics_store', 'home_goods_store', 'store', 'food', 'point_of_interest', 'establishment']","1555 40th Street, Emeryville",37.8284474,-122.2899342
3,"Berkeley, California",department_store,ChIJmw7DYyN5hYAR7q49VtN5cC8,Bed Bath & Beyond,"['department_store', 'home_goods_store', 'store', 'point_of_interest', 'establishment']","6000 El Cerrito Plaza, El Cerrito",37.9002545,-122.300507
4,"Berkeley, California",department_store,ChIJZRy4-8SAj4ARnX2mxovSawE,Target,"['department_store', 'furniture_store', 'grocery_or_supermarket', 'clothing_store', 'electronics_store', 'home_goods_store', 'store', 'food', 'point_of_interest', 'establishment']","2700 5th Street, Alameda",37.7887468,-122.2794348
5,"Berkeley, California",department_store,ChIJL3iOgUR-hYARhQub5rC_IH8,Ross Dress for Less,"['clothing_store', 'shoe_store', 'department_store', 'store', 'point_of_interest', 'establishment']","5733 Christie Avenue, Emeryville",37.83567,-122.294552
6,"Berkeley, California",department_store,ChIJRQnYAit5hYARMHlJZpc9WEQ,Target,"['department_store', 'furniture_store', 'grocery_or_supermarket', 'clothing_store', 'electronics_store', 'home_goods_store', 'store', 'food', 'point_of_interest', 'establishment']","1057 Eastshore Highway, Albany",37.8827436,-122.3065482
7,"Berkeley, California",department_store,ChIJQ7LYvkR-hYARc8fWRMhj9vk,Marshalls,"['department_store', 'clothing_store', 'store', 'point_of_interest', 'establishment']","5795 Christie Avenue, Emeryville",37.83780199999999,-122.295503
8,"Berkeley, California",department_store,ChIJF6oyXAJ5hYAR7PleoNxxINw,Marshalls,"['department_store', 'clothing_store', 'store', 'point_of_interest', 'establishment']","10759 San Pablo Avenue, El Cerrito",37.9134866,-122.308892
9,"Berkeley, California",department_store,ChIJWXFwAVR4hYARlzdJUo2HgnY,Target,"['department_store', 'furniture_store', 'grocery_or_supermarket', 'clothing_store', 'electronics_store', 'home_goods_store', 'store', 'food', 'point_of_interest', 'establishment']","4500 Macdonald Avenue, Richmond",37.9321172,-122.3274092
10,"Berkeley, California",department_store,ChIJ1zdTyDx5hYARSxr0208mtJk,Ross Dress for Less,"['clothing_store', 'shoe_store', 'department_store', 'store', 'point_of_interest', 'establishment']","2000 El Cerrito Plaza, El Cerrito",37.901056,-122.2985311
11,"Berkeley, California",department_store,ChIJS0HXGdl8hYARUGUZnaCXZp0,McCaulou's Department Store,"['department_store', 'store', 'point_of_interest', 'establishment']","250 Village Square, Orinda",37.88337,-122.1907515
12,"Berkeley, California",department_store,ChIJYw0Ek7d-hYARdzFKPBo3mkU,shop kitty mat .com,"['department_store', 'store', 'point_of_interest', 'establishment']","1305 Ordway Street, Berkeley",37.88034020000001,-122.2865
13,"Berkeley, California",department_store,ChIJM_EpsZ1-hYAREb0GctwNhCE,Target,"['department_store', 'furniture_store', 'grocery_or_supermarket', 'clothing_store', 'electronics_store', 'home_goods_store', 'store', 'food', 'point_of_interest', 'establishment']","2187 Shattuck Avenue, Berkeley",37.86965149999999,-122.2675184
14,"Berkeley, California",department_store,ChIJf8Thv5V-hYARNjwznM8PDVE,Target,"['department_store', 'store', 'point_of_interest', 'establishment']","1414 University Avenue, Berkeley",37.8696569,-122.2838932
15,"Berkeley, California",department_store,ChIJQ18e_xN-hYARKfmlF3P1fRs,Nordstrom Rack East Bay Bridge Shopping Center,"['clothing_store', 'shoe_store', 'department_store', 'store', 'point_of_interest', 'establishment']","3839 Emery Street, Emeryville",37.8288871,-122.2810507
16,"Berkeley, California",department_store,ChIJDX4SG1F4hYARzuuIuU09FZk,Ross Dress for Less,"['clothing_store', 'shoe_store', 'department_store', 'store', 'point_of_interest', 'establishment']","11545 San Pablo Avenue, El Cerrito",37.9236461,-122.3187434
17,"Berkeley, California",department_store,ChIJfYY2QYWHj4AR49-lO3Xkr7I,McCaulou's Department Store,"['department_store', 'clothing_store', 'store', 'point_of_interest', 'establishment']","6211 Medau Place, Oakland",37.82768739999999,-122.2098229
18,"Berkeley, California",department_store,ChIJi2_FOLWAj4ARUpIuYW2QF9U,Lifecessories.com,"['department_store', 'store', 'food', 'point_of_interest', 'establishment']","201 13th Street #1642, Oakland",37.8013127,-122.2664096
0,"Palo Alto, California",department_store,ChIJryH6Apmwj4ARx08eJ5hAaGQ,Walmart,"['supermarket', 'department_store', 'grocery_or_supermarket', 'store', 'food', 'point_of_interest', 'establishment']","600 Showers Drive, Mountain View",37.4009978,-122.1095964
1,"Palo Alto, California",department_store,ChIJcUzpMxC6j4ARETcpzvKLJTg,Bed Bath & Beyond,"['department_store', 'home_goods_store', 'store', 'point_of_interest', 'establishment']","2470 Charleston Road, Mountain View",37.423476,-122.0975742
2,"Palo Alto, California",department_store,ChIJw3cEKQqjj4ARywep3n0-Svo,Target,"['department_store', 'furniture_store', 'grocery_or_supermarket', 'clothing_store', 'electronics_store', 'home_goods_store', 'store', 'food', 'point_of_interest', 'establishment']","2485 El Camino Real, Redwood City",37.4756541,-122.2171836
3,"Palo Alto, California",department_store,ChIJq9ZWgKKwj4ARvAcUB1cNp-k,Target,"['department_store', 'furniture_store', 'clothing_store', 'electronics_store', 'home_goods_store', 'store', 'point_of_interest', 'establishment']","555 Showers Drive, Mountain View",37.4007876,-122.106083
4,"Palo Alto, California",department_store,ChIJFzb5MDO7j4ARhjAFe0kgjNU,Nordstrom Stanford Shopping Center,"['department_store', 'shoe_store', 'clothing_store', 'store', 'point_of_interest', 'establishment']","550 Stanford Shopping Center, Palo Alto",37.4389726,-122.1735251
5,"Palo Alto, California",department_store,ChIJL6GyWAW6j4ARcTlncjl6Rbs,Costco Wholesale,"['department_store', 'store', 'point_of_interest', 'establishment']","1000 North Rengstorff Avenue, Mountain View",37.4210332,-122.0958161
6,"Palo Alto, California",department_store,ChIJT0VSEHO7j4ARVg1X-K-nLEQ,Nordstrom Rack East Palo Alto,"['clothing_store', 'shoe_store', 'department_store', 'store', 'point_of_interest', 'establishment']","1771 E Bayshore Rd, East Palo Alto",37.4602944,-122.1354815
7,"Palo Alto, California",department_store,ChIJN5ySAFWij4ARf1MokPPv87o,Kmart,"['shoe_store', 'department_store', 'clothing_store', 'electronics_store', 'home_goods_store', 'store', 'point_of_interest', 'establishment']","1155 Veterans Boulevard, Redwood City",37.4910827,-122.2226108
8,"Palo Alto, California",department_store,ChIJNaE_S6ajj4AR4LlQMS4MMVo,Bed Bath & Beyond,"['department_store', 'home_goods_store', 'store', 'point_of_interest', 'establishment']","1950 El Camino Real, Redwood City",37.4766928,-122.2232945
9,"Palo Alto, California",department_store,ChIJa_gJCaKwj4AR7E_FUippP3E,Kohl's Mountain View,"['department_store', 'store', 'point_of_interest', 'establishment']","350 Showers Drive, Mountain View",37.4032023,-122.107927
10,"Palo Alto, California",department_store,ChIJQ6Oy1Ne2j4ARRfHE4Za3MgQ,Marshalls & HomeGoods,"['department_store', 'clothing_store', 'store', 'point_of_interest', 'establishment']","1040 Grant Road, Mountain View",37.3793323,-122.075733
11,"Palo Alto, California",department_store,ChIJCVeFFDS7j4ARGTzKH4byEkw,Bloomingdale's,"['department_store', 'shoe_store', 'jewelry_store', 'clothing_store', 'store', 'point_of_interest', 'establishment']","1 Stanford Shopping Center, Palo Alto",37.4437983,-122.169646
12,"Palo Alto, California",department_store,ChIJo6wg-wijj4ARau3zQUzPzE8,Costco Wholesale,"['department_store', 'store', 'point_of_interest', 'establishment']","2300 Middlefield Road, Redwood City",37.4791336,-122.2168821
13,"Palo Alto, California",department_store,ChIJZVtgIVSij4ARb2EDUtCru5Y,Kohl's Redwood City,"['department_store', 'store', 'point_of_interest', 'establishment']","250 Walnut Street, Redwood City",37.4922092,-122.2244171
14,"Palo Alto, California",department_store,ChIJH5JOTgqjj4ARUFDhARQYFYw,Marshalls,"['department_store', 'clothing_store', 'store', 'point_of_interest', 'establishment']","2545 El Camino Real, Redwood City",37.47552499999999,-122.216106
15,"Palo Alto, California",department_store,ChIJK67VtZqjj4ARlaBkuY53_lg,Ross Dress for Less,"['clothing_store', 'shoe_store', 'department_store', 'store', 'point_of_interest', 'establishment']","150 Woodside Road, Redwood City",37.45750160000001,-122.2302014
16,"Palo Alto, California",department_store,ChIJq0BZBZmwj4ARL9oe-W9j7Dw,Walmart Pharmacy,"['pharmacy', 'department_store', 'store', 'health', 'point_of_interest', 'establishment']","600 Showers Drive, Mountain View",37.4009978,-122.1095964
17,"Palo Alto, California",department_store,ChIJMZC7_TS7j4ARPvJsO67Dmo4,Wilkes Bashford,"['clothing_store', 'department_store', 'store', 'point_of_interest', 'establishment']","450 Stanford Shopping Center, Palo Alto",37.4405624,-122.1726994
18,"Palo Alto, California",department_store,ChIJuU5HCjW7j4ARt6BJ1fR15CA,Macy's,"['department_store', 'shoe_store', 'jewelry_store', 'clothing_store', 'store', 'point_of_interest', 'establishment']","300 Stanford Shopping Center, Palo Alto",37.4423338,-122.1717082
19,"Palo Alto, California",department_store,ChIJf0pxg3O7j4ARdLXRA5Dy0TM,Target,"['department_store', 'furniture_store', 'clothing_store', 'electronics_store', 'home_goods_store', 'store', 'point_of_interest', 'establishment']","1775 E West Bayshore Road, East Palo Alto",37.4599811,-122.1354649
20,"Palo Alto, California",department_store,ChIJryH6Apmwj4ARx08eJ5hAaGQ,Walmart,"['supermarket', 'department_store', 'grocery_or_supermarket', 'store', 'food', 'point_of_interest', 'establishment']","600 Showers Drive, Mountain View",37.4009978,-122.1095964
21,"Palo Alto, California",department_store,ChIJcUzpMxC6j4ARETcpzvKLJTg,Bed Bath & Beyond,"['department_store', 'home_goods_store', 'store', 'point_of_interest', 'establishment']","2470 Charleston Road, Mountain View",37.423476,-122.0975742
22,"Palo Alto, California",department_store,ChIJw3cEKQqjj4ARywep3n0-Svo,Target,"['department_store', 'furniture_store', 'grocery_or_supermarket', 'clothing_store', 'electronics_store', 'home_goods_store', 'store', 'food', 'point_of_interest', 'establishment']","2485 El Camino Real, Redwood City",37.4756541,-122.2171836
23,"Palo Alto, California",department_store,ChIJq9ZWgKKwj4ARvAcUB1cNp-k,Target,"['department_store', 'furniture_store', 'clothing_store', 'electronics_store', 'home_goods_store', 'store', 'point_of_interest', 'establishment']","555 Showers Drive, Mountain View",37.4007876,-122.106083
24,"Palo Alto, California",department_store,ChIJFzb5MDO7j4ARhjAFe0kgjNU,Nordstrom Stanford Shopping Center,"['department_store', 'shoe_store', 'clothing_store', 'store', 'point_of_interest', 'establishment']","550 Stanford Shopping Center, Palo Alto",37.4389726,-122.1735251
25,"Palo Alto, California",department_store,ChIJL6GyWAW6j4ARcTlncjl6Rbs,Costco Wholesale,"['department_store', 'store', 'point_of_interest', 'establishment']","1000 North Rengstorff Avenue, Mountain View",37.4210332,-122.0958161
26,"Palo Alto, California",department_store,ChIJT0VSEHO7j4ARVg1X-K-nLEQ,Nordstrom Rack East Palo Alto,"['clothing_store', 'shoe_store', 'department_store', 'store', 'point_of_interest', 'establishment']","1771 E Bayshore Rd, East Palo Alto",37.4602944,-122.1354815
27,"Palo Alto, California",department_store,ChIJN5ySAFWij4ARf1MokPPv87o,Kmart,"['shoe_store', 'department_store', 'clothing_store', 'electronics_store', 'home_goods_store', 'store', 'point_of_interest', 'establishment']","1155 Veterans Boulevard, Redwood City",37.4910827,-122.2226108
28,"Palo Alto, California",department_store,ChIJNaE_S6ajj4AR4LlQMS4MMVo,Bed Bath & Beyond,"['department_store', 'home_goods_store', 'store', 'point_of_interest', 'establishment']","1950 El Camino Real, Redwood City",37.4766928,-122.2232945
29,"Palo Alto, California",department_store,ChIJa_gJCaKwj4AR7E_FUippP3E,Kohl's Mountain View,"['department_store', 'store', 'point_of_interest', 'establishment']","350 Showers Drive, Mountain View",37.4032023,-122.107927
30,"Palo Alto, California",department_store,ChIJQ6Oy1Ne2j4ARRfHE4Za3MgQ,Marshalls & HomeGoods,"['department_store', 'clothing_store', 'store', 'point_of_interest', 'establishment']","1040 Grant Road, Mountain View",37.3793323,-122.075733
31,"Palo Alto, California",department_store,ChIJCVeFFDS7j4ARGTzKH4byEkw,Bloomingdale's,"['department_store', 'shoe_store', 'jewelry_store', 'clothing_store', 'store', 'point_of_interest', 'establishment']","1 Stanford Shopping Center, Palo Alto",37.4437983,-122.169646
32,"Palo Alto, California",department_store,ChIJo6wg-wijj4ARau3zQUzPzE8,Costco Wholesale,"['department_store', 'store', 'point_of_interest', 'establishment']","2300 Middlefield Road, Redwood City",37.4791336,-122.2168821
33,"Palo Alto, California",department_store,ChIJZVtgIVSij4ARb2EDUtCru5Y,Kohl's Redwood City,"['department_store', 'store', 'point_of_interest', 'establishment']","250 Walnut Street, Redwood City",37.4922092,-122.2244171
34,"Palo Alto, California",department_store,ChIJH5JOTgqjj4ARUFDhARQYFYw,Marshalls,"['department_store', 'clothing_store', 'store', 'point_of_interest', 'establishment']","2545 El Camino Real, Redwood City",37.47552499999999,-122.216106
35,"Palo Alto, California",department_store,ChIJK67VtZqjj4ARlaBkuY53_lg,Ross Dress for Less,"['clothing_store', 'shoe_store', 'department_store', 'store', 'point_of_interest', 'establishment']","150 Woodside Road, Redwood City",37.45750160000001,-122.2302014
36,"Palo Alto, California",department_store,ChIJq0BZBZmwj4ARL9oe-W9j7Dw,Walmart Pharmacy,"['pharmacy', 'department_store', 'store', 'health', 'point_of_interest', 'establishment']","600 Showers Drive, Mountain View",37.4009978,-122.1095964
37,"Palo Alto, California",department_store,ChIJMZC7_TS7j4ARPvJsO67Dmo4,Wilkes Bashford,"['clothing_store', 'department_store', 'store', 'point_of_interest', 'establishment']","450 Stanford Shopping Center, Palo Alto",37.4405624,-122.1726994
38,"Palo Alto, California",department_store,ChIJuU5HCjW7j4ARt6BJ1fR15CA,Macy's,"['department_store', 'shoe_store', 'jewelry_store', 'clothing_store', 'store', 'point_of_interest', 'establishment']","300 Stanford Shopping Center, Palo Alto",37.4423338,-122.1717082
39,"Palo Alto, California",department_store,ChIJf0pxg3O7j4ARdLXRA5Dy0TM,Target,"['department_store', 'furniture_store', 'clothing_store', 'electronics_store', 'home_goods_store', 'store', 'point_of_interest', 'establishment']","1775 E West Bayshore Road, East Palo Alto",37.4599811,-122.1354649
40,"Palo Alto, California",department_store,ChIJryH6Apmwj4ARx08eJ5hAaGQ,Walmart,"['supermarket', 'department_store', 'grocery_or_supermarket', 'store', 'food', 'point_of_interest', 'establishment']","600 Showers Drive, Mountain View",37.4009978,-122.1095964
41,"Palo Alto, California",department_store,ChIJcUzpMxC6j4ARETcpzvKLJTg,Bed Bath & Beyond,"['department_store', 'home_goods_store', 'store', 'point_of_interest', 'establishment']","2470 Charleston Road, Mountain View",37.423476,-122.0975742
42,"Palo Alto, California",department_store,ChIJw3cEKQqjj4ARywep3n0-Svo,Target,"['department_store', 'furniture_store', 'grocery_or_supermarket', 'clothing_store', 'electronics_store', 'home_goods_store', 'store', 'food', 'point_of_interest', 'establishment']","2485 El Camino Real, Redwood City",37.4756541,-122.2171836
43,"Palo Alto, California",department_store,ChIJq9ZWgKKwj4ARvAcUB1cNp-k,Target,"['department_store', 'furniture_store', 'clothing_store', 'electronics_store', 'home_goods_store', 'store', 'point_of_interest', 'establishment']","555 Showers Drive, Mountain View",37.4007876,-122.106083
44,"Palo Alto, California",department_store,ChIJFzb5MDO7j4ARhjAFe0kgjNU,Nordstrom Stanford Shopping Center,"['department_store', 'shoe_store', 'clothing_store', 'store', 'point_of_interest', 'establishment']","550 Stanford Shopping Center, Palo Alto",37.4389726,-122.1735251
45,"Palo Alto, California",department_store,ChIJL6GyWAW6j4ARcTlncjl6Rbs,Costco Wholesale,"['department_store', 'store', 'point_of_interest', 'establishment']","1000 North Rengstorff Avenue, Mountain View",37.4210332,-122.0958161
46,"Palo Alto, California",department_store,ChIJT0VSEHO7j4ARVg1X-K-nLEQ,Nordstrom Rack East Palo Alto,"['clothing_store', 'shoe_store', 'department_store', 'store', 'point_of_interest', 'establishment']","1771 E Bayshore Rd, East Palo Alto",37.4602944,-122.1354815
47,"Palo Alto, California",department_store,ChIJN5ySAFWij4ARf1MokPPv87o,Kmart,"['shoe_store', 'department_store', 'clothing_store', 'electronics_store', 'home_goods_store', 'store', 'point_of_interest', 'establishment']","1155 Veterans Boulevard, Redwood City",37.4910827,-122.2226108
48,"Palo Alto, California",department_store,ChIJNaE_S6ajj4AR4LlQMS4MMVo,Bed Bath & Beyond,"['department_store', 'home_goods_store', 'store', 'point_of_interest', 'establishment']","1950 El Camino Real, Redwood City",37.4766928,-122.2232945
49,"Palo Alto, California",department_store,ChIJa_gJCaKwj4AR7E_FUippP3E,Kohl's Mountain View,"['department_store', 'store', 'point_of_interest', 'establishment']","350 Showers Drive, Mountain View",37.4032023,-122.107927
50,"Palo Alto, California",department_store,ChIJQ6Oy1Ne2j4ARRfHE4Za3MgQ,Marshalls & HomeGoods,"['department_store', 'clothing_store', 'store', 'point_of_interest', 'establishment']","1040 Grant Road, Mountain View",37.3793323,-122.075733
51,"Palo Alto, California",department_store,ChIJCVeFFDS7j4ARGTzKH4byEkw,Bloomingdale's,"['department_store', 'shoe_store', 'jewelry_store', 'clothing_store', 'store', 'point_of_interest', 'establishment']","1 Stanford Shopping Center, Palo Alto",37.4437983,-122.169646
52,"Palo Alto, California",department_store,ChIJo6wg-wijj4ARau3zQUzPzE8,Costco Wholesale,"['department_store', 'store', 'point_of_interest', 'establishment']","2300 Middlefield Road, Redwood City",37.4791336,-122.2168821
53,"Palo Alto, California",department_store,ChIJZVtgIVSij4ARb2EDUtCru5Y,Kohl's Redwood City,"['department_store', 'store', 'point_of_interest', 'establishment']","250 Walnut Street, Redwood City",37.4922092,-122.2244171
54,"Palo Alto, California",department_store,ChIJH5JOTgqjj4ARUFDhARQYFYw,Marshalls,"['department_store', 'clothing_store', 'store', 'point_of_interest', 'establishment']","2545 El Camino Real, Redwood City",37.47552499999999,-122.216106
55,"Palo Alto, California",department_store,ChIJK67VtZqjj4ARlaBkuY53_lg,Ross Dress for Less,"['clothing_store', 'shoe_store', 'department_store', 'store', 'point_of_interest', 'establishment']","150 Woodside Road, Redwood City",37.45750160000001,-122.2302014
56,"Palo Alto, California",department_store,ChIJq0BZBZmwj4ARL9oe-W9j7Dw,Walmart Pharmacy,"['pharmacy', 'department_store', 'store', 'health', 'point_of_interest', 'establishment']","600 Showers Drive, Mountain View",37.4009978,-122.1095964
57,"Palo Alto, California",department_store,ChIJMZC7_TS7j4ARPvJsO67Dmo4,Wilkes Bashford,"['clothing_store', 'department_store', 'store', 'point_of_interest', 'establishment']","450 Stanford Shopping Center, Palo Alto",37.4405624,-122.1726994
58,"Palo Alto, California",department_store,ChIJuU5HCjW7j4ARt6BJ1fR15CA,Macy's,"['department_store', 'shoe_store', 'jewelry_store', 'clothing_store', 'store', 'point_of_interest', 'establishment']","300 Stanford Shopping Center, Palo Alto",37.4423338,-122.1717082
59,"Palo Alto, California",department_store,ChIJf0pxg3O7j4ARdLXRA5Dy0TM,Target,"['department_store', 'furniture_store', 'clothing_store', 'electronics_store', 'home_goods_store', 'store', 'point_of_interest', 'establishment']","1775 E West Bayshore Road, East Palo Alto",37.4599811,-122.1354649
0,"Mountain View, California",department_store,ChIJjYjKgrK1j4ARPY2RJiUrNZ0,Target,"['department_store', 'furniture_store', 'grocery_or_supermarket', 'clothing_store', 'electronics_store', 'home_goods_store', 'store', 'food', 'point_of_interest', 'establishment']","20745 Stevens Creek Boulevard, Cupertino",37.3244439,-122.0360402
1,"Mountain View, California",department_store,ChIJryH6Apmwj4ARx08eJ5hAaGQ,Walmart,"['supermarket', 'department_store', 'grocery_or_supermarket', 'store', 'food', 'point_of_interest', 'establishment']","600 Showers Drive, Mountain View",37.4009978,-122.1095964
2,"Mountain View, California",department_store,ChIJqUSz4l22j4ARRjulQFPISrw,Target,"['department_store', 'furniture_store', 'grocery_or_supermarket', 'clothing_store', 'electronics_store', 'home_goods_store', 'store', 'food', 'point_of_interest', 'establishment']","298 West McKinley Avenue, Sunnyvale",37.37371890000001,-122.032319
3,"Mountain View, California",department_store,ChIJcUzpMxC6j4ARETcpzvKLJTg,Bed Bath & Beyond,"['department_store', 'home_goods_store', 'store', 'point_of_interest', 'establishment']","2470 Charleston Road, Mountain View",37.423476,-122.0975742
4,"Mountain View, California",department_store,ChIJq9ZWgKKwj4ARvAcUB1cNp-k,Target,"['department_store', 'furniture_store', 'clothing_store', 'electronics_store', 'home_goods_store', 'store', 'point_of_interest', 'establishment']","555 Showers Drive, Mountain View",37.4007876,-122.106083
5,"Mountain View, California",department_store,ChIJdUorRQK2j4ARDuYzIg19H2Q,Costco Wholesale,"['department_store', 'store', 'point_of_interest', 'establishment']","150 Lawrence Station Road, Sunnyvale",37.3721958,-121.9948194
6,"Mountain View, California",department_store,ChIJYxODoGW2j4ARv-x49ss3cFw,Ross Dress for Less,"['clothing_store', 'shoe_store', 'department_store', 'store', 'point_of_interest', 'establishment']","119 East El Camino Real, Sunnyvale",37.36732620000001,-122.0292465
7,"Mountain View, California",department_store,ChIJ7-50zF22j4AR9_Yg6f9cxaU,Macy's,"['department_store', 'shoe_store', 'jewelry_store', 'clothing_store', 'store', 'point_of_interest', 'establishment']","200 West Washington Avenue, Sunnyvale",37.3757419,-122.0316938
8,"Mountain View, California",department_store,ChIJWXLTm93Jj4ARwki3xfmmYh8,T.J. Maxx & HomeGoods,"['department_store', 'jewelry_store', 'clothing_store', 'store', 'point_of_interest', 'establishment']","3201 Mission College Boulevard, Santa Clara",37.3899085,-121.9847552
9,"Mountain View, California",department_store,ChIJL6GyWAW6j4ARcTlncjl6Rbs,Costco Wholesale,"['department_store', 'store', 'point_of_interest', 'establishment']","1000 North Rengstorff Avenue, Mountain View",37.4210332,-122.0958161
10,"Mountain View, California",department_store,ChIJQ6Oy1Ne2j4ARRfHE4Za3MgQ,Marshalls & HomeGoods,"['department_store', 'clothing_store', 'store', 'point_of_interest', 'establishment']","1040 Grant Road, Mountain View",37.3793323,-122.075733
11,"Mountain View, California",department_store,ChIJIdv2A621j4ARp4YsN6nGaGA,T.J. Maxx & HomeGoods,"['department_store', 'jewelry_store', 'clothing_store', 'store', 'point_of_interest', 'establishment']","20730 Stevens Creek Boulevard, Cupertino",37.3219534,-122.035991
12,"Mountain View, California",department_store,ChIJa_gJCaKwj4AR7E_FUippP3E,Kohl's Mountain View,"['department_store', 'store', 'point_of_interest', 'establishment']","350 Showers Drive, Mountain View",37.4032023,-122.107927
13,"Mountain View, California",department_store,ChIJT0VSEHO7j4ARVg1X-K-nLEQ,Nordstrom Rack East Palo Alto,"['clothing_store', 'shoe_store', 'department_store', 'store', 'point_of_interest', 'establishment']","1771 E Bayshore Rd, East Palo Alto",37.4602944,-122.1354815
14,"Mountain View, California",department_store,ChIJFzb5MDO7j4ARhjAFe0kgjNU,Nordstrom Stanford Shopping Center,"['department_store', 'shoe_store', 'clothing_store', 'store', 'point_of_interest', 'establishment']","550 Stanford Shopping Center, Palo Alto",37.4389726,-122.1735251
15,"Mountain View, California",department_store,ChIJq0BZBZmwj4ARL9oe-W9j7Dw,Walmart Pharmacy,"['pharmacy', 'department_store', 'store', 'health', 'point_of_interest', 'establishment']","600 Showers Drive, Mountain View",37.4009978,-122.1095964
16,"Mountain View, California",department_store,ChIJCVeFFDS7j4ARGTzKH4byEkw,Bloomingdale's,"['department_store', 'shoe_store', 'jewelry_store', 'clothing_store', 'store', 'point_of_interest', 'establishment']","1 Stanford Shopping Center, Palo Alto",37.4437983,-122.169646
17,"Mountain View, California",department_store,ChIJ1ViS4--1j4ARUVb4J-giem8,East West,"['department_store', 'clothing_store', 'store', 'point_of_interest', 'establishment']","1046 East El Camino Real, Sunnyvale",37.35146530000001,-122.0044255
18,"Mountain View, California",department_store,ChIJFVMzvnC2j4ARMsUO-kZLHkk,dd's DISCOUNTS,"['clothing_store', 'shoe_store', 'department_store', 'home_goods_store', 'store', 'point_of_interest', 'establishment']","580 East El Camino Real, Sunnyvale",37.361422,-122.026353
19,"Mountain View, California",department_store,ChIJ7Ul5kA-6j4AR-ecHMsCkdIE,Ross Dress for Less,"['clothing_store', 'shoe_store', 'department_store', 'store', 'point_of_interest', 'establishment']","1030 North Rengstorff Avenue, Mountain View",37.419422,-122.096118
20,"Mountain View, California",department_store,ChIJjYjKgrK1j4ARPY2RJiUrNZ0,Target,"['department_store', 'furniture_store', 'grocery_or_supermarket', 'clothing_store', 'electronics_store', 'home_goods_store', 'store', 'food', 'point_of_interest', 'establishment']","20745 Stevens Creek Boulevard, Cupertino",37.3244439,-122.0360402
21,"Mountain View, California",department_store,ChIJryH6Apmwj4ARx08eJ5hAaGQ,Walmart,"['supermarket', 'department_store', 'grocery_or_supermarket', 'store', 'food', 'point_of_interest', 'establishment']","600 Showers Drive, Mountain View",37.4009978,-122.1095964
22,"Mountain View, California",department_store,ChIJqUSz4l22j4ARRjulQFPISrw,Target,"['department_store', 'furniture_store', 'grocery_or_supermarket', 'clothing_store', 'electronics_store', 'home_goods_store', 'store', 'food', 'point_of_interest', 'establishment']","298 West McKinley Avenue, Sunnyvale",37.37371890000001,-122.032319
23,"Mountain View, California",department_store,ChIJcUzpMxC6j4ARETcpzvKLJTg,Bed Bath & Beyond,"['department_store', 'home_goods_store', 'store', 'point_of_interest', 'establishment']","2470 Charleston Road, Mountain View",37.423476,-122.0975742
24,"Mountain View, California",department_store,ChIJq9ZWgKKwj4ARvAcUB1cNp-k,Target,"['department_store', 'furniture_store', 'clothing_store', 'electronics_store', 'home_goods_store', 'store', 'point_of_interest', 'establishment']","555 Showers Drive, Mountain View",37.4007876,-122.106083
25,"Mountain View, California",department_store,ChIJdUorRQK2j4ARDuYzIg19H2Q,Costco Wholesale,"['department_store', 'store', 'point_of_interest', 'establishment']","150 Lawrence Station Road, Sunnyvale",37.3721958,-121.9948194
26,"Mountain View, California",department_store,ChIJYxODoGW2j4ARv-x49ss3cFw,Ross Dress for Less,"['clothing_store', 'shoe_store', 'department_store', 'store', 'point_of_interest', 'establishment']","119 East El Camino Real, Sunnyvale",37.36732620000001,-122.0292465
27,"Mountain View, California",department_store,ChIJ7-50zF22j4AR9_Yg6f9cxaU,Macy's,"['department_store', 'shoe_store', 'jewelry_store', 'clothing_store', 'store', 'point_of_interest', 'establishment']","200 West Washington Avenue, Sunnyvale",37.3757419,-122.0316938
28,"Mountain View, California",department_store,ChIJWXLTm93Jj4ARwki3xfmmYh8,T.J. Maxx & HomeGoods,"['department_store', 'jewelry_store', 'clothing_store', 'store', 'point_of_interest', 'establishment']","3201 Mission College Boulevard, Santa Clara",37.3899085,-121.9847552
29,"Mountain View, California",department_store,ChIJL6GyWAW6j4ARcTlncjl6Rbs,Costco Wholesale,"['department_store', 'store', 'point_of_interest', 'establishment']","1000 North Rengstorff Avenue, Mountain View",37.4210332,-122.0958161
30,"Mountain View, California",department_store,ChIJQ6Oy1Ne2j4ARRfHE4Za3MgQ,Marshalls & HomeGoods,"['department_store', 'clothing_store', 'store', 'point_of_interest', 'establishment']","1040 Grant Road, Mountain View",37.3793323,-122.075733
31,"Mountain View, California",department_store,ChIJIdv2A621j4ARp4YsN6nGaGA,T.J. Maxx & HomeGoods,"['department_store', 'jewelry_store', 'clothing_store', 'store', 'point_of_interest', 'establishment']","20730 Stevens Creek Boulevard, Cupertino",37.3219534,-122.035991
32,"Mountain View, California",department_store,ChIJa_gJCaKwj4AR7E_FUippP3E,Kohl's Mountain View,"['department_store', 'store', 'point_of_interest', 'establishment']","350 Showers Drive, Mountain View",37.4032023,-122.107927
33,"Mountain View, California",department_store,ChIJT0VSEHO7j4ARVg1X-K-nLEQ,Nordstrom Rack East Palo Alto,"['clothing_store', 'shoe_store', 'department_store', 'store', 'point_of_interest', 'establishment']","1771 E Bayshore Rd, East Palo Alto",37.4602944,-122.1354815
34,"Mountain View, California",department_store,ChIJFzb5MDO7j4ARhjAFe0kgjNU,Nordstrom Stanford Shopping Center,"['department_store', 'shoe_store', 'clothing_store', 'store', 'point_of_interest', 'establishment']","550 Stanford Shopping Center, Palo Alto",37.4389726,-122.1735251
35,"Mountain View, California",department_store,ChIJq0BZBZmwj4ARL9oe-W9j7Dw,Walmart Pharmacy,"['pharmacy', 'department_store', 'store', 'health', 'point_of_interest', 'establishment']","600 Showers Drive, Mountain View",37.4009978,-122.1095964
36,"Mountain View, California",department_store,ChIJCVeFFDS7j4ARGTzKH4byEkw,Bloomingdale's,"['department_store', 'shoe_store', 'jewelry_store', 'clothing_store', 'store', 'point_of_interest', 'establishment']","1 Stanford Shopping Center, Palo Alto",37.4437983,-122.169646
37,"Mountain View, California",department_store,ChIJ1ViS4--1j4ARUVb4J-giem8,East West,"['department_store', 'clothing_store', 'store', 'point_of_interest', 'establishment']","1046 East El Camino Real, Sunnyvale",37.35146530000001,-122.0044255
38,"Mountain View, California",department_store,ChIJFVMzvnC2j4ARMsUO-kZLHkk,dd's DISCOUNTS,"['clothing_store', 'shoe_store', 'department_store', 'home_goods_store', 'store', 'point_of_interest', 'establishment']","580 East El Camino Real, Sunnyvale",37.361422,-122.026353
39,"Mountain View, California",department_store,ChIJ7Ul5kA-6j4AR-ecHMsCkdIE,Ross Dress for Less,"['clothing_store', 'shoe_store', 'department_store', 'store', 'point_of_interest', 'establishment']","1030 North Rengstorff Avenue, Mountain View",37.419422,-122.096118
40,"Mountain View, California",department_store,ChIJjYjKgrK1j4ARPY2RJiUrNZ0,Target,"['department_store', 'furniture_store', 'grocery_or_supermarket', 'clothing_store', 'electronics_store', 'home_goods_store', 'store', 'food', 'point_of_interest', 'establishment']","20745 Stevens Creek Boulevard, Cupertino",37.3244439,-122.0360402
41,"Mountain View, California",department_store,ChIJryH6Apmwj4ARx08eJ5hAaGQ,Walmart,"['supermarket', 'department_store', 'grocery_or_supermarket', 'store', 'food', 'point_of_interest', 'establishment']","600 Showers Drive, Mountain View",37.4009978,-122.1095964
42,"Mountain View, California",department_store,ChIJqUSz4l22j4ARRjulQFPISrw,Target,"['department_store', 'furniture_store', 'grocery_or_supermarket', 'clothing_store', 'electronics_store', 'home_goods_store', 'store', 'food', 'point_of_interest', 'establishment']","298 West McKinley Avenue, Sunnyvale",37.37371890000001,-122.032319
43,"Mountain View, California",department_store,ChIJcUzpMxC6j4ARETcpzvKLJTg,Bed Bath & Beyond,"['department_store', 'home_goods_store', 'store', 'point_of_interest', 'establishment']","2470 Charleston Road, Mountain View",37.423476,-122.0975742
44,"Mountain View, California",department_store,ChIJq9ZWgKKwj4ARvAcUB1cNp-k,Target,"['department_store', 'furniture_store', 'clothing_store', 'electronics_store', 'home_goods_store', 'store', 'point_of_interest', 'establishment']","555 Showers Drive, Mountain View",37.4007876,-122.106083
45,"Mountain View, California",department_store,ChIJdUorRQK2j4ARDuYzIg19H2Q,Costco Wholesale,"['department_store', 'store', 'point_of_interest', 'establishment']","150 Lawrence Station Road, Sunnyvale",37.3721958,-121.9948194
46,"Mountain View, California",department_store,ChIJYxODoGW2j4ARv-x49ss3cFw,Ross Dress for Less,"['clothing_store', 'shoe_store', 'department_store', 'store', 'point_of_interest', 'establishment']","119 East El Camino Real, Sunnyvale",37.36732620000001,-122.0292465
47,"Mountain View, California",department_store,ChIJ7-50zF22j4AR9_Yg6f9cxaU,Macy's,"['department_store', 'shoe_store', 'jewelry_store', 'clothing_store', 'store', 'point_of_interest', 'establishment']","200 West Washington Avenue, Sunnyvale",37.3757419,-122.0316938
48,"Mountain View, California",department_store,ChIJWXLTm93Jj4ARwki3xfmmYh8,T.J. Maxx & HomeGoods,"['department_store', 'jewelry_store', 'clothing_store', 'store', 'point_of_interest', 'establishment']","3201 Mission College Boulevard, Santa Clara",37.3899085,-121.9847552
49,"Mountain View, California",department_store,ChIJL6GyWAW6j4ARcTlncjl6Rbs,Costco Wholesale,"['department_store', 'store', 'point_of_interest', 'establishment']","1000 North Rengstorff Avenue, Mountain View",37.4210332,-122.0958161
50,"Mountain View, California",department_store,ChIJQ6Oy1Ne2j4ARRfHE4Za3MgQ,Marshalls & HomeGoods,"['department_store', 'clothing_store', 'store', 'point_of_interest', 'establishment']","1040 Grant Road, Mountain View",37.3793323,-122.075733
51,"Mountain View, California",department_store,ChIJIdv2A621j4ARp4YsN6nGaGA,T.J. Maxx & HomeGoods,"['department_store', 'jewelry_store', 'clothing_store', 'store', 'point_of_interest', 'establishment']","20730 Stevens Creek Boulevard, Cupertino",37.3219534,-122.035991
52,"Mountain View, California",department_store,ChIJa_gJCaKwj4AR7E_FUippP3E,Kohl's Mountain View,"['department_store', 'store', 'point_of_interest', 'establishment']","350 Showers Drive, Mountain View",37.4032023,-122.107927
53,"Mountain View, California",department_store,ChIJT0VSEHO7j4ARVg1X-K-nLEQ,Nordstrom Rack East Palo Alto,"['clothing_store', 'shoe_store', 'department_store', 'store', 'point_of_interest', 'establishment']","1771 E Bayshore Rd, East Palo Alto",37.4602944,-122.1354815
54,"Mountain View, California",department_store,ChIJFzb5MDO7j4ARhjAFe0kgjNU,Nordstrom Stanford Shopping Center,"['department_store', 'shoe_store', 'clothing_store', 'store', 'point_of_interest', 'establishment']","550 Stanford Shopping Center, Palo Alto",37.4389726,-122.1735251
55,"Mountain View, California",department_store,ChIJq0BZBZmwj4ARL9oe-W9j7Dw,Walmart Pharmacy,"['pharmacy', 'department_store', 'store', 'health', 'point_of_interest', 'establishment']","600 Showers Drive, Mountain View",37.4009978,-122.1095964
56,"Mountain View, California",department_store,ChIJCVeFFDS7j4ARGTzKH4byEkw,Bloomingdale's,"['department_store', 'shoe_store', 'jewelry_store', 'clothing_store', 'store', 'point_of_interest', 'establishment']","1 Stanford Shopping Center, Palo Alto",37.4437983,-122.169646
57,"Mountain View, California",department_store,ChIJ1ViS4--1j4ARUVb4J-giem8,East West,"['department_store', 'clothing_store', 'store', 'point_of_interest', 'establishment']","1046 East El Camino Real, Sunnyvale",37.35146530000001,-122.0044255
58,"Mountain View, California",department_store,ChIJFVMzvnC2j4ARMsUO-kZLHkk,dd's DISCOUNTS,"['clothing_store', 'shoe_store', 'department_store', 'home_goods_store', 'store', 'point_of_interest', 'establishment']","580 East El Camino Real, Sunnyvale",37.361422,-122.026353
59,"Mountain View, California",department_store,ChIJ7Ul5kA-6j4AR-ecHMsCkdIE,Ross Dress for Less,"['clothing_store', 'shoe_store', 'department_store', 'store', 'point_of_interest', 'establishment']","1030 North Rengstorff Avenue, Mountain View",37.419422,-122.096118
0,"Sunnyvale, California",department_store,ChIJjYjKgrK1j4ARPY2RJiUrNZ0,Target,"['department_store', 'furniture_store', 'grocery_or_supermarket', 'clothing_store', 'electronics_store', 'home_goods_store', 'store', 'food', 'point_of_interest', 'establishment']","20745 Stevens Creek Boulevard, Cupertino",37.3244439,-122.0360402
1,"Sunnyvale, California",department_store,ChIJWXLTm93Jj4ARwki3xfmmYh8,T.J. Maxx & HomeGoods,"['department_store', 'jewelry_store', 'clothing_store', 'store', 'point_of_interest', 'establishment']","3201 Mission College Boulevard, Santa Clara",37.3899085,-121.9847552
2,"Sunnyvale, California",department_store,ChIJqUSz4l22j4ARRjulQFPISrw,Target,"['department_store', 'furniture_store', 'grocery_or_supermarket', 'clothing_store', 'electronics_store', 'home_goods_store', 'store', 'food', 'point_of_interest', 'establishment']","298 West McKinley Avenue, Sunnyvale",37.37371890000001,-122.032319
3,"Sunnyvale, California",department_store,ChIJryH6Apmwj4ARx08eJ5hAaGQ,Walmart,"['supermarket', 'department_store', 'grocery_or_supermarket', 'store', 'food', 'point_of_interest', 'establishment']","600 Showers Drive, Mountain View",37.4009978,-122.1095964
4,"Sunnyvale, California",department_store,ChIJdUorRQK2j4ARDuYzIg19H2Q,Costco Wholesale,"['department_store', 'store', 'point_of_interest', 'establishment']","150 Lawrence Station Road, Sunnyvale",37.3721958,-121.9948194
5,"Sunnyvale, California",department_store,ChIJu0_5Dn61j4ARzxNWzkBsHaQ,Marshalls,"['department_store', 'clothing_store', 'store', 'point_of_interest', 'establishment']","5160 Stevens Creek Boulevard, San Jose",37.3212438,-121.9942252
6,"Sunnyvale, California",department_store,ChIJcUzpMxC6j4ARETcpzvKLJTg,Bed Bath & Beyond,"['department_store', 'home_goods_store', 'store', 'point_of_interest', 'establishment']","2470 Charleston Road, Mountain View",37.423476,-122.0975742
7,"Sunnyvale, California",department_store,ChIJYxODoGW2j4ARv-x49ss3cFw,Ross Dress for Less,"['clothing_store', 'shoe_store', 'department_store', 'store', 'point_of_interest', 'establishment']","119 East El Camino Real, Sunnyvale",37.36732620000001,-122.0292465
8,"Sunnyvale, California",department_store,ChIJ7-50zF22j4AR9_Yg6f9cxaU,Macy's,"['department_store', 'shoe_store', 'jewelry_store', 'clothing_store', 'store', 'point_of_interest', 'establishment']","200 West Washington Avenue, Sunnyvale",37.3757419,-122.0316938
9,"Sunnyvale, California",department_store,ChIJq9ZWgKKwj4ARvAcUB1cNp-k,Target,"['department_store', 'furniture_store', 'clothing_store', 'electronics_store', 'home_goods_store', 'store', 'point_of_interest', 'establishment']","555 Showers Drive, Mountain View",37.4007876,-122.106083
10,"Sunnyvale, California",department_store,ChIJRYH3xqvKj4ARxlGQTTobmDo,Target,"['department_store', 'furniture_store', 'grocery_or_supermarket', 'clothing_store', 'electronics_store', 'home_goods_store', 'store', 'food', 'point_of_interest', 'establishment']","1600 Saratoga Avenue, San Jose",37.29128540000001,-121.9896296
11,"Sunnyvale, California",department_store,ChIJQ6Oy1Ne2j4ARRfHE4Za3MgQ,Marshalls & HomeGoods,"['department_store', 'clothing_store', 'store', 'point_of_interest', 'establishment']","1040 Grant Road, Mountain View",37.3793323,-122.075733
12,"Sunnyvale, California",department_store,ChIJgexMlR_Lj4ARSvwSxukOgys,Westfield Valley Fair,"['shopping_mall', 'shoe_store', 'department_store', 'clothing_store', 'store', 'restaurant', 'food', 'point_of_interest', 'establishment']","2855 Stevens Creek Boulevard, Santa Clara",37.3257904,-121.9457041
13,"Sunnyvale, California",department_store,ChIJL6GyWAW6j4ARcTlncjl6Rbs,Costco Wholesale,"['department_store', 'store', 'point_of_interest', 'establishment']","1000 North Rengstorff Avenue, Mountain View",37.4210332,-122.0958161
14,"Sunnyvale, California",department_store,ChIJpQP2H7HLj4AR_gUbxOt_aIY,Costco Wholesale,"['department_store', 'store', 'point_of_interest', 'establishment']","1601 Coleman Avenue, Santa Clara",37.3569756,-121.9392447
15,"Sunnyvale, California",department_store,ChIJIdv2A621j4ARp4YsN6nGaGA,T.J. Maxx & HomeGoods,"['department_store', 'jewelry_store', 'clothing_store', 'store', 'point_of_interest', 'establishment']","20730 Stevens Creek Boulevard, Cupertino",37.3219534,-122.035991
16,"Sunnyvale, California",department_store,ChIJ8WvuSB7Lj4ARFyHppkxDRQ4,Macy's,"['department_store', 'shoe_store', 'jewelry_store', 'furniture_store', 'clothing_store', 'home_goods_store', 'store', 'point_of_interest', 'establishment']","2801 Stevens Creek Boulevard, Santa Clara",37.324543,-121.948097
17,"Sunnyvale, California",department_store,ChIJzYVOZ361j4AR9Oa0YqTsY8g,Bed Bath & Beyond,"['department_store', 'home_goods_store', 'store', 'point_of_interest', 'establishment']","5201 Stevens Creek Boulevard, Santa Clara",37.3239569,-121.9936513
18,"Sunnyvale, California",department_store,ChIJRYH3xqvKj4ARn-9UegXiguo,Nordstrom Rack Westgate Mall,"['clothing_store', 'shoe_store', 'department_store', 'store', 'point_of_interest', 'establishment']","1600 Saratoga Avenue, San Jose",37.2930334,-121.987204
19,"Sunnyvale, California",department_store,ChIJa_gJCaKwj4AR7E_FUippP3E,Kohl's Mountain View,"['department_store', 'store', 'point_of_interest', 'establishment']","350 Showers Drive, Mountain View",37.4032023,-122.107927
20,"Sunnyvale, California",department_store,ChIJjYjKgrK1j4ARPY2RJiUrNZ0,Target,"['department_store', 'furniture_store', 'grocery_or_supermarket', 'clothing_store', 'electronics_store', 'home_goods_store', 'store', 'food', 'point_of_interest', 'establishment']","20745 Stevens Creek Boulevard, Cupertino",37.3244439,-122.0360402
21,"Sunnyvale, California",department_store,ChIJWXLTm93Jj4ARwki3xfmmYh8,T.J. Maxx & HomeGoods,"['department_store', 'jewelry_store', 'clothing_store', 'store', 'point_of_interest', 'establishment']","3201 Mission College Boulevard, Santa Clara",37.3899085,-121.9847552
22,"Sunnyvale, California",department_store,ChIJqUSz4l22j4ARRjulQFPISrw,Target,"['department_store', 'furniture_store', 'grocery_or_supermarket', 'clothing_store', 'electronics_store', 'home_goods_store', 'store', 'food', 'point_of_interest', 'establishment']","298 West McKinley Avenue, Sunnyvale",37.37371890000001,-122.032319
23,"Sunnyvale, California",department_store,ChIJryH6Apmwj4ARx08eJ5hAaGQ,Walmart,"['supermarket', 'department_store', 'grocery_or_supermarket', 'store', 'food', 'point_of_interest', 'establishment']","600 Showers Drive, Mountain View",37.4009978,-122.1095964
24,"Sunnyvale, California",department_store,ChIJdUorRQK2j4ARDuYzIg19H2Q,Costco Wholesale,"['department_store', 'store', 'point_of_interest', 'establishment']","150 Lawrence Station Road, Sunnyvale",37.3721958,-121.9948194
25,"Sunnyvale, California",department_store,ChIJu0_5Dn61j4ARzxNWzkBsHaQ,Marshalls,"['department_store', 'clothing_store', 'store', 'point_of_interest', 'establishment']","5160 Stevens Creek Boulevard, San Jose",37.3212438,-121.9942252
26,"Sunnyvale, California",department_store,ChIJcUzpMxC6j4ARETcpzvKLJTg,Bed Bath & Beyond,"['department_store', 'home_goods_store', 'store', 'point_of_interest', 'establishment']","2470 Charleston Road, Mountain View",37.423476,-122.0975742
27,"Sunnyvale, California",department_store,ChIJYxODoGW2j4ARv-x49ss3cFw,Ross Dress for Less,"['clothing_store', 'shoe_store', 'department_store', 'store', 'point_of_interest', 'establishment']","119 East El Camino Real, Sunnyvale",37.36732620000001,-122.0292465
28,"Sunnyvale, California",department_store,ChIJ7-50zF22j4AR9_Yg6f9cxaU,Macy's,"['department_store', 'shoe_store', 'jewelry_store', 'clothing_store', 'store', 'point_of_interest', 'establishment']","200 West Washington Avenue, Sunnyvale",37.3757419,-122.0316938
29,"Sunnyvale, California",department_store,ChIJq9ZWgKKwj4ARvAcUB1cNp-k,Target,"['department_store', 'furniture_store', 'clothing_store', 'electronics_store', 'home_goods_store', 'store', 'point_of_interest', 'establishment']","555 Showers Drive, Mountain View",37.4007876,-122.106083
30,"Sunnyvale, California",department_store,ChIJRYH3xqvKj4ARxlGQTTobmDo,Target,"['department_store', 'furniture_store', 'grocery_or_supermarket', 'clothing_store', 'electronics_store', 'home_goods_store', 'store', 'food', 'point_of_interest', 'establishment']","1600 Saratoga Avenue, San Jose",37.29128540000001,-121.9896296
31,"Sunnyvale, California",department_store,ChIJQ6Oy1Ne2j4ARRfHE4Za3MgQ,Marshalls & HomeGoods,"['department_store', 'clothing_store', 'store', 'point_of_interest', 'establishment']","1040 Grant Road, Mountain View",37.3793323,-122.075733
32,"Sunnyvale, California",department_store,ChIJgexMlR_Lj4ARSvwSxukOgys,Westfield Valley Fair,"['shopping_mall', 'shoe_store', 'department_store', 'clothing_store', 'store', 'restaurant', 'food', 'point_of_interest', 'establishment']","2855 Stevens Creek Boulevard, Santa Clara",37.3257904,-121.9457041
33,"Sunnyvale, California",department_store,ChIJL6GyWAW6j4ARcTlncjl6Rbs,Costco Wholesale,"['department_store', 'store', 'point_of_interest', 'establishment']","1000 North Rengstorff Avenue, Mountain View",37.4210332,-122.0958161
34,"Sunnyvale, California",department_store,ChIJpQP2H7HLj4AR_gUbxOt_aIY,Costco Wholesale,"['department_store', 'store', 'point_of_interest', 'establishment']","1601 Coleman Avenue, Santa Clara",37.3569756,-121.9392447
35,"Sunnyvale, California",department_store,ChIJIdv2A621j4ARp4YsN6nGaGA,T.J. Maxx & HomeGoods,"['department_store', 'jewelry_store', 'clothing_store', 'store', 'point_of_interest', 'establishment']","20730 Stevens Creek Boulevard, Cupertino",37.3219534,-122.035991
36,"Sunnyvale, California",department_store,ChIJ8WvuSB7Lj4ARFyHppkxDRQ4,Macy's,"['department_store', 'shoe_store', 'jewelry_store', 'furniture_store', 'clothing_store', 'home_goods_store', 'store', 'point_of_interest', 'establishment']","2801 Stevens Creek Boulevard, Santa Clara",37.324543,-121.948097
37,"Sunnyvale, California",department_store,ChIJzYVOZ361j4AR9Oa0YqTsY8g,Bed Bath & Beyond,"['department_store', 'home_goods_store', 'store', 'point_of_interest', 'establishment']","5201 Stevens Creek Boulevard, Santa Clara",37.3239569,-121.9936513
38,"Sunnyvale, California",department_store,ChIJRYH3xqvKj4ARn-9UegXiguo,Nordstrom Rack Westgate Mall,"['clothing_store', 'shoe_store', 'department_store', 'store', 'point_of_interest', 'establishment']","1600 Saratoga Avenue, San Jose",37.2930334,-121.987204
39,"Sunnyvale, California",department_store,ChIJa_gJCaKwj4AR7E_FUippP3E,Kohl's Mountain View,"['department_store', 'store', 'point_of_interest', 'establishment']","350 Showers Drive, Mountain View",37.4032023,-122.107927
40,"Sunnyvale, California",department_store,ChIJjYjKgrK1j4ARPY2RJiUrNZ0,Target,"['department_store', 'furniture_store', 'grocery_or_supermarket', 'clothing_store', 'electronics_store', 'home_goods_store', 'store', 'food', 'point_of_interest', 'establishment']","20745 Stevens Creek Boulevard, Cupertino",37.3244439,-122.0360402
41,"Sunnyvale, California",department_store,ChIJWXLTm93Jj4ARwki3xfmmYh8,T.J. Maxx & HomeGoods,"['department_store', 'jewelry_store', 'clothing_store', 'store', 'point_of_interest', 'establishment']","3201 Mission College Boulevard, Santa Clara",37.3899085,-121.9847552
42,"Sunnyvale, California",department_store,ChIJqUSz4l22j4ARRjulQFPISrw,Target,"['department_store', 'furniture_store', 'grocery_or_supermarket', 'clothing_store', 'electronics_store', 'home_goods_store', 'store', 'food', 'point_of_interest', 'establishment']","298 West McKinley Avenue, Sunnyvale",37.37371890000001,-122.032319
43,"Sunnyvale, California",department_store,ChIJryH6Apmwj4ARx08eJ5hAaGQ,Walmart,"['supermarket', 'department_store', 'grocery_or_supermarket', 'store', 'food', 'point_of_interest', 'establishment']","600 Showers Drive, Mountain View",37.4009978,-122.1095964
44,"Sunnyvale, California",department_store,ChIJdUorRQK2j4ARDuYzIg19H2Q,Costco Wholesale,"['department_store', 'store', 'point_of_interest', 'establishment']","150 Lawrence Station Road, Sunnyvale",37.3721958,-121.9948194
45,"Sunnyvale, California",department_store,ChIJu0_5Dn61j4ARzxNWzkBsHaQ,Marshalls,"['department_store', 'clothing_store', 'store', 'point_of_interest', 'establishment']","5160 Stevens Creek Boulevard, San Jose",37.3212438,-121.9942252
46,"Sunnyvale, California",department_store,ChIJcUzpMxC6j4ARETcpzvKLJTg,Bed Bath & Beyond,"['department_store', 'home_goods_store', 'store', 'point_of_interest', 'establishment']","2470 Charleston Road, Mountain View",37.423476,-122.0975742
47,"Sunnyvale, California",department_store,ChIJYxODoGW2j4ARv-x49ss3cFw,Ross Dress for Less,"['clothing_store', 'shoe_store', 'department_store', 'store', 'point_of_interest', 'establishment']","119 East El Camino Real, Sunnyvale",37.36732620000001,-122.0292465
48,"Sunnyvale, California",department_store,ChIJ7-50zF22j4AR9_Yg6f9cxaU,Macy's,"['department_store', 'shoe_store', 'jewelry_store', 'clothing_store', 'store', 'point_of_interest', 'establishment']","200 West Washington Avenue, Sunnyvale",37.3757419,-122.0316938
49,"Sunnyvale, California",department_store,ChIJq9ZWgKKwj4ARvAcUB1cNp-k,Target,"['department_store', 'furniture_store', 'clothing_store', 'electronics_store', 'home_goods_store', 'store', 'point_of_interest', 'establishment']","555 Showers Drive, Mountain View",37.4007876,-122.106083
50,"Sunnyvale, California",department_store,ChIJRYH3xqvKj4ARxlGQTTobmDo,Target,"['department_store', 'furniture_store', 'grocery_or_supermarket', 'clothing_store', 'electronics_store', 'home_goods_store', 'store', 'food', 'point_of_interest', 'establishment']","1600 Saratoga Avenue, San Jose",37.29128540000001,-121.9896296
51,"Sunnyvale, California",department_store,ChIJQ6Oy1Ne2j4ARRfHE4Za3MgQ,Marshalls & HomeGoods,"['department_store', 'clothing_store', 'store', 'point_of_interest', 'establishment']","1040 Grant Road, Mountain View",37.3793323,-122.075733
52,"Sunnyvale, California",department_store,ChIJgexMlR_Lj4ARSvwSxukOgys,Westfield Valley Fair,"['shopping_mall', 'shoe_store', 'department_store', 'clothing_store', 'store', 'restaurant', 'food', 'point_of_interest', 'establishment']","2855 Stevens Creek Boulevard, Santa Clara",37.3257904,-121.9457041
53,"Sunnyvale, California",department_store,ChIJL6GyWAW6j4ARcTlncjl6Rbs,Costco Wholesale,"['department_store', 'store', 'point_of_interest', 'establishment']","1000 North Rengstorff Avenue, Mountain View",37.4210332,-122.0958161
54,"Sunnyvale, California",department_store,ChIJpQP2H7HLj4AR_gUbxOt_aIY,Costco Wholesale,"['department_store', 'store', 'point_of_interest', 'establishment']","1601 Coleman Avenue, Santa Clara",37.3569756,-121.9392447
55,"Sunnyvale, California",department_store,ChIJIdv2A621j4ARp4YsN6nGaGA,T.J. Maxx & HomeGoods,"['department_store', 'jewelry_store', 'clothing_store', 'store', 'point_of_interest', 'establishment']","20730 Stevens Creek Boulevard, Cupertino",37.3219534,-122.035991
56,"Sunnyvale, California",department_store,ChIJ8WvuSB7Lj4ARFyHppkxDRQ4,Macy's,"['department_store', 'shoe_store', 'jewelry_store', 'furniture_store', 'clothing_store', 'home_goods_store', 'store', 'point_of_interest', 'establishment']","2801 Stevens Creek Boulevard, Santa Clara",37.324543,-121.948097
57,"Sunnyvale, California",department_store,ChIJzYVOZ361j4AR9Oa0YqTsY8g,Bed Bath & Beyond,"['department_store', 'home_goods_store', 'store', 'point_of_interest', 'establishment']","5201 Stevens Creek Boulevard, Santa Clara",37.3239569,-121.9936513
58,"Sunnyvale, California",department_store,ChIJRYH3xqvKj4ARn-9UegXiguo,Nordstrom Rack Westgate Mall,"['clothing_store', 'shoe_store', 'department_store', 'store', 'point_of_interest', 'establishment']","1600 Saratoga Avenue, San Jose",37.2930334,-121.987204
59,"Sunnyvale, California",department_store,ChIJa_gJCaKwj4AR7E_FUippP3E,Kohl's Mountain View,"['department_store', 'store', 'point_of_interest', 'establishment']","350 Showers Drive, Mountain View",37.4032023,-122.107927
0,"Cupertino, California",department_store,ChIJjYjKgrK1j4ARPY2RJiUrNZ0,Target,"['department_store', 'furniture_store', 'grocery_or_supermarket', 'clothing_store', 'electronics_store', 'home_goods_store', 'store', 'food', 'point_of_interest', 'establishment']","20745 Stevens Creek Boulevard, Cupertino",37.3244439,-122.0360402
1,"Cupertino, California",department_store,ChIJRYH3xqvKj4ARxlGQTTobmDo,Target,"['department_store', 'furniture_store', 'grocery_or_supermarket', 'clothing_store', 'electronics_store', 'home_goods_store', 'store', 'food', 'point_of_interest', 'establishment']","1600 Saratoga Avenue, San Jose",37.29128540000001,-121.9896296
2,"Cupertino, California",department_store,ChIJgexMlR_Lj4ARSvwSxukOgys,Westfield Valley Fair,"['shopping_mall', 'shoe_store', 'department_store', 'clothing_store', 'store', 'restaurant', 'food', 'point_of_interest', 'establishment']","2855 Stevens Creek Boulevard, Santa Clara",37.3257904,-121.9457041
3,"Cupertino, California",department_store,ChIJqUSz4l22j4ARRjulQFPISrw,Target,"['department_store', 'furniture_store', 'grocery_or_supermarket', 'clothing_store', 'electronics_store', 'home_goods_store', 'store', 'food', 'point_of_interest', 'establishment']","298 West McKinley Avenue, Sunnyvale",37.37371890000001,-122.032319
4,"Cupertino, California",department_store,ChIJu0_5Dn61j4ARzxNWzkBsHaQ,Marshalls,"['department_store', 'clothing_store', 'store', 'point_of_interest', 'establishment']","5160 Stevens Creek Boulevard, San Jose",37.3212438,-121.9942252
5,"Cupertino, California",department_store,ChIJdUorRQK2j4ARDuYzIg19H2Q,Costco Wholesale,"['department_store', 'store', 'point_of_interest', 'establishment']","150 Lawrence Station Road, Sunnyvale",37.3721958,-121.9948194
6,"Cupertino, California",department_store,ChIJRYH3xqvKj4ARn-9UegXiguo,Nordstrom Rack Westgate Mall,"['clothing_store', 'shoe_store', 'department_store', 'store', 'point_of_interest', 'establishment']","1600 Saratoga Avenue, San Jose",37.2930334,-121.987204
7,"Cupertino, California",department_store,ChIJ8WvuSB7Lj4ARFyHppkxDRQ4,Macy's,"['department_store', 'shoe_store', 'jewelry_store', 'furniture_store', 'clothing_store', 'home_goods_store', 'store', 'point_of_interest', 'establishment']","2801 Stevens Creek Boulevard, Santa Clara",37.324543,-121.948097
8,"Cupertino, California",department_store,ChIJWXLTm93Jj4ARwki3xfmmYh8,T.J. Maxx & HomeGoods,"['department_store', 'jewelry_store', 'clothing_store', 'store', 'point_of_interest', 'establishment']","3201 Mission College Boulevard, Santa Clara",37.3899085,-121.9847552
9,"Cupertino, California",department_store,ChIJYxODoGW2j4ARv-x49ss3cFw,Ross Dress for Less,"['clothing_store', 'shoe_store', 'department_store', 'store', 'point_of_interest', 'establishment']","119 East El Camino Real, Sunnyvale",37.36732620000001,-122.0292465
10,"Cupertino, California",department_store,ChIJ7-50zF22j4AR9_Yg6f9cxaU,Macy's,"['department_store', 'shoe_store', 'jewelry_store', 'clothing_store', 'store', 'point_of_interest', 'establishment']","200 West Washington Avenue, Sunnyvale",37.3757419,-122.0316938
11,"Cupertino, California",department_store,ChIJtfzpwNA0joARHcpoGXmEXH8,Kohl's Campbell,"['department_store', 'store', 'point_of_interest', 'establishment']","525 East Hamilton Avenue, Campbell",37.2965532,-121.9404893
12,"Cupertino, California",department_store,ChIJQ6Oy1Ne2j4ARRfHE4Za3MgQ,Marshalls & HomeGoods,"['department_store', 'clothing_store', 'store', 'point_of_interest', 'establishment']","1040 Grant Road, Mountain View",37.3793323,-122.075733
13,"Cupertino, California",department_store,ChIJIdv2A621j4ARp4YsN6nGaGA,T.J. Maxx & HomeGoods,"['department_store', 'jewelry_store', 'clothing_store', 'store', 'point_of_interest', 'establishment']","20730 Stevens Creek Boulevard, Cupertino",37.3219534,-122.035991
14,"Cupertino, California",department_store,ChIJRYH3xqvKj4ARhkYRRGAHxOY,Ross Dress for Less,"['clothing_store', 'shoe_store', 'department_store', 'store', 'point_of_interest', 'establishment']","1600 Saratoga Avenue, San Jose",37.2921632,-121.9881546
15,"Cupertino, California",department_store,ChIJ62_oCR7Lj4AR_MGWkSPotD4,Nordstrom,"['department_store', 'shoe_store', 'clothing_store', 'store', 'point_of_interest', 'establishment']","2400 Forest Avenue, San Jose",37.3262156,-121.9464684
16,"Cupertino, California",department_store,ChIJ0ZvBZ8I0joARE5uTcT-Av9I,Marshalls,"['department_store', 'clothing_store', 'store', 'point_of_interest', 'establishment']","1875 South Bascom Avenue, Campbell",37.289248,-121.932678
17,"Cupertino, California",department_store,ChIJpQP2H7HLj4AR_gUbxOt_aIY,Costco Wholesale,"['department_store', 'store', 'point_of_interest', 'establishment']","1601 Coleman Avenue, Santa Clara",37.3569756,-121.9392447
18,"Cupertino, California",department_store,ChIJzYVOZ361j4AR9Oa0YqTsY8g,Bed Bath & Beyond,"['department_store', 'home_goods_store', 'store', 'point_of_interest', 'establishment']","5201 Stevens Creek Boulevard, Santa Clara",37.3239569,-121.9936513
19,"Cupertino, California",department_store,ChIJG2JIQKvKj4ARCNyc9KgqEsU,Walmart Neighborhood Market,"['supermarket', 'department_store', 'grocery_or_supermarket', 'store', 'food', 'point_of_interest', 'establishment']","1600 Saratoga Avenue #501, San Jose",37.2914808,-121.9885518
20,"Cupertino, California",department_store,ChIJjYjKgrK1j4ARPY2RJiUrNZ0,Target,"['department_store', 'furniture_store', 'grocery_or_supermarket', 'clothing_store', 'electronics_store', 'home_goods_store', 'store', 'food', 'point_of_interest', 'establishment']","20745 Stevens Creek Boulevard, Cupertino",37.3244439,-122.0360402
21,"Cupertino, California",department_store,ChIJRYH3xqvKj4ARxlGQTTobmDo,Target,"['department_store', 'furniture_store', 'grocery_or_supermarket', 'clothing_store', 'electronics_store', 'home_goods_store', 'store', 'food', 'point_of_interest', 'establishment']","1600 Saratoga Avenue, San Jose",37.29128540000001,-121.9896296
22,"Cupertino, California",department_store,ChIJgexMlR_Lj4ARSvwSxukOgys,Westfield Valley Fair,"['shopping_mall', 'shoe_store', 'department_store', 'clothing_store', 'store', 'restaurant', 'food', 'point_of_interest', 'establishment']","2855 Stevens Creek Boulevard, Santa Clara",37.3257904,-121.9457041
23,"Cupertino, California",department_store,ChIJqUSz4l22j4ARRjulQFPISrw,Target,"['department_store', 'furniture_store', 'grocery_or_supermarket', 'clothing_store', 'electronics_store', 'home_goods_store', 'store', 'food', 'point_of_interest', 'establishment']","298 West McKinley Avenue, Sunnyvale",37.37371890000001,-122.032319
24,"Cupertino, California",department_store,ChIJu0_5Dn61j4ARzxNWzkBsHaQ,Marshalls,"['department_store', 'clothing_store', 'store', 'point_of_interest', 'establishment']","5160 Stevens Creek Boulevard, San Jose",37.3212438,-121.9942252
25,"Cupertino, California",department_store,ChIJdUorRQK2j4ARDuYzIg19H2Q,Costco Wholesale,"['department_store', 'store', 'point_of_interest', 'establishment']","150 Lawrence Station Road, Sunnyvale",37.3721958,-121.9948194
26,"Cupertino, California",department_store,ChIJRYH3xqvKj4ARn-9UegXiguo,Nordstrom Rack Westgate Mall,"['clothing_store', 'shoe_store', 'department_store', 'store', 'point_of_interest', 'establishment']","1600 Saratoga Avenue, San Jose",37.2930334,-121.987204
27,"Cupertino, California",department_store,ChIJ8WvuSB7Lj4ARFyHppkxDRQ4,Macy's,"['department_store', 'shoe_store', 'jewelry_store', 'furniture_store', 'clothing_store', 'home_goods_store', 'store', 'point_of_interest', 'establishment']","2801 Stevens Creek Boulevard, Santa Clara",37.324543,-121.948097
28,"Cupertino, California",department_store,ChIJWXLTm93Jj4ARwki3xfmmYh8,T.J. Maxx & HomeGoods,"['department_store', 'jewelry_store', 'clothing_store', 'store', 'point_of_interest', 'establishment']","3201 Mission College Boulevard, Santa Clara",37.3899085,-121.9847552
29,"Cupertino, California",department_store,ChIJYxODoGW2j4ARv-x49ss3cFw,Ross Dress for Less,"['clothing_store', 'shoe_store', 'department_store', 'store', 'point_of_interest', 'establishment']","119 East El Camino Real, Sunnyvale",37.36732620000001,-122.0292465
30,"Cupertino, California",department_store,ChIJ7-50zF22j4AR9_Yg6f9cxaU,Macy's,"['department_store', 'shoe_store', 'jewelry_store', 'clothing_store', 'store', 'point_of_interest', 'establishment']","200 West Washington Avenue, Sunnyvale",37.3757419,-122.0316938
31,"Cupertino, California",department_store,ChIJtfzpwNA0joARHcpoGXmEXH8,Kohl's Campbell,"['department_store', 'store', 'point_of_interest', 'establishment']","525 East Hamilton Avenue, Campbell",37.2965532,-121.9404893
32,"Cupertino, California",department_store,ChIJQ6Oy1Ne2j4ARRfHE4Za3MgQ,Marshalls & HomeGoods,"['department_store', 'clothing_store', 'store', 'point_of_interest', 'establishment']","1040 Grant Road, Mountain View",37.3793323,-122.075733
33,"Cupertino, California",department_store,ChIJIdv2A621j4ARp4YsN6nGaGA,T.J. Maxx & HomeGoods,"['department_store', 'jewelry_store', 'clothing_store', 'store', 'point_of_interest', 'establishment']","20730 Stevens Creek Boulevard, Cupertino",37.3219534,-122.035991
34,"Cupertino, California",department_store,ChIJRYH3xqvKj4ARhkYRRGAHxOY,Ross Dress for Less,"['clothing_store', 'shoe_store', 'department_store', 'store', 'point_of_interest', 'establishment']","1600 Saratoga Avenue, San Jose",37.2921632,-121.9881546
35,"Cupertino, California",department_store,ChIJ62_oCR7Lj4AR_MGWkSPotD4,Nordstrom,"['department_store', 'shoe_store', 'clothing_store', 'store', 'point_of_interest', 'establishment']","2400 Forest Avenue, San Jose",37.3262156,-121.9464684
36,"Cupertino, California",department_store,ChIJ0ZvBZ8I0joARE5uTcT-Av9I,Marshalls,"['department_store', 'clothing_store', 'store', 'point_of_interest', 'establishment']","1875 South Bascom Avenue, Campbell",37.289248,-121.932678
37,"Cupertino, California",department_store,ChIJpQP2H7HLj4AR_gUbxOt_aIY,Costco Wholesale,"['department_store', 'store', 'point_of_interest', 'establishment']","1601 Coleman Avenue, Santa Clara",37.3569756,-121.9392447
38,"Cupertino, California",department_store,ChIJzYVOZ361j4AR9Oa0YqTsY8g,Bed Bath & Beyond,"['department_store', 'home_goods_store', 'store', 'point_of_interest', 'establishment']","5201 Stevens Creek Boulevard, Santa Clara",37.3239569,-121.9936513
39,"Cupertino, California",department_store,ChIJG2JIQKvKj4ARCNyc9KgqEsU,Walmart Neighborhood Market,"['supermarket', 'department_store', 'grocery_or_supermarket', 'store', 'food', 'point_of_interest', 'establishment']","1600 Saratoga Avenue #501, San Jose",37.2914808,-121.9885518
40,"Cupertino, California",department_store,ChIJjYjKgrK1j4ARPY2RJiUrNZ0,Target,"['department_store', 'furniture_store', 'grocery_or_supermarket', 'clothing_store', 'electronics_store', 'home_goods_store', 'store', 'food', 'point_of_interest', 'establishment']","20745 Stevens Creek Boulevard, Cupertino",37.3244439,-122.0360402
41,"Cupertino, California",department_store,ChIJRYH3xqvKj4ARxlGQTTobmDo,Target,"['department_store', 'furniture_store', 'grocery_or_supermarket', 'clothing_store', 'electronics_store', 'home_goods_store', 'store', 'food', 'point_of_interest', 'establishment']","1600 Saratoga Avenue, San Jose",37.29128540000001,-121.9896296
42,"Cupertino, California",department_store,ChIJgexMlR_Lj4ARSvwSxukOgys,Westfield Valley Fair,"['shopping_mall', 'shoe_store', 'department_store', 'clothing_store', 'store', 'restaurant', 'food', 'point_of_interest', 'establishment']","2855 Stevens Creek Boulevard, Santa Clara",37.3257904,-121.9457041
43,"Cupertino, California",department_store,ChIJqUSz4l22j4ARRjulQFPISrw,Target,"['department_store', 'furniture_store', 'grocery_or_supermarket', 'clothing_store', 'electronics_store', 'home_goods_store', 'store', 'food', 'point_of_interest', 'establishment']","298 West McKinley Avenue, Sunnyvale",37.37371890000001,-122.032319
44,"Cupertino, California",department_store,ChIJu0_5Dn61j4ARzxNWzkBsHaQ,Marshalls,"['department_store', 'clothing_store', 'store', 'point_of_interest', 'establishment']","5160 Stevens Creek Boulevard, San Jose",37.3212438,-121.9942252
45,"Cupertino, California",department_store,ChIJdUorRQK2j4ARDuYzIg19H2Q,Costco Wholesale,"['department_store', 'store', 'point_of_interest', 'establishment']","150 Lawrence Station Road, Sunnyvale",37.3721958,-121.9948194
46,"Cupertino, California",department_store,ChIJRYH3xqvKj4ARn-9UegXiguo,Nordstrom Rack Westgate Mall,"['clothing_store', 'shoe_store', 'department_store', 'store', 'point_of_interest', 'establishment']","1600 Saratoga Avenue, San Jose",37.2930334,-121.987204
47,"Cupertino, California",department_store,ChIJ8WvuSB7Lj4ARFyHppkxDRQ4,Macy's,"['department_store', 'shoe_store', 'jewelry_store', 'furniture_store', 'clothing_store', 'home_goods_store', 'store', 'point_of_interest', 'establishment']","2801 Stevens Creek Boulevard, Santa Clara",37.324543,-121.948097
48,"Cupertino, California",department_store,ChIJWXLTm93Jj4ARwki3xfmmYh8,T.J. Maxx & HomeGoods,"['department_store', 'jewelry_store', 'clothing_store', 'store', 'point_of_interest', 'establishment']","3201 Mission College Boulevard, Santa Clara",37.3899085,-121.9847552
49,"Cupertino, California",department_store,ChIJYxODoGW2j4ARv-x49ss3cFw,Ross Dress for Less,"['clothing_store', 'shoe_store', 'department_store', 'store', 'point_of_interest', 'establishment']","119 East El Camino Real, Sunnyvale",37.36732620000001,-122.0292465
50,"Cupertino, California",department_store,ChIJ7-50zF22j4AR9_Yg6f9cxaU,Macy's,"['department_store', 'shoe_store', 'jewelry_store', 'clothing_store', 'store', 'point_of_interest', 'establishment']","200 West Washington Avenue, Sunnyvale",37.3757419,-122.0316938
51,"Cupertino, California",department_store,ChIJtfzpwNA0joARHcpoGXmEXH8,Kohl's Campbell,"['department_store', 'store', 'point_of_interest', 'establishment']","525 East Hamilton Avenue, Campbell",37.2965532,-121.9404893
52,"Cupertino, California",department_store,ChIJQ6Oy1Ne2j4ARRfHE4Za3MgQ,Marshalls & HomeGoods,"['department_store', 'clothing_store', 'store', 'point_of_interest', 'establishment']","1040 Grant Road, Mountain View",37.3793323,-122.075733
53,"Cupertino, California",department_store,ChIJIdv2A621j4ARp4YsN6nGaGA,T.J. Maxx & HomeGoods,"['department_store', 'jewelry_store', 'clothing_store', 'store', 'point_of_interest', 'establishment']","20730 Stevens Creek Boulevard, Cupertino",37.3219534,-122.035991
54,"Cupertino, California",department_store,ChIJRYH3xqvKj4ARhkYRRGAHxOY,Ross Dress for Less,"['clothing_store', 'shoe_store', 'department_store', 'store', 'point_of_interest', 'establishment']","1600 Saratoga Avenue, San Jose",37.2921632,-121.9881546
55,"Cupertino, California",department_store,ChIJ62_oCR7Lj4AR_MGWkSPotD4,Nordstrom,"['department_store', 'shoe_store', 'clothing_store', 'store', 'point_of_interest', 'establishment']","2400 Forest Avenue, San Jose",37.3262156,-121.9464684
56,"Cupertino, California",department_store,ChIJ0ZvBZ8I0joARE5uTcT-Av9I,Marshalls,"['department_store', 'clothing_store', 'store', 'point_of_interest', 'establishment']","1875 South Bascom Avenue, Campbell",37.289248,-121.932678
57,"Cupertino, California",department_store,ChIJpQP2H7HLj4AR_gUbxOt_aIY,Costco Wholesale,"['department_store', 'store', 'point_of_interest', 'establishment']","1601 Coleman Avenue, Santa Clara",37.3569756,-121.9392447
58,"Cupertino, California",department_store,ChIJzYVOZ361j4AR9Oa0YqTsY8g,Bed Bath & Beyond,"['department_store', 'home_goods_store', 'store', 'point_of_interest', 'establishment']","5201 Stevens Creek Boulevard, Santa Clara",37.3239569,-121.9936513
59,"Cupertino, California",department_store,ChIJG2JIQKvKj4ARCNyc9KgqEsU,Walmart Neighborhood Market,"['supermarket', 'department_store', 'grocery_or_supermarket', 'store', 'food', 'point_of_interest', 'establishment']","1600 Saratoga Avenue #501, San Jose",37.2914808,-121.9885518
0,"Santa Clara, California",department_store,ChIJjYjKgrK1j4ARPY2RJiUrNZ0,Target,"['department_store', 'furniture_store', 'grocery_or_supermarket', 'clothing_store', 'electronics_store', 'home_goods_store', 'store', 'food', 'point_of_interest', 'establishment']","20745 Stevens Creek Boulevard, Cupertino",37.3244439,-122.0360402
1,"Santa Clara, California",department_store,ChIJRYH3xqvKj4ARxlGQTTobmDo,Target,"['department_store', 'furniture_store', 'grocery_or_supermarket', 'clothing_store', 'electronics_store', 'home_goods_store', 'store', 'food', 'point_of_interest', 'establishment']","1600 Saratoga Avenue, San Jose",37.29128540000001,-121.9896296
2,"Santa Clara, California",department_store,ChIJgexMlR_Lj4ARSvwSxukOgys,Westfield Valley Fair,"['shopping_mall', 'shoe_store', 'department_store', 'clothing_store', 'store', 'restaurant', 'food', 'point_of_interest', 'establishment']","2855 Stevens Creek Boulevard, Santa Clara",37.3257904,-121.9457041
3,"Santa Clara, California",department_store,ChIJWXLTm93Jj4ARwki3xfmmYh8,T.J. Maxx & HomeGoods,"['department_store', 'jewelry_store', 'clothing_store', 'store', 'point_of_interest', 'establishment']","3201 Mission College Boulevard, Santa Clara",37.3899085,-121.9847552
4,"Santa Clara, California",department_store,ChIJdUorRQK2j4ARDuYzIg19H2Q,Costco Wholesale,"['department_store', 'store', 'point_of_interest', 'establishment']","150 Lawrence Station Road, Sunnyvale",37.3721958,-121.9948194
5,"Santa Clara, California",department_store,ChIJu0_5Dn61j4ARzxNWzkBsHaQ,Marshalls,"['department_store', 'clothing_store', 'store', 'point_of_interest', 'establishment']","5160 Stevens Creek Boulevard, San Jose",37.3212438,-121.9942252
6,"Santa Clara, California",department_store,ChIJ0ZvBZ8I0joARE5uTcT-Av9I,Marshalls,"['department_store', 'clothing_store', 'store', 'point_of_interest', 'establishment']","1875 South Bascom Avenue, Campbell",37.289248,-121.932678
7,"Santa Clara, California",department_store,ChIJqUSz4l22j4ARRjulQFPISrw,Target,"['department_store', 'furniture_store', 'grocery_or_supermarket', 'clothing_store', 'electronics_store', 'home_goods_store', 'store', 'food', 'point_of_interest', 'establishment']","298 West McKinley Avenue, Sunnyvale",37.37371890000001,-122.032319
8,"Santa Clara, California",department_store,ChIJ8WvuSB7Lj4ARFyHppkxDRQ4,Macy's,"['department_store', 'shoe_store', 'jewelry_store', 'furniture_store', 'clothing_store', 'home_goods_store', 'store', 'point_of_interest', 'establishment']","2801 Stevens Creek Boulevard, Santa Clara",37.324543,-121.948097
9,"Santa Clara, California",department_store,ChIJtfzpwNA0joARHcpoGXmEXH8,Kohl's Campbell,"['department_store', 'store', 'point_of_interest', 'establishment']","525 East Hamilton Avenue, Campbell",37.2965532,-121.9404893
10,"Santa Clara, California",department_store,ChIJRYH3xqvKj4ARn-9UegXiguo,Nordstrom Rack Westgate Mall,"['clothing_store', 'shoe_store', 'department_store', 'store', 'point_of_interest', 'establishment']","1600 Saratoga Avenue, San Jose",37.2930334,-121.987204
11,"Santa Clara, California",department_store,ChIJpQP2H7HLj4AR_gUbxOt_aIY,Costco Wholesale,"['department_store', 'store', 'point_of_interest', 'establishment']","1601 Coleman Avenue, Santa Clara",37.3569756,-121.9392447
12,"Santa Clara, California",department_store,ChIJYxODoGW2j4ARv-x49ss3cFw,Ross Dress for Less,"['clothing_store', 'shoe_store', 'department_store', 'store', 'point_of_interest', 'establishment']","119 East El Camino Real, Sunnyvale",37.36732620000001,-122.0292465
13,"Santa Clara, California",department_store,ChIJ7-50zF22j4AR9_Yg6f9cxaU,Macy's,"['department_store', 'shoe_store', 'jewelry_store', 'clothing_store', 'store', 'point_of_interest', 'establishment']","200 West Washington Avenue, Sunnyvale",37.3757419,-122.0316938
14,"Santa Clara, California",department_store,ChIJs7GzhhnMj4ARphqwUzhO6bg,Costco Wholesale,"['department_store', 'store', 'point_of_interest', 'establishment']","1709 Automation Parkway, San Jose",37.3895983,-121.8842253
15,"Santa Clara, California",department_store,ChIJPfEd8tTMj4ARuPTeEOO-2UU,Walmart Supercenter,"['department_store', 'supermarket', 'grocery_or_supermarket', 'electronics_store', 'store', 'food', 'point_of_interest', 'establishment']","777 Story Road, San Jose",37.3303636,-121.8599287
16,"Santa Clara, California",department_store,ChIJqeO8JtzIj4AR7GPGDRXZZZs,Walmart Pharmacy,"['pharmacy', 'department_store', 'store', 'health', 'point_of_interest', 'establishment']","301 Ranch Drive, Milpitas",37.4313889,-121.9212012
17,"Santa Clara, California",department_store,ChIJiTwdjmPLj4ARye5b71x5XjM,Marshalls,"['department_store', 'clothing_store', 'store', 'point_of_interest', 'establishment']","535 Coleman Avenue, San Jose",37.33885999999999,-121.905952
18,"Santa Clara, California",department_store,ChIJDRcDjmPLj4ARikFQ9nzGatY,Target,"['department_store', 'furniture_store', 'grocery_or_supermarket', 'clothing_store', 'electronics_store', 'home_goods_store', 'store', 'food', 'point_of_interest', 'establishment']","533 Coleman Avenue, San Jose",37.33867499999999,-121.9045291
19,"Santa Clara, California",department_store,ChIJ62_oCR7Lj4AR_MGWkSPotD4,Nordstrom,"['department_store', 'shoe_store', 'clothing_store', 'store', 'point_of_interest', 'establishment']","2400 Forest Avenue, San Jose",37.3262156,-121.9464684
0,"San Jose, California",department_store,ChIJsVcqqDzLj4ARA4YbWGxEPZs,Target,"['department_store', 'furniture_store', 'grocery_or_supermarket', 'clothing_store', 'electronics_store', 'home_goods_store', 'store', 'food', 'point_of_interest', 'establishment']","450 North Capitol Avenue, San Jose",37.374484,-121.8443913
1,"San Jose, California",department_store,ChIJkVHbJuEyjoAR79WervoTXJw,Costco Wholesale,"['department_store', 'store', 'point_of_interest', 'establishment']","2201 Senter Road, San Jose",37.3099607,-121.851511
2,"San Jose, California",department_store,ChIJgexMlR_Lj4ARSvwSxukOgys,Westfield Valley Fair,"['shopping_mall', 'shoe_store', 'department_store', 'clothing_store', 'store', 'restaurant', 'food', 'point_of_interest', 'establishment']","2855 Stevens Creek Boulevard, Santa Clara",37.3257904,-121.9457041
3,"San Jose, California",department_store,ChIJGdKH8KMyjoARyHKqkkZNiI8,Macy's,"['department_store', 'jewelry_store', 'furniture_store', 'clothing_store', 'home_goods_store', 'store', 'point_of_interest', 'establishment']","2210 Tully Road, San Jose",37.32601099999999,-121.814591
4,"San Jose, California",department_store,ChIJ0ZvBZ8I0joARE5uTcT-Av9I,Marshalls,"['department_store', 'clothing_store', 'store', 'point_of_interest', 'establishment']","1875 South Bascom Avenue, Campbell",37.289248,-121.932678
5,"San Jose, California",department_store,ChIJPfEd8tTMj4ARuPTeEOO-2UU,Walmart Supercenter,"['department_store', 'supermarket', 'grocery_or_supermarket', 'electronics_store', 'store', 'food', 'point_of_interest', 'establishment']","777 Story Road, San Jose",37.3303636,-121.8599287
6,"San Jose, California",department_store,ChIJtfzpwNA0joARHcpoGXmEXH8,Kohl's Campbell,"['department_store', 'store', 'point_of_interest', 'establishment']","525 East Hamilton Avenue, Campbell",37.2965532,-121.9404893
7,"San Jose, California",department_store,ChIJ8WvuSB7Lj4ARFyHppkxDRQ4,Macy's,"['department_store', 'shoe_store', 'jewelry_store', 'furniture_store', 'clothing_store', 'home_goods_store', 'store', 'point_of_interest', 'establishment']","2801 Stevens Creek Boulevard, Santa Clara",37.324543,-121.948097
8,"San Jose, California",department_store,ChIJs7GzhhnMj4ARphqwUzhO6bg,Costco Wholesale,"['department_store', 'store', 'point_of_interest', 'establishment']","1709 Automation Parkway, San Jose",37.3895983,-121.8842253
9,"San Jose, California",department_store,ChIJpQP2H7HLj4AR_gUbxOt_aIY,Costco Wholesale,"['department_store', 'store', 'point_of_interest', 'establishment']","1601 Coleman Avenue, Santa Clara",37.3569756,-121.9392447
10,"San Jose, California",department_store,ChIJAaxh9ZbOj4ARrS_WhXS39iQ,Target,"['department_store', 'furniture_store', 'grocery_or_supermarket', 'clothing_store', 'electronics_store', 'home_goods_store', 'store', 'food', 'point_of_interest', 'establishment']","2155 Morrill Avenue, San Jose",37.41370409999999,-121.8766917
11,"San Jose, California",department_store,ChIJPfEd8tTMj4ARbjps3iSdDjI,Walmart Pharmacy,"['pharmacy', 'department_store', 'store', 'health', 'point_of_interest', 'establishment']","777 Story Road, San Jose",37.33089400000001,-121.860817
12,"San Jose, California",department_store,ChIJ6f1JuoEyjoART97lr-wAmbE,Target,"['department_store', 'furniture_store', 'grocery_or_supermarket', 'clothing_store', 'electronics_store', 'home_goods_store', 'store', 'food', 'point_of_interest', 'establishment']","3155 Silver Creek Road, San Jose",37.3073744,-121.8133329
13,"San Jose, California",department_store,ChIJiTwdjmPLj4ARye5b71x5XjM,Marshalls,"['department_store', 'clothing_store', 'store', 'point_of_interest', 'establishment']","535 Coleman Avenue, San Jose",37.33885999999999,-121.905952
14,"San Jose, California",department_store,ChIJDRcDjmPLj4ARikFQ9nzGatY,Target,"['department_store', 'furniture_store', 'grocery_or_supermarket', 'clothing_store', 'electronics_store', 'home_goods_store', 'store', 'food', 'point_of_interest', 'establishment']","533 Coleman Avenue, San Jose",37.33867499999999,-121.9045291
15,"San Jose, California",department_store,ChIJOUtza9YzjoAR8RiD_Go0kRA,Macy's,"['department_store', 'jewelry_store', 'furniture_store', 'clothing_store', 'home_goods_store', 'store', 'point_of_interest', 'establishment']","5411 Thornwood Drive, San Jose",37.2532988,-121.8630812
16,"San Jose, California",department_store,ChIJ62_oCR7Lj4AR_MGWkSPotD4,Nordstrom,"['department_store', 'shoe_store', 'clothing_store', 'store', 'point_of_interest', 'establishment']","2400 Forest Avenue, San Jose",37.3262156,-121.9464684
17,"San Jose, California",department_store,ChIJ_V9dWW80joARGr_70_e27pI,Target,"['department_store', 'furniture_store', 'grocery_or_supermarket', 'clothing_store', 'electronics_store', 'home_goods_store', 'store', 'food', 'point_of_interest', 'establishment']","1811 Hillsdale Avenue, San Jose",37.2652533,-121.9188353
18,"San Jose, California",department_store,ChIJjUmd4NUzjoAR_CGjv4ZrHJY,Westfield Oakridge,"['shopping_mall', 'shoe_store', 'movie_theater', 'department_store', 'clothing_store', 'store', 'restaurant', 'food', 'point_of_interest', 'establishment']","925 Blossom Hill Road, San Jose",37.252543,-121.8627402
0,"Fremont, California",department_store,ChIJB2VclFq_j4ARNvTC8OC7vAw,JCPenney,"['department_store', 'shoe_store', 'jewelry_store', 'furniture_store', 'clothing_store', 'home_goods_store', 'store', 'point_of_interest', 'establishment']","500 Newpark Mall, Newark",37.526706,-121.999396
1,"Fremont, California",department_store,ChIJWzGYMc-Vj4ARbhulPHkR4r4,Walmart,"['supermarket', 'department_store', 'grocery_or_supermarket', 'store', 'food', 'point_of_interest', 'establishment']","30600 Dyer Street, Union City",37.6047604,-122.0674662
2,"Fremont, California",department_store,ChIJy72waMmVj4AREy9WTaMYvYA,Target,"['department_store', 'furniture_store', 'grocery_or_supermarket', 'clothing_store', 'electronics_store', 'home_goods_store', 'store', 'food', 'point_of_interest', 'establishment']","2499 Whipple Road, Hayward",37.60754600000001,-122.0624786
3,"Fremont, California",department_store,ChIJn6h8zmvHj4ARADy6KQ9ZhFM,Costco Wholesale,"['department_store', 'store', 'point_of_interest', 'establishment']","43621 Pacific Commons Boulevard, Fremont",37.5016072,-121.9730153
4,"Fremont, California",department_store,ChIJX8n2PVC_j4ARjWQSU6sO0_A,Macy's,"['department_store', 'jewelry_store', 'furniture_store', 'clothing_store', 'home_goods_store', 'store', 'point_of_interest', 'establishment']","200 Newpark Mall, Newark",37.52569,-122.00107
5,"Fremont, California",department_store,ChIJg2y74pjAj4ARjPeQNvOrHKc,Target,"['department_store', 'furniture_store', 'grocery_or_supermarket', 'clothing_store', 'electronics_store', 'home_goods_store', 'store', 'food', 'point_of_interest', 'establishment']","39201 Fremont Boulevard, Fremont",37.5452673,-121.9849801
6,"Fremont, California",department_store,ChIJq863nxPHj4ARAAzMTR7_9Uo,Kohl's Fremont,"['department_store', 'store', 'point_of_interest', 'establishment']","43782 Christy Street, Fremont",37.50374,-121.9669908
7,"Fremont, California",department_store,ChIJJyKtBVPHj4AR78nnFx_9oZE,Walmart,"['supermarket', 'department_store', 'grocery_or_supermarket', 'store', 'food', 'point_of_interest', 'establishment']","40580 Albrae Street, Fremont",37.52021339999999,-121.9856995
8,"Fremont, California",department_store,ChIJSaVddhPHj4ARX4tG7YxwEnY,Nordstrom Rack Pacific Commons Shopping Center,"['clothing_store', 'shoe_store', 'department_store', 'store', 'point_of_interest', 'establishment']","43706 Christy Street, Fremont",37.5050553,-121.966733
9,"Fremont, California",department_store,ChIJtyIHmpvAj4AROgBcA5DFfS0,Bed Bath & Beyond,"['department_store', 'home_goods_store', 'store', 'point_of_interest', 'establishment']","39125 Fremont Boulevard, Fremont",37.5454665,-121.9873179
10,"Fremont, California",department_store,ChIJNfJJU2rHj4ARxSGioJ_eBqY,Target,"['department_store', 'furniture_store', 'grocery_or_supermarket', 'clothing_store', 'electronics_store', 'home_goods_store', 'store', 'food', 'point_of_interest', 'establishment']","43950 Pacific Commons Boulevard, Fremont",37.5017165,-121.9680247
11,"Fremont, California",department_store,ChIJh2HMWuHGj4ARYOOeFZ7OIkE,Walmart,"['supermarket', 'department_store', 'grocery_or_supermarket', 'store', 'food', 'point_of_interest', 'establishment']","44009 Osgood Road, Fremont",37.5112447,-121.9432361
12,"Fremont, California",department_store,ChIJvyJUm0--j4AR2kxMqDZvO2A,Ross Dress for Less,"['clothing_store', 'shoe_store', 'department_store', 'store', 'point_of_interest', 'establishment']","5833 Jarvis Avenue, Newark",37.5527635,-122.0488703
13,"Fremont, California",department_store,ChIJ_y3o8JzAj4ARAXVBYO0m5_4,Ross Dress for Less,"['clothing_store', 'shoe_store', 'department_store', 'store', 'point_of_interest', 'establishment']","4112 Fremont Hub, Fremont",37.5465902,-121.9887516
14,"Fremont, California",department_store,ChIJu45uvVzGj4ARFhPfTsD4seg,Ross Dress for Less,"['clothing_store', 'shoe_store', 'department_store', 'store', 'point_of_interest', 'establishment']","46551 Mission Boulevard, Fremont",37.4920694,-121.9295516
15,"Fremont, California",department_store,ChIJJyKtBVPHj4ARKdeYve3nPdg,Walmart Pharmacy,"['pharmacy', 'department_store', 'store', 'health', 'point_of_interest', 'establishment']","40580 Albrae Street, Fremont",37.5202872,-121.9858107
16,"Fremont, California",department_store,ChIJh2HMWuHGj4AR-O1-RZHbiGc,Walmart Pharmacy,"['pharmacy', 'department_store', 'store', 'health', 'point_of_interest', 'establishment']","44009 Osgood Road, Fremont",37.51132399999999,-121.943227
17,"Fremont, California",department_store,ChIJ1c0PQ1q_j4ARlGmPNmfNMsQ,Sunglass Hut at Macy's,"['shopping_mall', 'department_store', 'store', 'point_of_interest', 'establishment']","200 Newpark Mall, Newark",37.5256639,-122.0010404
18,"Fremont, California",department_store,ChIJWzGYMc-Vj4ARbe6MkqHnSzw,Walmart Pharmacy,"['pharmacy', 'department_store', 'store', 'health', 'point_of_interest', 'establishment']","30600 Dyer Street, Union City",37.604716,-122.06731
19,"Fremont, California",department_store,ChIJiSaURpnAj4ARBWvqrAniSZk,Marshalls,"['department_store', 'clothing_store', 'store', 'point_of_interest', 'establishment']","39281 Fremont Hub, Fremont",37.545087,-121.986162
20,"Fremont, California",department_store,ChIJB2VclFq_j4ARNvTC8OC7vAw,JCPenney,"['department_store', 'shoe_store', 'jewelry_store', 'furniture_store', 'clothing_store', 'home_goods_store', 'store', 'point_of_interest', 'establishment']","500 Newpark Mall, Newark",37.526706,-121.999396
21,"Fremont, California",department_store,ChIJWzGYMc-Vj4ARbhulPHkR4r4,Walmart,"['supermarket', 'department_store', 'grocery_or_supermarket', 'store', 'food', 'point_of_interest', 'establishment']","30600 Dyer Street, Union City",37.6047604,-122.0674662
22,"Fremont, California",department_store,ChIJy72waMmVj4AREy9WTaMYvYA,Target,"['department_store', 'furniture_store', 'grocery_or_supermarket', 'clothing_store', 'electronics_store', 'home_goods_store', 'store', 'food', 'point_of_interest', 'establishment']","2499 Whipple Road, Hayward",37.60754600000001,-122.0624786
23,"Fremont, California",department_store,ChIJn6h8zmvHj4ARADy6KQ9ZhFM,Costco Wholesale,"['department_store', 'store', 'point_of_interest', 'establishment']","43621 Pacific Commons Boulevard, Fremont",37.5016072,-121.9730153
24,"Fremont, California",department_store,ChIJX8n2PVC_j4ARjWQSU6sO0_A,Macy's,"['department_store', 'jewelry_store', 'furniture_store', 'clothing_store', 'home_goods_store', 'store', 'point_of_interest', 'establishment']","200 Newpark Mall, Newark",37.52569,-122.00107
25,"Fremont, California",department_store,ChIJg2y74pjAj4ARjPeQNvOrHKc,Target,"['department_store', 'furniture_store', 'grocery_or_supermarket', 'clothing_store', 'electronics_store', 'home_goods_store', 'store', 'food', 'point_of_interest', 'establishment']","39201 Fremont Boulevard, Fremont",37.5452673,-121.9849801
26,"Fremont, California",department_store,ChIJq863nxPHj4ARAAzMTR7_9Uo,Kohl's Fremont,"['department_store', 'store', 'point_of_interest', 'establishment']","43782 Christy Street, Fremont",37.50374,-121.9669908
27,"Fremont, California",department_store,ChIJJyKtBVPHj4AR78nnFx_9oZE,Walmart,"['supermarket', 'department_store', 'grocery_or_supermarket', 'store', 'food', 'point_of_interest', 'establishment']","40580 Albrae Street, Fremont",37.52021339999999,-121.9856995
28,"Fremont, California",department_store,ChIJSaVddhPHj4ARX4tG7YxwEnY,Nordstrom Rack Pacific Commons Shopping Center,"['clothing_store', 'shoe_store', 'department_store', 'store', 'point_of_interest', 'establishment']","43706 Christy Street, Fremont",37.5050553,-121.966733
29,"Fremont, California",department_store,ChIJtyIHmpvAj4AROgBcA5DFfS0,Bed Bath & Beyond,"['department_store', 'home_goods_store', 'store', 'point_of_interest', 'establishment']","39125 Fremont Boulevard, Fremont",37.5454665,-121.9873179
30,"Fremont, California",department_store,ChIJNfJJU2rHj4ARxSGioJ_eBqY,Target,"['department_store', 'furniture_store', 'grocery_or_supermarket', 'clothing_store', 'electronics_store', 'home_goods_store', 'store', 'food', 'point_of_interest', 'establishment']","43950 Pacific Commons Boulevard, Fremont",37.5017165,-121.9680247
31,"Fremont, California",department_store,ChIJh2HMWuHGj4ARYOOeFZ7OIkE,Walmart,"['supermarket', 'department_store', 'grocery_or_supermarket', 'store', 'food', 'point_of_interest', 'establishment']","44009 Osgood Road, Fremont",37.5112447,-121.9432361
32,"Fremont, California",department_store,ChIJvyJUm0--j4AR2kxMqDZvO2A,Ross Dress for Less,"['clothing_store', 'shoe_store', 'department_store', 'store', 'point_of_interest', 'establishment']","5833 Jarvis Avenue, Newark",37.5527635,-122.0488703
33,"Fremont, California",department_store,ChIJ_y3o8JzAj4ARAXVBYO0m5_4,Ross Dress for Less,"['clothing_store', 'shoe_store', 'department_store', 'store', 'point_of_interest', 'establishment']","4112 Fremont Hub, Fremont",37.5465902,-121.9887516
34,"Fremont, California",department_store,ChIJu45uvVzGj4ARFhPfTsD4seg,Ross Dress for Less,"['clothing_store', 'shoe_store', 'department_store', 'store', 'point_of_interest', 'establishment']","46551 Mission Boulevard, Fremont",37.4920694,-121.9295516
35,"Fremont, California",department_store,ChIJJyKtBVPHj4ARKdeYve3nPdg,Walmart Pharmacy,"['pharmacy', 'department_store', 'store', 'health', 'point_of_interest', 'establishment']","40580 Albrae Street, Fremont",37.5202872,-121.9858107
36,"Fremont, California",department_store,ChIJh2HMWuHGj4AR-O1-RZHbiGc,Walmart Pharmacy,"['pharmacy', 'department_store', 'store', 'health', 'point_of_interest', 'establishment']","44009 Osgood Road, Fremont",37.51132399999999,-121.943227
37,"Fremont, California",department_store,ChIJ1c0PQ1q_j4ARlGmPNmfNMsQ,Sunglass Hut at Macy's,"['shopping_mall', 'department_store', 'store', 'point_of_interest', 'establishment']","200 Newpark Mall, Newark",37.5256639,-122.0010404
38,"Fremont, California",department_store,ChIJWzGYMc-Vj4ARbe6MkqHnSzw,Walmart Pharmacy,"['pharmacy', 'department_store', 'store', 'health', 'point_of_interest', 'establishment']","30600 Dyer Street, Union City",37.604716,-122.06731
39,"Fremont, California",department_store,ChIJiSaURpnAj4ARBWvqrAniSZk,Marshalls,"['department_store', 'clothing_store', 'store', 'point_of_interest', 'establishment']","39281 Fremont Hub, Fremont",37.545087,-121.986162
40,"Fremont, California",department_store,ChIJB2VclFq_j4ARNvTC8OC7vAw,JCPenney,"['department_store', 'shoe_store', 'jewelry_store', 'furniture_store', 'clothing_store', 'home_goods_store', 'store', 'point_of_interest', 'establishment']","500 Newpark Mall, Newark",37.526706,-121.999396
41,"Fremont, California",department_store,ChIJWzGYMc-Vj4ARbhulPHkR4r4,Walmart,"['supermarket', 'department_store', 'grocery_or_supermarket', 'store', 'food', 'point_of_interest', 'establishment']","30600 Dyer Street, Union City",37.6047604,-122.0674662
42,"Fremont, California",department_store,ChIJy72waMmVj4AREy9WTaMYvYA,Target,"['department_store', 'furniture_store', 'grocery_or_supermarket', 'clothing_store', 'electronics_store', 'home_goods_store', 'store', 'food', 'point_of_interest', 'establishment']","2499 Whipple Road, Hayward",37.60754600000001,-122.0624786
43,"Fremont, California",department_store,ChIJn6h8zmvHj4ARADy6KQ9ZhFM,Costco Wholesale,"['department_store', 'store', 'point_of_interest', 'establishment']","43621 Pacific Commons Boulevard, Fremont",37.5016072,-121.9730153
44,"Fremont, California",department_store,ChIJX8n2PVC_j4ARjWQSU6sO0_A,Macy's,"['department_store', 'jewelry_store', 'furniture_store', 'clothing_store', 'home_goods_store', 'store', 'point_of_interest', 'establishment']","200 Newpark Mall, Newark",37.52569,-122.00107
45,"Fremont, California",department_store,ChIJg2y74pjAj4ARjPeQNvOrHKc,Target,"['department_store', 'furniture_store', 'grocery_or_supermarket', 'clothing_store', 'electronics_store', 'home_goods_store', 'store', 'food', 'point_of_interest', 'establishment']","39201 Fremont Boulevard, Fremont",37.5452673,-121.9849801
46,"Fremont, California",department_store,ChIJq863nxPHj4ARAAzMTR7_9Uo,Kohl's Fremont,"['department_store', 'store', 'point_of_interest', 'establishment']","43782 Christy Street, Fremont",37.50374,-121.9669908
47,"Fremont, California",department_store,ChIJJyKtBVPHj4AR78nnFx_9oZE,Walmart,"['supermarket', 'department_store', 'grocery_or_supermarket', 'store', 'food', 'point_of_interest', 'establishment']","40580 Albrae Street, Fremont",37.52021339999999,-121.9856995
48,"Fremont, California",department_store,ChIJSaVddhPHj4ARX4tG7YxwEnY,Nordstrom Rack Pacific Commons Shopping Center,"['clothing_store', 'shoe_store', 'department_store', 'store', 'point_of_interest', 'establishment']","43706 Christy Street, Fremont",37.5050553,-121.966733
49,"Fremont, California",department_store,ChIJtyIHmpvAj4AROgBcA5DFfS0,Bed Bath & Beyond,"['department_store', 'home_goods_store', 'store', 'point_of_interest', 'establishment']","39125 Fremont Boulevard, Fremont",37.5454665,-121.9873179
50,"Fremont, California",department_store,ChIJNfJJU2rHj4ARxSGioJ_eBqY,Target,"['department_store', 'furniture_store', 'grocery_or_supermarket', 'clothing_store', 'electronics_store', 'home_goods_store', 'store', 'food', 'point_of_interest', 'establishment']","43950 Pacific Commons Boulevard, Fremont",37.5017165,-121.9680247
51,"Fremont, California",department_store,ChIJh2HMWuHGj4ARYOOeFZ7OIkE,Walmart,"['supermarket', 'department_store', 'grocery_or_supermarket', 'store', 'food', 'point_of_interest', 'establishment']","44009 Osgood Road, Fremont",37.5112447,-121.9432361
52,"Fremont, California",department_store,ChIJvyJUm0--j4AR2kxMqDZvO2A,Ross Dress for Less,"['clothing_store', 'shoe_store', 'department_store', 'store', 'point_of_interest', 'establishment']","5833 Jarvis Avenue, Newark",37.5527635,-122.0488703
53,"Fremont, California",department_store,ChIJ_y3o8JzAj4ARAXVBYO0m5_4,Ross Dress for Less,"['clothing_store', 'shoe_store', 'department_store', 'store', 'point_of_interest', 'establishment']","4112 Fremont Hub, Fremont",37.5465902,-121.9887516
54,"Fremont, California",department_store,ChIJu45uvVzGj4ARFhPfTsD4seg,Ross Dress for Less,"['clothing_store', 'shoe_store', 'department_store', 'store', 'point_of_interest', 'establishment']","46551 Mission Boulevard, Fremont",37.4920694,-121.9295516
55,"Fremont, California",department_store,ChIJJyKtBVPHj4ARKdeYve3nPdg,Walmart Pharmacy,"['pharmacy', 'department_store', 'store', 'health', 'point_of_interest', 'establishment']","40580 Albrae Street, Fremont",37.5202872,-121.9858107
56,"Fremont, California",department_store,ChIJh2HMWuHGj4AR-O1-RZHbiGc,Walmart Pharmacy,"['pharmacy', 'department_store', 'store', 'health', 'point_of_interest', 'establishment']","44009 Osgood Road, Fremont",37.51132399999999,-121.943227
57,"Fremont, California",department_store,ChIJ1c0PQ1q_j4ARlGmPNmfNMsQ,Sunglass Hut at Macy's,"['shopping_mall', 'department_store', 'store', 'point_of_interest', 'establishment']","200 Newpark Mall, Newark",37.5256639,-122.0010404
58,"Fremont, California",department_store,ChIJWzGYMc-Vj4ARbe6MkqHnSzw,Walmart Pharmacy,"['pharmacy', 'department_store', 'store', 'health', 'point_of_interest', 'establishment']","30600 Dyer Street, Union City",37.604716,-122.06731
59,"Fremont, California",department_store,ChIJiSaURpnAj4ARBWvqrAniSZk,Marshalls,"['department_store', 'clothing_store', 'store', 'point_of_interest', 'establishment']","39281 Fremont Hub, Fremont",37.545087,-121.986162
