,City,Type,Place ID,Name,Point of interests,Address,Lat,Lng
0,"San Francisco, California",gym,ChIJ4S9oyC9-j4ARtZ2_aMrFziE,24 Hour Fitness,"['gym', 'health', 'point_of_interest', 'establishment']","1645 Bryant Street, San Francisco",37.766513,-122.4102957
1,"San Francisco, California",gym,ChIJYR3cR92GhYAReMwzpHwVcI8,Planet Granite San Francisco,"['gym', 'health', 'point_of_interest', 'establishment']","924 Mason Street, San Francisco",37.8041834,-122.4680738
2,"San Francisco, California",gym,ChIJ41jg5xR-j4ARbMPPFtrBVL0,24 Hour Fitness,"['gym', 'health', 'point_of_interest', 'establishment']","3800 24th Street #2, San Francisco",37.7518678,-122.4277682
3,"San Francisco, California",gym,ChIJZV5ky5WAhYAR5R8000ysu9c,24 Hour Fitness,"['gym', 'health', 'point_of_interest', 'establishment']","1200 Van Ness Avenue, San Francisco",37.7867894,-122.4213437
4,"San Francisco, California",gym,ChIJi_z_a6KAhYARHyEzLOKy6xQ,Yoga Tree Hayes,"['gym', 'health', 'school', 'point_of_interest', 'establishment']","519 Hayes Street, San Francisco",37.776507,-122.425014
5,"San Francisco, California",gym,ChIJTfLGi5aAhYARxz-WxDeTg-s,Studiomix,"['gym', 'health', 'point_of_interest', 'establishment']","1000 Van Ness Avenue, San Francisco",37.7849743,-122.4210279
6,"San Francisco, California",gym,ChIJIfsvpGKAhYARPh_Br75kRVA,Crunch Fitness - New Montgomery,"['gym', 'health', 'point_of_interest', 'establishment']","61 New Montgomery Street, San Francisco",37.7880708,-122.4010473
7,"San Francisco, California",gym,ChIJx6UCcmGAhYARhxgrU26yWXs,24 Hour Fitness,"['gym', 'health', 'point_of_interest', 'establishment']","100 California Street #200, San Francisco",37.793949,-122.398062
8,"San Francisco, California",gym,ChIJVemsgR5-j4AR2XqwXA2NOq0,24 Hour Fitness,"['gym', 'health', 'point_of_interest', 'establishment']","2145 Market Street, San Francisco",37.7666737,-122.4296664
9,"San Francisco, California",gym,ChIJ6dh9yAR-j4ARiKzSbMDrhDw,Yoga Tree Castro,"['gym', 'health', 'point_of_interest', 'establishment']","97 Collingwood Street, San Francisco",37.76105099999999,-122.436003
10,"San Francisco, California",gym,ChIJ5cDMKoiAhYARvipFiF6XeVY,24 Hour Fitness,"['gym', 'health', 'point_of_interest', 'establishment']","45 Montgomery Street, San Francisco",37.78991080000001,-122.402327
11,"San Francisco, California",gym,ChIJW2CnOsx9j4AR0dldogudkbo,24 Hour Fitness,"['gym', 'health', 'point_of_interest', 'establishment']","1850 Ocean Avenue, San Francisco",37.7253981,-122.462015
12,"San Francisco, California",gym,ChIJ41m1p2WAhYARrReqL2tNixw,Embarcadero YMCA,"['gym', 'health', 'point_of_interest', 'establishment']","169 Steuart Street, San Francisco",37.7927007,-122.3919995
13,"San Francisco, California",gym,ChIJOUp-SvaAhYARA9Tq8at4bJ8,Bay Club San Francisco,"['spa', 'gym', 'health', 'point_of_interest', 'establishment']","150 Greenwich Street, San Francisco",37.8034776,-122.4027084
14,"San Francisco, California",gym,ChIJ2w1prsKGhYARtwWSmddNj4s,House of Air Trampoline Park,"['gym', 'health', 'point_of_interest', 'establishment']","926 Mason Street, San Francisco",37.804884,-122.468803
15,"San Francisco, California",gym,ChIJD8lAkMmAhYAR9aXmbG2fjt8,YogaWorks San Francisco,"['gym', 'clothing_store', 'store', 'health', 'point_of_interest', 'establishment']","1823 Divisadero Street, San Francisco",37.786472,-122.440288
16,"San Francisco, California",gym,ChIJQ2qEqDB-j4ARfAbDE0-IWvo,Mission Cliffs,"['gym', 'health', 'point_of_interest', 'establishment']","2295 Harrison Street, San Francisco",37.760997,-122.4126048
17,"San Francisco, California",gym,ChIJpR9qzeSAhYAR8GjeGFgUIhk,24 Hour Fitness,"['gym', 'health', 'point_of_interest', 'establishment']","350 Bay Street, San Francisco",37.8059037,-122.412807
18,"San Francisco, California",gym,ChIJmaQIaFGHhYARpiGtZ91tAeY,Yoga Tree Stanyan,"['gym', 'health', 'point_of_interest', 'establishment']","780 Stanyan Street, San Francisco",37.76772700000001,-122.453067
19,"San Francisco, California",gym,ChIJ4XP5hoiAhYARDfrc7AOB_Vw,Equinox Sports Club San Francisco,"['gym', 'spa', 'health', 'point_of_interest', 'establishment']","747 Market Street, San Francisco",37.7866638,-122.4043996
20,"San Francisco, California",gym,ChIJ4S9oyC9-j4ARtZ2_aMrFziE,24 Hour Fitness,"['gym', 'health', 'point_of_interest', 'establishment']","1645 Bryant Street, San Francisco",37.766513,-122.4102957
21,"San Francisco, California",gym,ChIJYR3cR92GhYAReMwzpHwVcI8,Planet Granite San Francisco,"['gym', 'health', 'point_of_interest', 'establishment']","924 Mason Street, San Francisco",37.8041834,-122.4680738
22,"San Francisco, California",gym,ChIJ41jg5xR-j4ARbMPPFtrBVL0,24 Hour Fitness,"['gym', 'health', 'point_of_interest', 'establishment']","3800 24th Street #2, San Francisco",37.7518678,-122.4277682
23,"San Francisco, California",gym,ChIJZV5ky5WAhYAR5R8000ysu9c,24 Hour Fitness,"['gym', 'health', 'point_of_interest', 'establishment']","1200 Van Ness Avenue, San Francisco",37.7867894,-122.4213437
24,"San Francisco, California",gym,ChIJi_z_a6KAhYARHyEzLOKy6xQ,Yoga Tree Hayes,"['gym', 'health', 'school', 'point_of_interest', 'establishment']","519 Hayes Street, San Francisco",37.776507,-122.425014
25,"San Francisco, California",gym,ChIJTfLGi5aAhYARxz-WxDeTg-s,Studiomix,"['gym', 'health', 'point_of_interest', 'establishment']","1000 Van Ness Avenue, San Francisco",37.7849743,-122.4210279
26,"San Francisco, California",gym,ChIJIfsvpGKAhYARPh_Br75kRVA,Crunch Fitness - New Montgomery,"['gym', 'health', 'point_of_interest', 'establishment']","61 New Montgomery Street, San Francisco",37.7880708,-122.4010473
27,"San Francisco, California",gym,ChIJx6UCcmGAhYARhxgrU26yWXs,24 Hour Fitness,"['gym', 'health', 'point_of_interest', 'establishment']","100 California Street #200, San Francisco",37.793949,-122.398062
28,"San Francisco, California",gym,ChIJVemsgR5-j4AR2XqwXA2NOq0,24 Hour Fitness,"['gym', 'health', 'point_of_interest', 'establishment']","2145 Market Street, San Francisco",37.7666737,-122.4296664
29,"San Francisco, California",gym,ChIJ6dh9yAR-j4ARiKzSbMDrhDw,Yoga Tree Castro,"['gym', 'health', 'point_of_interest', 'establishment']","97 Collingwood Street, San Francisco",37.76105099999999,-122.436003
30,"San Francisco, California",gym,ChIJ5cDMKoiAhYARvipFiF6XeVY,24 Hour Fitness,"['gym', 'health', 'point_of_interest', 'establishment']","45 Montgomery Street, San Francisco",37.78991080000001,-122.402327
31,"San Francisco, California",gym,ChIJW2CnOsx9j4AR0dldogudkbo,24 Hour Fitness,"['gym', 'health', 'point_of_interest', 'establishment']","1850 Ocean Avenue, San Francisco",37.7253981,-122.462015
32,"San Francisco, California",gym,ChIJ41m1p2WAhYARrReqL2tNixw,Embarcadero YMCA,"['gym', 'health', 'point_of_interest', 'establishment']","169 Steuart Street, San Francisco",37.7927007,-122.3919995
33,"San Francisco, California",gym,ChIJOUp-SvaAhYARA9Tq8at4bJ8,Bay Club San Francisco,"['spa', 'gym', 'health', 'point_of_interest', 'establishment']","150 Greenwich Street, San Francisco",37.8034776,-122.4027084
34,"San Francisco, California",gym,ChIJ2w1prsKGhYARtwWSmddNj4s,House of Air Trampoline Park,"['gym', 'health', 'point_of_interest', 'establishment']","926 Mason Street, San Francisco",37.804884,-122.468803
35,"San Francisco, California",gym,ChIJD8lAkMmAhYAR9aXmbG2fjt8,YogaWorks San Francisco,"['gym', 'clothing_store', 'store', 'health', 'point_of_interest', 'establishment']","1823 Divisadero Street, San Francisco",37.786472,-122.440288
36,"San Francisco, California",gym,ChIJQ2qEqDB-j4ARfAbDE0-IWvo,Mission Cliffs,"['gym', 'health', 'point_of_interest', 'establishment']","2295 Harrison Street, San Francisco",37.760997,-122.4126048
37,"San Francisco, California",gym,ChIJpR9qzeSAhYAR8GjeGFgUIhk,24 Hour Fitness,"['gym', 'health', 'point_of_interest', 'establishment']","350 Bay Street, San Francisco",37.8059037,-122.412807
38,"San Francisco, California",gym,ChIJmaQIaFGHhYARpiGtZ91tAeY,Yoga Tree Stanyan,"['gym', 'health', 'point_of_interest', 'establishment']","780 Stanyan Street, San Francisco",37.76772700000001,-122.453067
39,"San Francisco, California",gym,ChIJ4XP5hoiAhYARDfrc7AOB_Vw,Equinox Sports Club San Francisco,"['gym', 'spa', 'health', 'point_of_interest', 'establishment']","747 Market Street, San Francisco",37.7866638,-122.4043996
40,"San Francisco, California",gym,ChIJ4S9oyC9-j4ARtZ2_aMrFziE,24 Hour Fitness,"['gym', 'health', 'point_of_interest', 'establishment']","1645 Bryant Street, San Francisco",37.766513,-122.4102957
41,"San Francisco, California",gym,ChIJYR3cR92GhYAReMwzpHwVcI8,Planet Granite San Francisco,"['gym', 'health', 'point_of_interest', 'establishment']","924 Mason Street, San Francisco",37.8041834,-122.4680738
42,"San Francisco, California",gym,ChIJ41jg5xR-j4ARbMPPFtrBVL0,24 Hour Fitness,"['gym', 'health', 'point_of_interest', 'establishment']","3800 24th Street #2, San Francisco",37.7518678,-122.4277682
43,"San Francisco, California",gym,ChIJZV5ky5WAhYAR5R8000ysu9c,24 Hour Fitness,"['gym', 'health', 'point_of_interest', 'establishment']","1200 Van Ness Avenue, San Francisco",37.7867894,-122.4213437
44,"San Francisco, California",gym,ChIJi_z_a6KAhYARHyEzLOKy6xQ,Yoga Tree Hayes,"['gym', 'health', 'school', 'point_of_interest', 'establishment']","519 Hayes Street, San Francisco",37.776507,-122.425014
45,"San Francisco, California",gym,ChIJTfLGi5aAhYARxz-WxDeTg-s,Studiomix,"['gym', 'health', 'point_of_interest', 'establishment']","1000 Van Ness Avenue, San Francisco",37.7849743,-122.4210279
46,"San Francisco, California",gym,ChIJIfsvpGKAhYARPh_Br75kRVA,Crunch Fitness - New Montgomery,"['gym', 'health', 'point_of_interest', 'establishment']","61 New Montgomery Street, San Francisco",37.7880708,-122.4010473
47,"San Francisco, California",gym,ChIJx6UCcmGAhYARhxgrU26yWXs,24 Hour Fitness,"['gym', 'health', 'point_of_interest', 'establishment']","100 California Street #200, San Francisco",37.793949,-122.398062
48,"San Francisco, California",gym,ChIJVemsgR5-j4AR2XqwXA2NOq0,24 Hour Fitness,"['gym', 'health', 'point_of_interest', 'establishment']","2145 Market Street, San Francisco",37.7666737,-122.4296664
49,"San Francisco, California",gym,ChIJ6dh9yAR-j4ARiKzSbMDrhDw,Yoga Tree Castro,"['gym', 'health', 'point_of_interest', 'establishment']","97 Collingwood Street, San Francisco",37.76105099999999,-122.436003
50,"San Francisco, California",gym,ChIJ5cDMKoiAhYARvipFiF6XeVY,24 Hour Fitness,"['gym', 'health', 'point_of_interest', 'establishment']","45 Montgomery Street, San Francisco",37.78991080000001,-122.402327
51,"San Francisco, California",gym,ChIJW2CnOsx9j4AR0dldogudkbo,24 Hour Fitness,"['gym', 'health', 'point_of_interest', 'establishment']","1850 Ocean Avenue, San Francisco",37.7253981,-122.462015
52,"San Francisco, California",gym,ChIJ41m1p2WAhYARrReqL2tNixw,Embarcadero YMCA,"['gym', 'health', 'point_of_interest', 'establishment']","169 Steuart Street, San Francisco",37.7927007,-122.3919995
53,"San Francisco, California",gym,ChIJOUp-SvaAhYARA9Tq8at4bJ8,Bay Club San Francisco,"['spa', 'gym', 'health', 'point_of_interest', 'establishment']","150 Greenwich Street, San Francisco",37.8034776,-122.4027084
54,"San Francisco, California",gym,ChIJ2w1prsKGhYARtwWSmddNj4s,House of Air Trampoline Park,"['gym', 'health', 'point_of_interest', 'establishment']","926 Mason Street, San Francisco",37.804884,-122.468803
55,"San Francisco, California",gym,ChIJD8lAkMmAhYAR9aXmbG2fjt8,YogaWorks San Francisco,"['gym', 'clothing_store', 'store', 'health', 'point_of_interest', 'establishment']","1823 Divisadero Street, San Francisco",37.786472,-122.440288
56,"San Francisco, California",gym,ChIJQ2qEqDB-j4ARfAbDE0-IWvo,Mission Cliffs,"['gym', 'health', 'point_of_interest', 'establishment']","2295 Harrison Street, San Francisco",37.760997,-122.4126048
57,"San Francisco, California",gym,ChIJpR9qzeSAhYAR8GjeGFgUIhk,24 Hour Fitness,"['gym', 'health', 'point_of_interest', 'establishment']","350 Bay Street, San Francisco",37.8059037,-122.412807
58,"San Francisco, California",gym,ChIJmaQIaFGHhYARpiGtZ91tAeY,Yoga Tree Stanyan,"['gym', 'health', 'point_of_interest', 'establishment']","780 Stanyan Street, San Francisco",37.76772700000001,-122.453067
59,"San Francisco, California",gym,ChIJ4XP5hoiAhYARDfrc7AOB_Vw,Equinox Sports Club San Francisco,"['gym', 'spa', 'health', 'point_of_interest', 'establishment']","747 Market Street, San Francisco",37.7866638,-122.4043996
0,"Redwood City, California",gym,ChIJueE1gD-ij4ARfR8AJ0P9sk4,24 Hour Fitness,"['gym', 'health', 'point_of_interest', 'establishment']","1650 Industrial Road, San Carlos",37.4989491,-122.2432303
1,"Redwood City, California",gym,ChIJt-qrchOjj4ARNO7YTX-WZt8,NCFIT,"['gym', 'health', 'point_of_interest', 'establishment']","3151 Edison Way, Redwood City",37.4765259,-122.2043851
2,"Redwood City, California",gym,ChIJ3doCJT6fj4AREELgKTy5Bf8,Planet Granite Belmont,"['gym', 'health', 'point_of_interest', 'establishment']","100 El Camino Real, Belmont",37.528982,-122.287498
3,"Redwood City, California",gym,ChIJMZbDZ1mej4ARr-35GfLYg5o,24 Hour Fitness,"['gym', 'health', 'point_of_interest', 'establishment']","93 Bovet Road, San Mateo",37.5497793,-122.3147917
4,"Redwood City, California",gym,ChIJ_Winrv2ej4ARPD9YpG7ak-E,Fitness 19,"['gym', 'health', 'point_of_interest', 'establishment']","2727 South El Camino Real D, San Mateo",37.5429115,-122.3025499
5,"Redwood City, California",gym,ChIJZ0X2Pzq7j4ARTUf3Dn69vrM,YogaSource,"['gym', 'health', 'point_of_interest', 'establishment']","158 Hamilton Avenue, Palo Alto",37.4433512,-122.1617459
6,"Redwood City, California",gym,ChIJR1zVrqeYj4ARbPyIHUfFoRI,Bay Club Redwood Shores,"['gym', 'health', 'point_of_interest', 'establishment']","200 Redwood Shores Parkway, Redwood City",37.51954,-122.2516689
7,"Redwood City, California",gym,ChIJwerexgWij4ARS6I2kDtUaPA,Team Taf 17- Elite Training,"['gym', 'health', 'point_of_interest', 'establishment']","595 Industrial Road, San Carlos",37.5111376,-122.2559505
8,"Redwood City, California",gym,ChIJN0uBoASij4AR8oQ73Ih71ps,Yoga Health Center,"['gym', 'health', 'point_of_interest', 'establishment']","677 Laurel Street #200, San Carlos",37.5055252,-122.2594969
9,"Redwood City, California",gym,ChIJR1zVrqeYj4AR10iEfUPPxmg,BaySport at Bay Club Redwood Shores,"['doctor', 'gym', 'health', 'point_of_interest', 'establishment']","200 Redwood Shores Parkway, Redwood City",37.5197954,-122.2512455
10,"Redwood City, California",gym,ChIJ1U0nglGfj4AR5YfOYXxcwCI,San Mateo Gymnastics in Belmont,"['gym', 'health', 'point_of_interest', 'establishment']","1306 Elmer Street, Belmont",37.5192461,-122.2713053
11,"Redwood City, California",gym,ChIJzRko19Kej4ARUxxKbfnVeoM,PJCC - Peninsula Jewish Community Center,"['spa', 'gym', 'health', 'school', 'point_of_interest', 'establishment']","800 Foster City Boulevard, Foster City",37.559173,-122.265923
12,"Redwood City, California",gym,ChIJkwWN_Ti7j4ARsYSFsUUlZf4,lululemon,"['shoe_store', 'gym', 'clothing_store', 'store', 'health', 'point_of_interest', 'establishment']","432 University Avenue, Palo Alto",37.4474367,-122.1598368
13,"Redwood City, California",gym,ChIJT3uPN-Cej4ARV29wfuNCnk0,Crunch Fitness - San Mateo,"['gym', 'health', 'point_of_interest', 'establishment']","1150 Park Place, San Mateo",37.5454091,-122.2902306
14,"Redwood City, California",gym,ChIJ9XD0vwWij4ARaWJT7w7UqBQ,Undisputed Boxing Gym,"['gym', 'health', 'point_of_interest', 'establishment']","380 Convention Way, Redwood City",37.4948704,-122.2298836
15,"Redwood City, California",gym,ChIJ1U0nglGfj4ARBHiD8CzVQZM,Belmont Fit Body Boot Camp,"['gym', 'health', 'point_of_interest', 'establishment']","1306 Elmer Street, San Carlos",37.5190915,-122.2713658
16,"Redwood City, California",gym,ChIJi5FqsMq8j4ARzeMfpb_Xohw,Bayfront Fitness,"['gym', 'health', 'point_of_interest', 'establishment']","161 Constitution Drive, Menlo Park",37.48446399999999,-122.174104
17,"Redwood City, California",gym,ChIJ6a56IlSfj4ARum2l-JwFn9o,Purely Pilates,"['gym', 'health', 'point_of_interest', 'establishment']","1501 El Camino Real suite i, Belmont",37.5153521,-122.269468
18,"Redwood City, California",gym,ChIJiyuolhWfj4ARkz00XMRh8Dc,Tat Wong Kung Fu Academy,"['gym', 'health', 'point_of_interest', 'establishment']","25 43rd Avenue, San Mateo",37.5291623,-122.2886546
19,"Redwood City, California",gym,ChIJgfjkWemkj4AR7Z4Dr-66API,Studio Rincon,"['gym', 'health', 'school', 'point_of_interest', 'establishment']","3536 Alameda de las Pulgas, Menlo Park",37.4318828,-122.202216
20,"Redwood City, California",gym,ChIJueE1gD-ij4ARfR8AJ0P9sk4,24 Hour Fitness,"['gym', 'health', 'point_of_interest', 'establishment']","1650 Industrial Road, San Carlos",37.4989491,-122.2432303
21,"Redwood City, California",gym,ChIJt-qrchOjj4ARNO7YTX-WZt8,NCFIT,"['gym', 'health', 'point_of_interest', 'establishment']","3151 Edison Way, Redwood City",37.4765259,-122.2043851
22,"Redwood City, California",gym,ChIJ3doCJT6fj4AREELgKTy5Bf8,Planet Granite Belmont,"['gym', 'health', 'point_of_interest', 'establishment']","100 El Camino Real, Belmont",37.528982,-122.287498
23,"Redwood City, California",gym,ChIJMZbDZ1mej4ARr-35GfLYg5o,24 Hour Fitness,"['gym', 'health', 'point_of_interest', 'establishment']","93 Bovet Road, San Mateo",37.5497793,-122.3147917
24,"Redwood City, California",gym,ChIJ_Winrv2ej4ARPD9YpG7ak-E,Fitness 19,"['gym', 'health', 'point_of_interest', 'establishment']","2727 South El Camino Real D, San Mateo",37.5429115,-122.3025499
25,"Redwood City, California",gym,ChIJZ0X2Pzq7j4ARTUf3Dn69vrM,YogaSource,"['gym', 'health', 'point_of_interest', 'establishment']","158 Hamilton Avenue, Palo Alto",37.4433512,-122.1617459
26,"Redwood City, California",gym,ChIJR1zVrqeYj4ARbPyIHUfFoRI,Bay Club Redwood Shores,"['gym', 'health', 'point_of_interest', 'establishment']","200 Redwood Shores Parkway, Redwood City",37.51954,-122.2516689
27,"Redwood City, California",gym,ChIJwerexgWij4ARS6I2kDtUaPA,Team Taf 17- Elite Training,"['gym', 'health', 'point_of_interest', 'establishment']","595 Industrial Road, San Carlos",37.5111376,-122.2559505
28,"Redwood City, California",gym,ChIJN0uBoASij4AR8oQ73Ih71ps,Yoga Health Center,"['gym', 'health', 'point_of_interest', 'establishment']","677 Laurel Street #200, San Carlos",37.5055252,-122.2594969
29,"Redwood City, California",gym,ChIJR1zVrqeYj4AR10iEfUPPxmg,BaySport at Bay Club Redwood Shores,"['doctor', 'gym', 'health', 'point_of_interest', 'establishment']","200 Redwood Shores Parkway, Redwood City",37.5197954,-122.2512455
30,"Redwood City, California",gym,ChIJ1U0nglGfj4AR5YfOYXxcwCI,San Mateo Gymnastics in Belmont,"['gym', 'health', 'point_of_interest', 'establishment']","1306 Elmer Street, Belmont",37.5192461,-122.2713053
31,"Redwood City, California",gym,ChIJzRko19Kej4ARUxxKbfnVeoM,PJCC - Peninsula Jewish Community Center,"['spa', 'gym', 'health', 'school', 'point_of_interest', 'establishment']","800 Foster City Boulevard, Foster City",37.559173,-122.265923
32,"Redwood City, California",gym,ChIJkwWN_Ti7j4ARsYSFsUUlZf4,lululemon,"['shoe_store', 'gym', 'clothing_store', 'store', 'health', 'point_of_interest', 'establishment']","432 University Avenue, Palo Alto",37.4474367,-122.1598368
33,"Redwood City, California",gym,ChIJT3uPN-Cej4ARV29wfuNCnk0,Crunch Fitness - San Mateo,"['gym', 'health', 'point_of_interest', 'establishment']","1150 Park Place, San Mateo",37.5454091,-122.2902306
34,"Redwood City, California",gym,ChIJ9XD0vwWij4ARaWJT7w7UqBQ,Undisputed Boxing Gym,"['gym', 'health', 'point_of_interest', 'establishment']","380 Convention Way, Redwood City",37.4948704,-122.2298836
35,"Redwood City, California",gym,ChIJ1U0nglGfj4ARBHiD8CzVQZM,Belmont Fit Body Boot Camp,"['gym', 'health', 'point_of_interest', 'establishment']","1306 Elmer Street, San Carlos",37.5190915,-122.2713658
36,"Redwood City, California",gym,ChIJi5FqsMq8j4ARzeMfpb_Xohw,Bayfront Fitness,"['gym', 'health', 'point_of_interest', 'establishment']","161 Constitution Drive, Menlo Park",37.48446399999999,-122.174104
37,"Redwood City, California",gym,ChIJ6a56IlSfj4ARum2l-JwFn9o,Purely Pilates,"['gym', 'health', 'point_of_interest', 'establishment']","1501 El Camino Real suite i, Belmont",37.5153521,-122.269468
38,"Redwood City, California",gym,ChIJiyuolhWfj4ARkz00XMRh8Dc,Tat Wong Kung Fu Academy,"['gym', 'health', 'point_of_interest', 'establishment']","25 43rd Avenue, San Mateo",37.5291623,-122.2886546
39,"Redwood City, California",gym,ChIJgfjkWemkj4AR7Z4Dr-66API,Studio Rincon,"['gym', 'health', 'school', 'point_of_interest', 'establishment']","3536 Alameda de las Pulgas, Menlo Park",37.4318828,-122.202216
40,"Redwood City, California",gym,ChIJueE1gD-ij4ARfR8AJ0P9sk4,24 Hour Fitness,"['gym', 'health', 'point_of_interest', 'establishment']","1650 Industrial Road, San Carlos",37.4989491,-122.2432303
41,"Redwood City, California",gym,ChIJt-qrchOjj4ARNO7YTX-WZt8,NCFIT,"['gym', 'health', 'point_of_interest', 'establishment']","3151 Edison Way, Redwood City",37.4765259,-122.2043851
42,"Redwood City, California",gym,ChIJ3doCJT6fj4AREELgKTy5Bf8,Planet Granite Belmont,"['gym', 'health', 'point_of_interest', 'establishment']","100 El Camino Real, Belmont",37.528982,-122.287498
43,"Redwood City, California",gym,ChIJMZbDZ1mej4ARr-35GfLYg5o,24 Hour Fitness,"['gym', 'health', 'point_of_interest', 'establishment']","93 Bovet Road, San Mateo",37.5497793,-122.3147917
44,"Redwood City, California",gym,ChIJ_Winrv2ej4ARPD9YpG7ak-E,Fitness 19,"['gym', 'health', 'point_of_interest', 'establishment']","2727 South El Camino Real D, San Mateo",37.5429115,-122.3025499
45,"Redwood City, California",gym,ChIJZ0X2Pzq7j4ARTUf3Dn69vrM,YogaSource,"['gym', 'health', 'point_of_interest', 'establishment']","158 Hamilton Avenue, Palo Alto",37.4433512,-122.1617459
46,"Redwood City, California",gym,ChIJR1zVrqeYj4ARbPyIHUfFoRI,Bay Club Redwood Shores,"['gym', 'health', 'point_of_interest', 'establishment']","200 Redwood Shores Parkway, Redwood City",37.51954,-122.2516689
47,"Redwood City, California",gym,ChIJwerexgWij4ARS6I2kDtUaPA,Team Taf 17- Elite Training,"['gym', 'health', 'point_of_interest', 'establishment']","595 Industrial Road, San Carlos",37.5111376,-122.2559505
48,"Redwood City, California",gym,ChIJN0uBoASij4AR8oQ73Ih71ps,Yoga Health Center,"['gym', 'health', 'point_of_interest', 'establishment']","677 Laurel Street #200, San Carlos",37.5055252,-122.2594969
49,"Redwood City, California",gym,ChIJR1zVrqeYj4AR10iEfUPPxmg,BaySport at Bay Club Redwood Shores,"['doctor', 'gym', 'health', 'point_of_interest', 'establishment']","200 Redwood Shores Parkway, Redwood City",37.5197954,-122.2512455
50,"Redwood City, California",gym,ChIJ1U0nglGfj4AR5YfOYXxcwCI,San Mateo Gymnastics in Belmont,"['gym', 'health', 'point_of_interest', 'establishment']","1306 Elmer Street, Belmont",37.5192461,-122.2713053
51,"Redwood City, California",gym,ChIJzRko19Kej4ARUxxKbfnVeoM,PJCC - Peninsula Jewish Community Center,"['spa', 'gym', 'health', 'school', 'point_of_interest', 'establishment']","800 Foster City Boulevard, Foster City",37.559173,-122.265923
52,"Redwood City, California",gym,ChIJkwWN_Ti7j4ARsYSFsUUlZf4,lululemon,"['shoe_store', 'gym', 'clothing_store', 'store', 'health', 'point_of_interest', 'establishment']","432 University Avenue, Palo Alto",37.4474367,-122.1598368
53,"Redwood City, California",gym,ChIJT3uPN-Cej4ARV29wfuNCnk0,Crunch Fitness - San Mateo,"['gym', 'health', 'point_of_interest', 'establishment']","1150 Park Place, San Mateo",37.5454091,-122.2902306
54,"Redwood City, California",gym,ChIJ9XD0vwWij4ARaWJT7w7UqBQ,Undisputed Boxing Gym,"['gym', 'health', 'point_of_interest', 'establishment']","380 Convention Way, Redwood City",37.4948704,-122.2298836
55,"Redwood City, California",gym,ChIJ1U0nglGfj4ARBHiD8CzVQZM,Belmont Fit Body Boot Camp,"['gym', 'health', 'point_of_interest', 'establishment']","1306 Elmer Street, San Carlos",37.5190915,-122.2713658
56,"Redwood City, California",gym,ChIJi5FqsMq8j4ARzeMfpb_Xohw,Bayfront Fitness,"['gym', 'health', 'point_of_interest', 'establishment']","161 Constitution Drive, Menlo Park",37.48446399999999,-122.174104
57,"Redwood City, California",gym,ChIJ6a56IlSfj4ARum2l-JwFn9o,Purely Pilates,"['gym', 'health', 'point_of_interest', 'establishment']","1501 El Camino Real suite i, Belmont",37.5153521,-122.269468
58,"Redwood City, California",gym,ChIJiyuolhWfj4ARkz00XMRh8Dc,Tat Wong Kung Fu Academy,"['gym', 'health', 'point_of_interest', 'establishment']","25 43rd Avenue, San Mateo",37.5291623,-122.2886546
59,"Redwood City, California",gym,ChIJgfjkWemkj4AR7Z4Dr-66API,Studio Rincon,"['gym', 'health', 'school', 'point_of_interest', 'establishment']","3536 Alameda de las Pulgas, Menlo Park",37.4318828,-122.202216
0,"Berkeley, California",gym,ChIJbcM_m55-hYARD3tc5coPG7o,24 Hour Fitness,"['gym', 'health', 'point_of_interest', 'establishment']","2072 Addison Street, Berkeley",37.8709631,-122.2690146
1,"Berkeley, California",gym,ChIJw8SgsbKAj4ARRyDFFYXFku8,24 Hour Fitness,"['gym', 'health', 'point_of_interest', 'establishment']","2050 Webster Street, Oakland",37.8094045,-122.2657383
2,"Berkeley, California",gym,ChIJiZODxK2Aj4ARTMot5wllmGU,Great Western Power Company,"['gym', 'health', 'school', 'point_of_interest', 'establishment']","520 20th Street, Oakland",37.8097934,-122.2702065
3,"Berkeley, California",gym,ChIJfcgEsCF5hYARcfECGkjpASw,Bridges Rock Gym,"['gym', 'health', 'school', 'point_of_interest', 'establishment']","5635 San Diego Street, El Cerrito",37.9001519,-122.3073993
4,"Berkeley, California",gym,ChIJzXxD1PV-hYAR4VEMx86aHVw,Berkeley Ironworks,"['gym', 'health', 'point_of_interest', 'establishment']","800 Potter Street, Berkeley",37.8508457,-122.2925911
5,"Berkeley, California",gym,ChIJ1eyiBOh-hYAR3eVP01zy7xQ,Steamworks Berkeley,"['spa', 'gym', 'health', 'point_of_interest', 'establishment']","2107 Fourth Street, Berkeley",37.8659285,-122.2990324
6,"Berkeley, California",gym,ChIJhT_HEpx-hYARRYCi-bEN-PA,Downtown Berkeley YMCA,"['gym', 'health', 'point_of_interest', 'establishment']","2001 Allston Way, Berkeley",37.8692665,-122.2696986
7,"Berkeley, California",gym,ChIJ_RXPAGt-hYARPa9EwTLGH64,Head Over Heels Athletic Arts,"['gym', 'health', 'point_of_interest', 'establishment']","F, 4701 Doyle Street, Emeryville",37.8348867,-122.2858106
8,"Berkeley, California",gym,ChIJZ_llzqyAj4ARTTcbOS8TVpY,Downtown Oakland YMCA,"['gym', 'health', 'point_of_interest', 'establishment']","2350 Broadway, Oakland",37.812805,-122.265471
9,"Berkeley, California",gym,ChIJ7TsPA7GAj4AR4C12KCNHSxs,Active Sports Clubs,"['gym', 'health', 'point_of_interest', 'establishment']","1200 Clay Street, Oakland",37.8043734,-122.2739326
10,"Berkeley, California",gym,ChIJGzhziJ5-hYARnBbWgdQix0U,Yoga to the People,"['gym', 'health', 'point_of_interest', 'establishment']","64 Shattuck Square, Berkeley",37.87165299999999,-122.268168
11,"Berkeley, California",gym,ChIJF6BFO-l-hYARoH8ZbAQ-A_Q,Rudramandir: A Center for Spirtuality and Healing,"['gym', 'health', 'point_of_interest', 'establishment']","830 Bancroft Way, Berkeley",37.863451,-122.2960423
12,"Berkeley, California",gym,ChIJiaqIVOh9hYARf2-5vxbtG8c,Namaste Yoga + Wellness Rockridge,"['spa', 'gym', 'clothing_store', 'store', 'health', 'point_of_interest', 'establishment']","5416 College Avenue, Oakland",37.84060460000001,-122.2512138
13,"Berkeley, California",gym,ChIJ-eTG3MJ-hYARJgeKXloZzEE,CorePower Yoga,"['gym', 'health', 'point_of_interest', 'establishment']","811 University Avenue #202, Berkeley",37.86828069999999,-122.2981082
14,"Berkeley, California",gym,ChIJKbDMJGh-hYARxQwvUPfyXIk,CrossFit Oakland,"['gym', 'health', 'point_of_interest', 'establishment']","1313 67th Street, Emeryville",37.84879899999999,-122.290872
15,"Berkeley, California",gym,ChIJkUfEFYJ-hYARkmSl41F6hJo,Funky Door Yoga Berkeley,"['gym', 'health', 'point_of_interest', 'establishment']","2567 Shattuck Avenue, Berkeley",37.8628004,-122.2669122
16,"Berkeley, California",gym,ChIJcTIuXmx-hYARCIq2F9KVvRc,Athletic Playground,"['gym', 'health', 'point_of_interest', 'establishment']","4770 San Pablo Avenue, Emeryville",37.8363025,-122.2809012
17,"Berkeley, California",gym,ChIJTY2UpBl-hYARI2us5o_GwXM,Ellen Webb Studio,"['gym', 'health', 'point_of_interest', 'establishment']","2822 Union Street, Emeryville",37.8212213,-122.2842706
18,"Berkeley, California",gym,ChIJE2bnUVx-hYARQhFddAB8Oyw,Square One Yoga,"['gym', 'health', 'point_of_interest', 'establishment']","1540 62nd Street, Emeryville",37.8428594,-122.2917775
19,"Berkeley, California",gym,ChIJF6BFO-l-hYARsBWPUbios4I,Sacred Space Yoga Sanctuary,"['gym', 'health', 'point_of_interest', 'establishment']","830 Bancroft Way, Berkeley",37.86342139999999,-122.2959138
20,"Berkeley, California",gym,ChIJbcM_m55-hYARD3tc5coPG7o,24 Hour Fitness,"['gym', 'health', 'point_of_interest', 'establishment']","2072 Addison Street, Berkeley",37.8709631,-122.2690146
21,"Berkeley, California",gym,ChIJw8SgsbKAj4ARRyDFFYXFku8,24 Hour Fitness,"['gym', 'health', 'point_of_interest', 'establishment']","2050 Webster Street, Oakland",37.8094045,-122.2657383
22,"Berkeley, California",gym,ChIJiZODxK2Aj4ARTMot5wllmGU,Great Western Power Company,"['gym', 'health', 'school', 'point_of_interest', 'establishment']","520 20th Street, Oakland",37.8097934,-122.2702065
23,"Berkeley, California",gym,ChIJfcgEsCF5hYARcfECGkjpASw,Bridges Rock Gym,"['gym', 'health', 'school', 'point_of_interest', 'establishment']","5635 San Diego Street, El Cerrito",37.9001519,-122.3073993
24,"Berkeley, California",gym,ChIJzXxD1PV-hYAR4VEMx86aHVw,Berkeley Ironworks,"['gym', 'health', 'point_of_interest', 'establishment']","800 Potter Street, Berkeley",37.8508457,-122.2925911
25,"Berkeley, California",gym,ChIJ1eyiBOh-hYAR3eVP01zy7xQ,Steamworks Berkeley,"['spa', 'gym', 'health', 'point_of_interest', 'establishment']","2107 Fourth Street, Berkeley",37.8659285,-122.2990324
26,"Berkeley, California",gym,ChIJhT_HEpx-hYARRYCi-bEN-PA,Downtown Berkeley YMCA,"['gym', 'health', 'point_of_interest', 'establishment']","2001 Allston Way, Berkeley",37.8692665,-122.2696986
27,"Berkeley, California",gym,ChIJ_RXPAGt-hYARPa9EwTLGH64,Head Over Heels Athletic Arts,"['gym', 'health', 'point_of_interest', 'establishment']","F, 4701 Doyle Street, Emeryville",37.8348867,-122.2858106
28,"Berkeley, California",gym,ChIJZ_llzqyAj4ARTTcbOS8TVpY,Downtown Oakland YMCA,"['gym', 'health', 'point_of_interest', 'establishment']","2350 Broadway, Oakland",37.812805,-122.265471
29,"Berkeley, California",gym,ChIJ7TsPA7GAj4AR4C12KCNHSxs,Active Sports Clubs,"['gym', 'health', 'point_of_interest', 'establishment']","1200 Clay Street, Oakland",37.8043734,-122.2739326
30,"Berkeley, California",gym,ChIJGzhziJ5-hYARnBbWgdQix0U,Yoga to the People,"['gym', 'health', 'point_of_interest', 'establishment']","64 Shattuck Square, Berkeley",37.87165299999999,-122.268168
31,"Berkeley, California",gym,ChIJF6BFO-l-hYARoH8ZbAQ-A_Q,Rudramandir: A Center for Spirtuality and Healing,"['gym', 'health', 'point_of_interest', 'establishment']","830 Bancroft Way, Berkeley",37.863451,-122.2960423
32,"Berkeley, California",gym,ChIJiaqIVOh9hYARf2-5vxbtG8c,Namaste Yoga + Wellness Rockridge,"['spa', 'gym', 'clothing_store', 'store', 'health', 'point_of_interest', 'establishment']","5416 College Avenue, Oakland",37.84060460000001,-122.2512138
33,"Berkeley, California",gym,ChIJ-eTG3MJ-hYARJgeKXloZzEE,CorePower Yoga,"['gym', 'health', 'point_of_interest', 'establishment']","811 University Avenue #202, Berkeley",37.86828069999999,-122.2981082
34,"Berkeley, California",gym,ChIJKbDMJGh-hYARxQwvUPfyXIk,CrossFit Oakland,"['gym', 'health', 'point_of_interest', 'establishment']","1313 67th Street, Emeryville",37.84879899999999,-122.290872
35,"Berkeley, California",gym,ChIJkUfEFYJ-hYARkmSl41F6hJo,Funky Door Yoga Berkeley,"['gym', 'health', 'point_of_interest', 'establishment']","2567 Shattuck Avenue, Berkeley",37.8628004,-122.2669122
36,"Berkeley, California",gym,ChIJcTIuXmx-hYARCIq2F9KVvRc,Athletic Playground,"['gym', 'health', 'point_of_interest', 'establishment']","4770 San Pablo Avenue, Emeryville",37.8363025,-122.2809012
37,"Berkeley, California",gym,ChIJTY2UpBl-hYARI2us5o_GwXM,Ellen Webb Studio,"['gym', 'health', 'point_of_interest', 'establishment']","2822 Union Street, Emeryville",37.8212213,-122.2842706
38,"Berkeley, California",gym,ChIJE2bnUVx-hYARQhFddAB8Oyw,Square One Yoga,"['gym', 'health', 'point_of_interest', 'establishment']","1540 62nd Street, Emeryville",37.8428594,-122.2917775
39,"Berkeley, California",gym,ChIJF6BFO-l-hYARsBWPUbios4I,Sacred Space Yoga Sanctuary,"['gym', 'health', 'point_of_interest', 'establishment']","830 Bancroft Way, Berkeley",37.86342139999999,-122.2959138
40,"Berkeley, California",gym,ChIJbcM_m55-hYARD3tc5coPG7o,24 Hour Fitness,"['gym', 'health', 'point_of_interest', 'establishment']","2072 Addison Street, Berkeley",37.8709631,-122.2690146
41,"Berkeley, California",gym,ChIJw8SgsbKAj4ARRyDFFYXFku8,24 Hour Fitness,"['gym', 'health', 'point_of_interest', 'establishment']","2050 Webster Street, Oakland",37.8094045,-122.2657383
42,"Berkeley, California",gym,ChIJiZODxK2Aj4ARTMot5wllmGU,Great Western Power Company,"['gym', 'health', 'school', 'point_of_interest', 'establishment']","520 20th Street, Oakland",37.8097934,-122.2702065
43,"Berkeley, California",gym,ChIJfcgEsCF5hYARcfECGkjpASw,Bridges Rock Gym,"['gym', 'health', 'school', 'point_of_interest', 'establishment']","5635 San Diego Street, El Cerrito",37.9001519,-122.3073993
44,"Berkeley, California",gym,ChIJzXxD1PV-hYAR4VEMx86aHVw,Berkeley Ironworks,"['gym', 'health', 'point_of_interest', 'establishment']","800 Potter Street, Berkeley",37.8508457,-122.2925911
45,"Berkeley, California",gym,ChIJ1eyiBOh-hYAR3eVP01zy7xQ,Steamworks Berkeley,"['spa', 'gym', 'health', 'point_of_interest', 'establishment']","2107 Fourth Street, Berkeley",37.8659285,-122.2990324
46,"Berkeley, California",gym,ChIJhT_HEpx-hYARRYCi-bEN-PA,Downtown Berkeley YMCA,"['gym', 'health', 'point_of_interest', 'establishment']","2001 Allston Way, Berkeley",37.8692665,-122.2696986
47,"Berkeley, California",gym,ChIJ_RXPAGt-hYARPa9EwTLGH64,Head Over Heels Athletic Arts,"['gym', 'health', 'point_of_interest', 'establishment']","F, 4701 Doyle Street, Emeryville",37.8348867,-122.2858106
48,"Berkeley, California",gym,ChIJZ_llzqyAj4ARTTcbOS8TVpY,Downtown Oakland YMCA,"['gym', 'health', 'point_of_interest', 'establishment']","2350 Broadway, Oakland",37.812805,-122.265471
49,"Berkeley, California",gym,ChIJ7TsPA7GAj4AR4C12KCNHSxs,Active Sports Clubs,"['gym', 'health', 'point_of_interest', 'establishment']","1200 Clay Street, Oakland",37.8043734,-122.2739326
50,"Berkeley, California",gym,ChIJGzhziJ5-hYARnBbWgdQix0U,Yoga to the People,"['gym', 'health', 'point_of_interest', 'establishment']","64 Shattuck Square, Berkeley",37.87165299999999,-122.268168
51,"Berkeley, California",gym,ChIJF6BFO-l-hYARoH8ZbAQ-A_Q,Rudramandir: A Center for Spirtuality and Healing,"['gym', 'health', 'point_of_interest', 'establishment']","830 Bancroft Way, Berkeley",37.863451,-122.2960423
52,"Berkeley, California",gym,ChIJiaqIVOh9hYARf2-5vxbtG8c,Namaste Yoga + Wellness Rockridge,"['spa', 'gym', 'clothing_store', 'store', 'health', 'point_of_interest', 'establishment']","5416 College Avenue, Oakland",37.84060460000001,-122.2512138
53,"Berkeley, California",gym,ChIJ-eTG3MJ-hYARJgeKXloZzEE,CorePower Yoga,"['gym', 'health', 'point_of_interest', 'establishment']","811 University Avenue #202, Berkeley",37.86828069999999,-122.2981082
54,"Berkeley, California",gym,ChIJKbDMJGh-hYARxQwvUPfyXIk,CrossFit Oakland,"['gym', 'health', 'point_of_interest', 'establishment']","1313 67th Street, Emeryville",37.84879899999999,-122.290872
55,"Berkeley, California",gym,ChIJkUfEFYJ-hYARkmSl41F6hJo,Funky Door Yoga Berkeley,"['gym', 'health', 'point_of_interest', 'establishment']","2567 Shattuck Avenue, Berkeley",37.8628004,-122.2669122
56,"Berkeley, California",gym,ChIJcTIuXmx-hYARCIq2F9KVvRc,Athletic Playground,"['gym', 'health', 'point_of_interest', 'establishment']","4770 San Pablo Avenue, Emeryville",37.8363025,-122.2809012
57,"Berkeley, California",gym,ChIJTY2UpBl-hYARI2us5o_GwXM,Ellen Webb Studio,"['gym', 'health', 'point_of_interest', 'establishment']","2822 Union Street, Emeryville",37.8212213,-122.2842706
58,"Berkeley, California",gym,ChIJE2bnUVx-hYARQhFddAB8Oyw,Square One Yoga,"['gym', 'health', 'point_of_interest', 'establishment']","1540 62nd Street, Emeryville",37.8428594,-122.2917775
59,"Berkeley, California",gym,ChIJF6BFO-l-hYARsBWPUbios4I,Sacred Space Yoga Sanctuary,"['gym', 'health', 'point_of_interest', 'establishment']","830 Bancroft Way, Berkeley",37.86342139999999,-122.2959138
0,"Palo Alto, California",gym,ChIJxevLLZmwj4ARkA3OHUAuby0,24 Hour Fitness Sport,"['gym', 'health', 'point_of_interest', 'establishment']","550 Showers Drive, Mountain View",37.4027493,-122.1095609
1,"Palo Alto, California",gym,ChIJHVbpgxS6j4AR9YLHy_G1z6E,Oshman Family JCC,"['gym', 'health', 'school', 'point_of_interest', 'establishment']","3921 Fabian Way, Palo Alto",37.4236743,-122.1034291
2,"Palo Alto, California",gym,ChIJt-qrchOjj4ARNO7YTX-WZt8,NCFIT,"['gym', 'health', 'point_of_interest', 'establishment']","3151 Edison Way, Redwood City",37.4765259,-122.2043851
3,"Palo Alto, California",gym,ChIJZ0X2Pzq7j4ARTUf3Dn69vrM,YogaSource,"['gym', 'health', 'point_of_interest', 'establishment']","158 Hamilton Avenue, Palo Alto",37.4433512,-122.1617459
4,"Palo Alto, California",gym,ChIJ2eqIXUO6j4AR7nbAZeXR9Fk,Palo Alto Family YMCA,"['gym', 'health', 'point_of_interest', 'establishment']","3412 Ross Road, Palo Alto",37.4282592,-122.1163841
5,"Palo Alto, California",gym,ChIJZ67sM_K6j4ARPK-0bAdrfb0,Equinox Palo Alto,"['gym', 'spa', 'health', 'point_of_interest', 'establishment']","440 Portage Avenue, Palo Alto",37.42199600000001,-122.138102
6,"Palo Alto, California",gym,ChIJS-9sSAm6j4ARZ2WUzSwLzg0,Tandez Academy of Martial Arts,"['gym', 'health', 'point_of_interest', 'establishment']","1931 Old Middlefield Way unit c, Mountain View",37.414049,-122.0888
7,"Palo Alto, California",gym,ChIJmRiO99G2j4ARoLWEnn40al8,El Camino YMCA,"['gym', 'health', 'school', 'point_of_interest', 'establishment']","2400 Grant Road, Mountain View",37.3707115,-122.0787925
8,"Palo Alto, California",gym,ChIJ61ungvi6j4ARgZP0nF0cdfY,My Gym,"['gym', 'health', 'point_of_interest', 'establishment']","2655 Middlefield Road, Palo Alto",37.4339875,-122.1297503
9,"Palo Alto, California",gym,ChIJkwWN_Ti7j4ARsYSFsUUlZf4,lululemon,"['shoe_store', 'gym', 'clothing_store', 'store', 'health', 'point_of_interest', 'establishment']","432 University Avenue, Palo Alto",37.4474367,-122.1598368
10,"Palo Alto, California",gym,ChIJYXxhoeW6j4ARis9VjjDkDVo,Blossom Birth and Family,"['gym', 'clothing_store', 'store', 'health', 'point_of_interest', 'establishment']","290 California Avenue suite a, Palo Alto",37.42765989999999,-122.1441061
11,"Palo Alto, California",gym,ChIJrSNqOOW6j4ARZSjAYoVsGrw,CrossFit Palo Alto,"['gym', 'health', 'point_of_interest', 'establishment']","2598 West Middlefield Road, Mountain View",37.4158793,-122.1017351
12,"Palo Alto, California",gym,ChIJAQAAANWwj4ARXCai4JbSgmA,Bomitra Yoga,"['gym', 'health', 'point_of_interest', 'establishment']","1910 El Camino Real, Mountain View",37.39420670000001,-122.097025
13,"Palo Alto, California",gym,ChIJfdzwVCyxj4ARLimAtjafPeg,St Francis High School Gym,"['gym', 'health', 'point_of_interest', 'establishment']","1885 Miramonte Avenue, Mountain View",37.3696275,-122.0848059
14,"Palo Alto, California",gym,ChIJR9FqTriwj4ARw_N_z-yKat0,The Little Gym of Mountain View,"['gym', 'health', 'point_of_interest', 'establishment']","1910 West El Camino Real unit f, Mountain View",37.3943513,-122.097095
15,"Palo Alto, California",gym,ChIJe0YSlOW6j4ARNvPC2xPgUYE,Avalon Yoga International,"['gym', 'health', 'point_of_interest', 'establishment']","370 California Avenue, Palo Alto",37.426786,-122.144751
16,"Palo Alto, California",gym,ChIJ0dVJDVe3j4AR8_EXTMdPGB8,Center of Balance,"['gym', 'health', 'point_of_interest', 'establishment']","1110 La Avenida Street b, Mountain View",37.413807,-122.07313
17,"Palo Alto, California",gym,ChIJi5FqsMq8j4ARzeMfpb_Xohw,Bayfront Fitness,"['gym', 'health', 'point_of_interest', 'establishment']","161 Constitution Drive, Menlo Park",37.48446399999999,-122.174104
18,"Palo Alto, California",gym,ChIJ7cK7Bw66j4AR3MKuj9UYkDw,NCFIT,"['gym', 'health', 'point_of_interest', 'establishment']","112 North Rengstorff Avenue, Mountain View",37.404285,-122.097819
19,"Palo Alto, California",gym,ChIJxeGx_O-6j4AR1Z1zhN2VfPo,Balanced Body,"['gym', 'health', 'point_of_interest', 'establishment']","260 Sheridan Avenue # B40, Palo Alto",37.42635550000001,-122.1410484
20,"Palo Alto, California",gym,ChIJxevLLZmwj4ARkA3OHUAuby0,24 Hour Fitness Sport,"['gym', 'health', 'point_of_interest', 'establishment']","550 Showers Drive, Mountain View",37.4027493,-122.1095609
21,"Palo Alto, California",gym,ChIJHVbpgxS6j4AR9YLHy_G1z6E,Oshman Family JCC,"['gym', 'health', 'school', 'point_of_interest', 'establishment']","3921 Fabian Way, Palo Alto",37.4236743,-122.1034291
22,"Palo Alto, California",gym,ChIJt-qrchOjj4ARNO7YTX-WZt8,NCFIT,"['gym', 'health', 'point_of_interest', 'establishment']","3151 Edison Way, Redwood City",37.4765259,-122.2043851
23,"Palo Alto, California",gym,ChIJZ0X2Pzq7j4ARTUf3Dn69vrM,YogaSource,"['gym', 'health', 'point_of_interest', 'establishment']","158 Hamilton Avenue, Palo Alto",37.4433512,-122.1617459
24,"Palo Alto, California",gym,ChIJ2eqIXUO6j4AR7nbAZeXR9Fk,Palo Alto Family YMCA,"['gym', 'health', 'point_of_interest', 'establishment']","3412 Ross Road, Palo Alto",37.4282592,-122.1163841
25,"Palo Alto, California",gym,ChIJZ67sM_K6j4ARPK-0bAdrfb0,Equinox Palo Alto,"['gym', 'spa', 'health', 'point_of_interest', 'establishment']","440 Portage Avenue, Palo Alto",37.42199600000001,-122.138102
26,"Palo Alto, California",gym,ChIJS-9sSAm6j4ARZ2WUzSwLzg0,Tandez Academy of Martial Arts,"['gym', 'health', 'point_of_interest', 'establishment']","1931 Old Middlefield Way unit c, Mountain View",37.414049,-122.0888
27,"Palo Alto, California",gym,ChIJmRiO99G2j4ARoLWEnn40al8,El Camino YMCA,"['gym', 'health', 'school', 'point_of_interest', 'establishment']","2400 Grant Road, Mountain View",37.3707115,-122.0787925
28,"Palo Alto, California",gym,ChIJ61ungvi6j4ARgZP0nF0cdfY,My Gym,"['gym', 'health', 'point_of_interest', 'establishment']","2655 Middlefield Road, Palo Alto",37.4339875,-122.1297503
29,"Palo Alto, California",gym,ChIJkwWN_Ti7j4ARsYSFsUUlZf4,lululemon,"['shoe_store', 'gym', 'clothing_store', 'store', 'health', 'point_of_interest', 'establishment']","432 University Avenue, Palo Alto",37.4474367,-122.1598368
30,"Palo Alto, California",gym,ChIJYXxhoeW6j4ARis9VjjDkDVo,Blossom Birth and Family,"['gym', 'clothing_store', 'store', 'health', 'point_of_interest', 'establishment']","290 California Avenue suite a, Palo Alto",37.42765989999999,-122.1441061
31,"Palo Alto, California",gym,ChIJrSNqOOW6j4ARZSjAYoVsGrw,CrossFit Palo Alto,"['gym', 'health', 'point_of_interest', 'establishment']","2598 West Middlefield Road, Mountain View",37.4158793,-122.1017351
32,"Palo Alto, California",gym,ChIJAQAAANWwj4ARXCai4JbSgmA,Bomitra Yoga,"['gym', 'health', 'point_of_interest', 'establishment']","1910 El Camino Real, Mountain View",37.39420670000001,-122.097025
33,"Palo Alto, California",gym,ChIJfdzwVCyxj4ARLimAtjafPeg,St Francis High School Gym,"['gym', 'health', 'point_of_interest', 'establishment']","1885 Miramonte Avenue, Mountain View",37.3696275,-122.0848059
34,"Palo Alto, California",gym,ChIJR9FqTriwj4ARw_N_z-yKat0,The Little Gym of Mountain View,"['gym', 'health', 'point_of_interest', 'establishment']","1910 West El Camino Real unit f, Mountain View",37.3943513,-122.097095
35,"Palo Alto, California",gym,ChIJe0YSlOW6j4ARNvPC2xPgUYE,Avalon Yoga International,"['gym', 'health', 'point_of_interest', 'establishment']","370 California Avenue, Palo Alto",37.426786,-122.144751
36,"Palo Alto, California",gym,ChIJ0dVJDVe3j4AR8_EXTMdPGB8,Center of Balance,"['gym', 'health', 'point_of_interest', 'establishment']","1110 La Avenida Street b, Mountain View",37.413807,-122.07313
37,"Palo Alto, California",gym,ChIJi5FqsMq8j4ARzeMfpb_Xohw,Bayfront Fitness,"['gym', 'health', 'point_of_interest', 'establishment']","161 Constitution Drive, Menlo Park",37.48446399999999,-122.174104
38,"Palo Alto, California",gym,ChIJ7cK7Bw66j4AR3MKuj9UYkDw,NCFIT,"['gym', 'health', 'point_of_interest', 'establishment']","112 North Rengstorff Avenue, Mountain View",37.404285,-122.097819
39,"Palo Alto, California",gym,ChIJxeGx_O-6j4AR1Z1zhN2VfPo,Balanced Body,"['gym', 'health', 'point_of_interest', 'establishment']","260 Sheridan Avenue # B40, Palo Alto",37.42635550000001,-122.1410484
40,"Palo Alto, California",gym,ChIJxevLLZmwj4ARkA3OHUAuby0,24 Hour Fitness Sport,"['gym', 'health', 'point_of_interest', 'establishment']","550 Showers Drive, Mountain View",37.4027493,-122.1095609
41,"Palo Alto, California",gym,ChIJHVbpgxS6j4AR9YLHy_G1z6E,Oshman Family JCC,"['gym', 'health', 'school', 'point_of_interest', 'establishment']","3921 Fabian Way, Palo Alto",37.4236743,-122.1034291
42,"Palo Alto, California",gym,ChIJt-qrchOjj4ARNO7YTX-WZt8,NCFIT,"['gym', 'health', 'point_of_interest', 'establishment']","3151 Edison Way, Redwood City",37.4765259,-122.2043851
43,"Palo Alto, California",gym,ChIJZ0X2Pzq7j4ARTUf3Dn69vrM,YogaSource,"['gym', 'health', 'point_of_interest', 'establishment']","158 Hamilton Avenue, Palo Alto",37.4433512,-122.1617459
44,"Palo Alto, California",gym,ChIJ2eqIXUO6j4AR7nbAZeXR9Fk,Palo Alto Family YMCA,"['gym', 'health', 'point_of_interest', 'establishment']","3412 Ross Road, Palo Alto",37.4282592,-122.1163841
45,"Palo Alto, California",gym,ChIJZ67sM_K6j4ARPK-0bAdrfb0,Equinox Palo Alto,"['gym', 'spa', 'health', 'point_of_interest', 'establishment']","440 Portage Avenue, Palo Alto",37.42199600000001,-122.138102
46,"Palo Alto, California",gym,ChIJS-9sSAm6j4ARZ2WUzSwLzg0,Tandez Academy of Martial Arts,"['gym', 'health', 'point_of_interest', 'establishment']","1931 Old Middlefield Way unit c, Mountain View",37.414049,-122.0888
47,"Palo Alto, California",gym,ChIJmRiO99G2j4ARoLWEnn40al8,El Camino YMCA,"['gym', 'health', 'school', 'point_of_interest', 'establishment']","2400 Grant Road, Mountain View",37.3707115,-122.0787925
48,"Palo Alto, California",gym,ChIJ61ungvi6j4ARgZP0nF0cdfY,My Gym,"['gym', 'health', 'point_of_interest', 'establishment']","2655 Middlefield Road, Palo Alto",37.4339875,-122.1297503
49,"Palo Alto, California",gym,ChIJkwWN_Ti7j4ARsYSFsUUlZf4,lululemon,"['shoe_store', 'gym', 'clothing_store', 'store', 'health', 'point_of_interest', 'establishment']","432 University Avenue, Palo Alto",37.4474367,-122.1598368
50,"Palo Alto, California",gym,ChIJYXxhoeW6j4ARis9VjjDkDVo,Blossom Birth and Family,"['gym', 'clothing_store', 'store', 'health', 'point_of_interest', 'establishment']","290 California Avenue suite a, Palo Alto",37.42765989999999,-122.1441061
51,"Palo Alto, California",gym,ChIJrSNqOOW6j4ARZSjAYoVsGrw,CrossFit Palo Alto,"['gym', 'health', 'point_of_interest', 'establishment']","2598 West Middlefield Road, Mountain View",37.4158793,-122.1017351
52,"Palo Alto, California",gym,ChIJAQAAANWwj4ARXCai4JbSgmA,Bomitra Yoga,"['gym', 'health', 'point_of_interest', 'establishment']","1910 El Camino Real, Mountain View",37.39420670000001,-122.097025
53,"Palo Alto, California",gym,ChIJfdzwVCyxj4ARLimAtjafPeg,St Francis High School Gym,"['gym', 'health', 'point_of_interest', 'establishment']","1885 Miramonte Avenue, Mountain View",37.3696275,-122.0848059
54,"Palo Alto, California",gym,ChIJR9FqTriwj4ARw_N_z-yKat0,The Little Gym of Mountain View,"['gym', 'health', 'point_of_interest', 'establishment']","1910 West El Camino Real unit f, Mountain View",37.3943513,-122.097095
55,"Palo Alto, California",gym,ChIJe0YSlOW6j4ARNvPC2xPgUYE,Avalon Yoga International,"['gym', 'health', 'point_of_interest', 'establishment']","370 California Avenue, Palo Alto",37.426786,-122.144751
56,"Palo Alto, California",gym,ChIJ0dVJDVe3j4AR8_EXTMdPGB8,Center of Balance,"['gym', 'health', 'point_of_interest', 'establishment']","1110 La Avenida Street b, Mountain View",37.413807,-122.07313
57,"Palo Alto, California",gym,ChIJi5FqsMq8j4ARzeMfpb_Xohw,Bayfront Fitness,"['gym', 'health', 'point_of_interest', 'establishment']","161 Constitution Drive, Menlo Park",37.48446399999999,-122.174104
58,"Palo Alto, California",gym,ChIJ7cK7Bw66j4AR3MKuj9UYkDw,NCFIT,"['gym', 'health', 'point_of_interest', 'establishment']","112 North Rengstorff Avenue, Mountain View",37.404285,-122.097819
59,"Palo Alto, California",gym,ChIJxeGx_O-6j4AR1Z1zhN2VfPo,Balanced Body,"['gym', 'health', 'point_of_interest', 'establishment']","260 Sheridan Avenue # B40, Palo Alto",37.42635550000001,-122.1410484
0,"Mountain View, California",gym,ChIJCQWatmS2j4ARBSqMkzxCKmo,24 Hour Fitness Super Sport,"['gym', 'health', 'point_of_interest', 'establishment']","762 Sunnyvale Saratoga Road, Sunnyvale",37.36433679999999,-122.0313533
1,"Mountain View, California",gym,ChIJKxNY7ta1j4ARWZ1QVt293qM,24 Hour Fitness,"['gym', 'health', 'point_of_interest', 'establishment']","150 East Fremont Avenue, Sunnyvale",37.3513866,-122.0307856
2,"Mountain View, California",gym,ChIJxevLLZmwj4ARkA3OHUAuby0,24 Hour Fitness Sport,"['gym', 'health', 'point_of_interest', 'establishment']","550 Showers Drive, Mountain View",37.4027493,-122.1095609
3,"Mountain View, California",gym,ChIJmRiO99G2j4ARoLWEnn40al8,El Camino YMCA,"['gym', 'health', 'school', 'point_of_interest', 'establishment']","2400 Grant Road, Mountain View",37.3707115,-122.0787925
4,"Mountain View, California",gym,ChIJUzd2sz62j4ARaPfiq1rRSNQ,Planet Granite Sunnyvale,"['gym', 'health', 'point_of_interest', 'establishment']","815 Stewart Drive, Sunnyvale",37.3844225,-122.010685
5,"Mountain View, California",gym,ChIJpQ3NzbK1j4AR9QzCdlznk68,Northwest YMCA,"['gym', 'health', 'point_of_interest', 'establishment']","20803 Alves Drive, Cupertino",37.3253899,-122.0376972
6,"Mountain View, California",gym,ChIJbzhlXR62j4ARaczV75rdyCg,24 Hour Fitness,"['gym', 'health', 'point_of_interest', 'establishment']","1211 East Arques Avenue, Sunnyvale",37.38106,-121.995274
7,"Mountain View, California",gym,ChIJHVbpgxS6j4AR9YLHy_G1z6E,Oshman Family JCC,"['gym', 'health', 'school', 'point_of_interest', 'establishment']","3921 Fabian Way, Palo Alto",37.4236743,-122.1034291
8,"Mountain View, California",gym,ChIJscQfx6C3j4ARvZpp21SN8h8,Moffett Towers Club,"['spa', 'gym', 'health', 'point_of_interest', 'establishment']","1080 Enterprise Way, Sunnyvale",37.40675499999999,-122.0365857
9,"Mountain View, California",gym,ChIJfdzwVCyxj4ARLimAtjafPeg,St Francis High School Gym,"['gym', 'health', 'point_of_interest', 'establishment']","1885 Miramonte Avenue, Mountain View",37.3696275,-122.0848059
10,"Mountain View, California",gym,ChIJ2eqIXUO6j4AR7nbAZeXR9Fk,Palo Alto Family YMCA,"['gym', 'health', 'point_of_interest', 'establishment']","3412 Ross Road, Palo Alto",37.4282592,-122.1163841
11,"Mountain View, California",gym,ChIJS-9sSAm6j4ARZ2WUzSwLzg0,Tandez Academy of Martial Arts,"['gym', 'health', 'point_of_interest', 'establishment']","1931 Old Middlefield Way unit c, Mountain View",37.414049,-122.0888
12,"Mountain View, California",gym,ChIJZ67sM_K6j4ARPK-0bAdrfb0,Equinox Palo Alto,"['gym', 'spa', 'health', 'point_of_interest', 'establishment']","440 Portage Avenue, Palo Alto",37.42199600000001,-122.138102
13,"Mountain View, California",gym,ChIJ10OwaCG3j4ARkM8KcPldDIg,Gold Star Gymnastics,"['gym', 'health', 'point_of_interest', 'establishment']","727 Sunnyvale Saratoga Road, Sunnyvale",37.36680619999999,-122.0334962
14,"Mountain View, California",gym,ChIJne0uYta1j4ARGOZINuM1C7c,American Kickboxing Academy Sunnyvale,"['gym', 'health', 'point_of_interest', 'establishment']","168 East Fremont Avenue, Sunnyvale",37.35119340000001,-122.0298596
15,"Mountain View, California",gym,ChIJqXPxUB62j4AR_1-pkcSS8xk,"Yoga @ Cindy's, Inc.","['gym', 'health', 'point_of_interest', 'establishment']","500 Lawrence Expressway, Sunnyvale",37.3819397,-121.995236
16,"Mountain View, California",gym,ChIJ61ungvi6j4ARgZP0nF0cdfY,My Gym,"['gym', 'health', 'point_of_interest', 'establishment']","2655 Middlefield Road, Palo Alto",37.4339875,-122.1297503
17,"Mountain View, California",gym,ChIJZ0X2Pzq7j4ARTUf3Dn69vrM,YogaSource,"['gym', 'health', 'point_of_interest', 'establishment']","158 Hamilton Avenue, Palo Alto",37.4433512,-122.1617459
18,"Mountain View, California",gym,ChIJYXxhoeW6j4ARis9VjjDkDVo,Blossom Birth and Family,"['gym', 'clothing_store', 'store', 'health', 'point_of_interest', 'establishment']","290 California Avenue suite a, Palo Alto",37.42765989999999,-122.1441061
19,"Mountain View, California",gym,ChIJL4Zl_cC3j4ARUTvqR3vLvp0,Bintang Badminton,"['gym', 'store', 'health', 'point_of_interest', 'establishment']","1365 Geneva Drive, Sunnyvale",37.4146205,-122.0134755
20,"Mountain View, California",gym,ChIJCQWatmS2j4ARBSqMkzxCKmo,24 Hour Fitness Super Sport,"['gym', 'health', 'point_of_interest', 'establishment']","762 Sunnyvale Saratoga Road, Sunnyvale",37.36433679999999,-122.0313533
21,"Mountain View, California",gym,ChIJKxNY7ta1j4ARWZ1QVt293qM,24 Hour Fitness,"['gym', 'health', 'point_of_interest', 'establishment']","150 East Fremont Avenue, Sunnyvale",37.3513866,-122.0307856
22,"Mountain View, California",gym,ChIJxevLLZmwj4ARkA3OHUAuby0,24 Hour Fitness Sport,"['gym', 'health', 'point_of_interest', 'establishment']","550 Showers Drive, Mountain View",37.4027493,-122.1095609
23,"Mountain View, California",gym,ChIJmRiO99G2j4ARoLWEnn40al8,El Camino YMCA,"['gym', 'health', 'school', 'point_of_interest', 'establishment']","2400 Grant Road, Mountain View",37.3707115,-122.0787925
24,"Mountain View, California",gym,ChIJUzd2sz62j4ARaPfiq1rRSNQ,Planet Granite Sunnyvale,"['gym', 'health', 'point_of_interest', 'establishment']","815 Stewart Drive, Sunnyvale",37.3844225,-122.010685
25,"Mountain View, California",gym,ChIJpQ3NzbK1j4AR9QzCdlznk68,Northwest YMCA,"['gym', 'health', 'point_of_interest', 'establishment']","20803 Alves Drive, Cupertino",37.3253899,-122.0376972
26,"Mountain View, California",gym,ChIJbzhlXR62j4ARaczV75rdyCg,24 Hour Fitness,"['gym', 'health', 'point_of_interest', 'establishment']","1211 East Arques Avenue, Sunnyvale",37.38106,-121.995274
27,"Mountain View, California",gym,ChIJHVbpgxS6j4AR9YLHy_G1z6E,Oshman Family JCC,"['gym', 'health', 'school', 'point_of_interest', 'establishment']","3921 Fabian Way, Palo Alto",37.4236743,-122.1034291
28,"Mountain View, California",gym,ChIJscQfx6C3j4ARvZpp21SN8h8,Moffett Towers Club,"['spa', 'gym', 'health', 'point_of_interest', 'establishment']","1080 Enterprise Way, Sunnyvale",37.40675499999999,-122.0365857
29,"Mountain View, California",gym,ChIJfdzwVCyxj4ARLimAtjafPeg,St Francis High School Gym,"['gym', 'health', 'point_of_interest', 'establishment']","1885 Miramonte Avenue, Mountain View",37.3696275,-122.0848059
30,"Mountain View, California",gym,ChIJ2eqIXUO6j4AR7nbAZeXR9Fk,Palo Alto Family YMCA,"['gym', 'health', 'point_of_interest', 'establishment']","3412 Ross Road, Palo Alto",37.4282592,-122.1163841
31,"Mountain View, California",gym,ChIJS-9sSAm6j4ARZ2WUzSwLzg0,Tandez Academy of Martial Arts,"['gym', 'health', 'point_of_interest', 'establishment']","1931 Old Middlefield Way unit c, Mountain View",37.414049,-122.0888
32,"Mountain View, California",gym,ChIJZ67sM_K6j4ARPK-0bAdrfb0,Equinox Palo Alto,"['gym', 'spa', 'health', 'point_of_interest', 'establishment']","440 Portage Avenue, Palo Alto",37.42199600000001,-122.138102
33,"Mountain View, California",gym,ChIJ10OwaCG3j4ARkM8KcPldDIg,Gold Star Gymnastics,"['gym', 'health', 'point_of_interest', 'establishment']","727 Sunnyvale Saratoga Road, Sunnyvale",37.36680619999999,-122.0334962
34,"Mountain View, California",gym,ChIJne0uYta1j4ARGOZINuM1C7c,American Kickboxing Academy Sunnyvale,"['gym', 'health', 'point_of_interest', 'establishment']","168 East Fremont Avenue, Sunnyvale",37.35119340000001,-122.0298596
35,"Mountain View, California",gym,ChIJqXPxUB62j4AR_1-pkcSS8xk,"Yoga @ Cindy's, Inc.","['gym', 'health', 'point_of_interest', 'establishment']","500 Lawrence Expressway, Sunnyvale",37.3819397,-121.995236
36,"Mountain View, California",gym,ChIJ61ungvi6j4ARgZP0nF0cdfY,My Gym,"['gym', 'health', 'point_of_interest', 'establishment']","2655 Middlefield Road, Palo Alto",37.4339875,-122.1297503
37,"Mountain View, California",gym,ChIJZ0X2Pzq7j4ARTUf3Dn69vrM,YogaSource,"['gym', 'health', 'point_of_interest', 'establishment']","158 Hamilton Avenue, Palo Alto",37.4433512,-122.1617459
38,"Mountain View, California",gym,ChIJYXxhoeW6j4ARis9VjjDkDVo,Blossom Birth and Family,"['gym', 'clothing_store', 'store', 'health', 'point_of_interest', 'establishment']","290 California Avenue suite a, Palo Alto",37.42765989999999,-122.1441061
39,"Mountain View, California",gym,ChIJL4Zl_cC3j4ARUTvqR3vLvp0,Bintang Badminton,"['gym', 'store', 'health', 'point_of_interest', 'establishment']","1365 Geneva Drive, Sunnyvale",37.4146205,-122.0134755
40,"Mountain View, California",gym,ChIJCQWatmS2j4ARBSqMkzxCKmo,24 Hour Fitness Super Sport,"['gym', 'health', 'point_of_interest', 'establishment']","762 Sunnyvale Saratoga Road, Sunnyvale",37.36433679999999,-122.0313533
41,"Mountain View, California",gym,ChIJKxNY7ta1j4ARWZ1QVt293qM,24 Hour Fitness,"['gym', 'health', 'point_of_interest', 'establishment']","150 East Fremont Avenue, Sunnyvale",37.3513866,-122.0307856
42,"Mountain View, California",gym,ChIJxevLLZmwj4ARkA3OHUAuby0,24 Hour Fitness Sport,"['gym', 'health', 'point_of_interest', 'establishment']","550 Showers Drive, Mountain View",37.4027493,-122.1095609
43,"Mountain View, California",gym,ChIJmRiO99G2j4ARoLWEnn40al8,El Camino YMCA,"['gym', 'health', 'school', 'point_of_interest', 'establishment']","2400 Grant Road, Mountain View",37.3707115,-122.0787925
44,"Mountain View, California",gym,ChIJUzd2sz62j4ARaPfiq1rRSNQ,Planet Granite Sunnyvale,"['gym', 'health', 'point_of_interest', 'establishment']","815 Stewart Drive, Sunnyvale",37.3844225,-122.010685
45,"Mountain View, California",gym,ChIJpQ3NzbK1j4AR9QzCdlznk68,Northwest YMCA,"['gym', 'health', 'point_of_interest', 'establishment']","20803 Alves Drive, Cupertino",37.3253899,-122.0376972
46,"Mountain View, California",gym,ChIJbzhlXR62j4ARaczV75rdyCg,24 Hour Fitness,"['gym', 'health', 'point_of_interest', 'establishment']","1211 East Arques Avenue, Sunnyvale",37.38106,-121.995274
47,"Mountain View, California",gym,ChIJHVbpgxS6j4AR9YLHy_G1z6E,Oshman Family JCC,"['gym', 'health', 'school', 'point_of_interest', 'establishment']","3921 Fabian Way, Palo Alto",37.4236743,-122.1034291
48,"Mountain View, California",gym,ChIJscQfx6C3j4ARvZpp21SN8h8,Moffett Towers Club,"['spa', 'gym', 'health', 'point_of_interest', 'establishment']","1080 Enterprise Way, Sunnyvale",37.40675499999999,-122.0365857
49,"Mountain View, California",gym,ChIJfdzwVCyxj4ARLimAtjafPeg,St Francis High School Gym,"['gym', 'health', 'point_of_interest', 'establishment']","1885 Miramonte Avenue, Mountain View",37.3696275,-122.0848059
50,"Mountain View, California",gym,ChIJ2eqIXUO6j4AR7nbAZeXR9Fk,Palo Alto Family YMCA,"['gym', 'health', 'point_of_interest', 'establishment']","3412 Ross Road, Palo Alto",37.4282592,-122.1163841
51,"Mountain View, California",gym,ChIJS-9sSAm6j4ARZ2WUzSwLzg0,Tandez Academy of Martial Arts,"['gym', 'health', 'point_of_interest', 'establishment']","1931 Old Middlefield Way unit c, Mountain View",37.414049,-122.0888
52,"Mountain View, California",gym,ChIJZ67sM_K6j4ARPK-0bAdrfb0,Equinox Palo Alto,"['gym', 'spa', 'health', 'point_of_interest', 'establishment']","440 Portage Avenue, Palo Alto",37.42199600000001,-122.138102
53,"Mountain View, California",gym,ChIJ10OwaCG3j4ARkM8KcPldDIg,Gold Star Gymnastics,"['gym', 'health', 'point_of_interest', 'establishment']","727 Sunnyvale Saratoga Road, Sunnyvale",37.36680619999999,-122.0334962
54,"Mountain View, California",gym,ChIJne0uYta1j4ARGOZINuM1C7c,American Kickboxing Academy Sunnyvale,"['gym', 'health', 'point_of_interest', 'establishment']","168 East Fremont Avenue, Sunnyvale",37.35119340000001,-122.0298596
55,"Mountain View, California",gym,ChIJqXPxUB62j4AR_1-pkcSS8xk,"Yoga @ Cindy's, Inc.","['gym', 'health', 'point_of_interest', 'establishment']","500 Lawrence Expressway, Sunnyvale",37.3819397,-121.995236
56,"Mountain View, California",gym,ChIJ61ungvi6j4ARgZP0nF0cdfY,My Gym,"['gym', 'health', 'point_of_interest', 'establishment']","2655 Middlefield Road, Palo Alto",37.4339875,-122.1297503
57,"Mountain View, California",gym,ChIJZ0X2Pzq7j4ARTUf3Dn69vrM,YogaSource,"['gym', 'health', 'point_of_interest', 'establishment']","158 Hamilton Avenue, Palo Alto",37.4433512,-122.1617459
58,"Mountain View, California",gym,ChIJYXxhoeW6j4ARis9VjjDkDVo,Blossom Birth and Family,"['gym', 'clothing_store', 'store', 'health', 'point_of_interest', 'establishment']","290 California Avenue suite a, Palo Alto",37.42765989999999,-122.1441061
59,"Mountain View, California",gym,ChIJL4Zl_cC3j4ARUTvqR3vLvp0,Bintang Badminton,"['gym', 'store', 'health', 'point_of_interest', 'establishment']","1365 Geneva Drive, Sunnyvale",37.4146205,-122.0134755
0,"Sunnyvale, California",gym,ChIJCQWatmS2j4ARBSqMkzxCKmo,24 Hour Fitness Super Sport,"['gym', 'health', 'point_of_interest', 'establishment']","762 Sunnyvale Saratoga Road, Sunnyvale",37.36433679999999,-122.0313533
1,"Sunnyvale, California",gym,ChIJKxNY7ta1j4ARWZ1QVt293qM,24 Hour Fitness,"['gym', 'health', 'point_of_interest', 'establishment']","150 East Fremont Avenue, Sunnyvale",37.3513866,-122.0307856
2,"Sunnyvale, California",gym,ChIJpQ3NzbK1j4AR9QzCdlznk68,Northwest YMCA,"['gym', 'health', 'point_of_interest', 'establishment']","20803 Alves Drive, Cupertino",37.3253899,-122.0376972
3,"Sunnyvale, California",gym,ChIJbzhlXR62j4ARaczV75rdyCg,24 Hour Fitness,"['gym', 'health', 'point_of_interest', 'establishment']","1211 East Arques Avenue, Sunnyvale",37.38106,-121.995274
4,"Sunnyvale, California",gym,ChIJUzd2sz62j4ARaPfiq1rRSNQ,Planet Granite Sunnyvale,"['gym', 'health', 'point_of_interest', 'establishment']","815 Stewart Drive, Sunnyvale",37.3844225,-122.010685
5,"Sunnyvale, California",gym,ChIJmRiO99G2j4ARoLWEnn40al8,El Camino YMCA,"['gym', 'health', 'school', 'point_of_interest', 'establishment']","2400 Grant Road, Mountain View",37.3707115,-122.0787925
6,"Sunnyvale, California",gym,ChIJxevLLZmwj4ARkA3OHUAuby0,24 Hour Fitness Sport,"['gym', 'health', 'point_of_interest', 'establishment']","550 Showers Drive, Mountain View",37.4027493,-122.1095609
7,"Sunnyvale, California",gym,ChIJqZ-uoIjJj4ARlHbyZshTRZY,American Barbell Clubs,"['gym', 'store', 'health', 'point_of_interest', 'establishment']","1900 Duane Avenue, Santa Clara",37.379918,-121.959164
8,"Sunnyvale, California",gym,ChIJscQfx6C3j4ARvZpp21SN8h8,Moffett Towers Club,"['spa', 'gym', 'health', 'point_of_interest', 'establishment']","1080 Enterprise Way, Sunnyvale",37.40675499999999,-122.0365857
9,"Sunnyvale, California",gym,ChIJHVbpgxS6j4AR9YLHy_G1z6E,Oshman Family JCC,"['gym', 'health', 'school', 'point_of_interest', 'establishment']","3921 Fabian Way, Palo Alto",37.4236743,-122.1034291
10,"Sunnyvale, California",gym,ChIJfdzwVCyxj4ARLimAtjafPeg,St Francis High School Gym,"['gym', 'health', 'point_of_interest', 'establishment']","1885 Miramonte Avenue, Mountain View",37.3696275,-122.0848059
11,"Sunnyvale, California",gym,ChIJS-9sSAm6j4ARZ2WUzSwLzg0,Tandez Academy of Martial Arts,"['gym', 'health', 'point_of_interest', 'establishment']","1931 Old Middlefield Way unit c, Mountain View",37.414049,-122.0888
12,"Sunnyvale, California",gym,ChIJ590bAYXJj4AR0CnHpe7w1RY,Sagar Hot Yoga/Pilates Santa Clara,"['gym', 'health', 'point_of_interest', 'establishment']","1500 Norman Avenue #201, Santa Clara",37.384476,-121.955999
13,"Sunnyvale, California",gym,ChIJqXPxUB62j4AR_1-pkcSS8xk,"Yoga @ Cindy's, Inc.","['gym', 'health', 'point_of_interest', 'establishment']","500 Lawrence Expressway, Sunnyvale",37.3819397,-121.995236
14,"Sunnyvale, California",gym,ChIJB-tFfVa1j4ARcWQQUUzT_Hg,Bikram Yoga San Jose,"['gym', 'health', 'point_of_interest', 'establishment']","5289 Prospect Road, San Jose",37.2942291,-121.9953404
15,"Sunnyvale, California",gym,ChIJ10OwaCG3j4ARkM8KcPldDIg,Gold Star Gymnastics,"['gym', 'health', 'point_of_interest', 'establishment']","727 Sunnyvale Saratoga Road, Sunnyvale",37.36680619999999,-122.0334962
16,"Sunnyvale, California",gym,ChIJne0uYta1j4ARGOZINuM1C7c,American Kickboxing Academy Sunnyvale,"['gym', 'health', 'point_of_interest', 'establishment']","168 East Fremont Avenue, Sunnyvale",37.35119340000001,-122.0298596
17,"Sunnyvale, California",gym,ChIJuWS3T_vJj4ARryUe6nCH_50,Bay Club Santa Clara,"['gym', 'health', 'point_of_interest', 'establishment']","3250 Central Expressway, Santa Clara",37.37683579999999,-121.9860288
18,"Sunnyvale, California",gym,ChIJL4Zl_cC3j4ARUTvqR3vLvp0,Bintang Badminton,"['gym', 'store', 'health', 'point_of_interest', 'establishment']","1365 Geneva Drive, Sunnyvale",37.4146205,-122.0134755
19,"Sunnyvale, California",gym,ChIJsbeep221j4ARTqAnqVw8L44,Studio 10 Dance,"['gym', 'health', 'point_of_interest', 'establishment']","6190 Bollinger Road, San Jose",37.3081606,-122.0139723
20,"Sunnyvale, California",gym,ChIJCQWatmS2j4ARBSqMkzxCKmo,24 Hour Fitness Super Sport,"['gym', 'health', 'point_of_interest', 'establishment']","762 Sunnyvale Saratoga Road, Sunnyvale",37.36433679999999,-122.0313533
21,"Sunnyvale, California",gym,ChIJKxNY7ta1j4ARWZ1QVt293qM,24 Hour Fitness,"['gym', 'health', 'point_of_interest', 'establishment']","150 East Fremont Avenue, Sunnyvale",37.3513866,-122.0307856
22,"Sunnyvale, California",gym,ChIJpQ3NzbK1j4AR9QzCdlznk68,Northwest YMCA,"['gym', 'health', 'point_of_interest', 'establishment']","20803 Alves Drive, Cupertino",37.3253899,-122.0376972
23,"Sunnyvale, California",gym,ChIJbzhlXR62j4ARaczV75rdyCg,24 Hour Fitness,"['gym', 'health', 'point_of_interest', 'establishment']","1211 East Arques Avenue, Sunnyvale",37.38106,-121.995274
24,"Sunnyvale, California",gym,ChIJUzd2sz62j4ARaPfiq1rRSNQ,Planet Granite Sunnyvale,"['gym', 'health', 'point_of_interest', 'establishment']","815 Stewart Drive, Sunnyvale",37.3844225,-122.010685
25,"Sunnyvale, California",gym,ChIJmRiO99G2j4ARoLWEnn40al8,El Camino YMCA,"['gym', 'health', 'school', 'point_of_interest', 'establishment']","2400 Grant Road, Mountain View",37.3707115,-122.0787925
26,"Sunnyvale, California",gym,ChIJxevLLZmwj4ARkA3OHUAuby0,24 Hour Fitness Sport,"['gym', 'health', 'point_of_interest', 'establishment']","550 Showers Drive, Mountain View",37.4027493,-122.1095609
27,"Sunnyvale, California",gym,ChIJqZ-uoIjJj4ARlHbyZshTRZY,American Barbell Clubs,"['gym', 'store', 'health', 'point_of_interest', 'establishment']","1900 Duane Avenue, Santa Clara",37.379918,-121.959164
28,"Sunnyvale, California",gym,ChIJscQfx6C3j4ARvZpp21SN8h8,Moffett Towers Club,"['spa', 'gym', 'health', 'point_of_interest', 'establishment']","1080 Enterprise Way, Sunnyvale",37.40675499999999,-122.0365857
29,"Sunnyvale, California",gym,ChIJHVbpgxS6j4AR9YLHy_G1z6E,Oshman Family JCC,"['gym', 'health', 'school', 'point_of_interest', 'establishment']","3921 Fabian Way, Palo Alto",37.4236743,-122.1034291
30,"Sunnyvale, California",gym,ChIJfdzwVCyxj4ARLimAtjafPeg,St Francis High School Gym,"['gym', 'health', 'point_of_interest', 'establishment']","1885 Miramonte Avenue, Mountain View",37.3696275,-122.0848059
31,"Sunnyvale, California",gym,ChIJS-9sSAm6j4ARZ2WUzSwLzg0,Tandez Academy of Martial Arts,"['gym', 'health', 'point_of_interest', 'establishment']","1931 Old Middlefield Way unit c, Mountain View",37.414049,-122.0888
32,"Sunnyvale, California",gym,ChIJ590bAYXJj4AR0CnHpe7w1RY,Sagar Hot Yoga/Pilates Santa Clara,"['gym', 'health', 'point_of_interest', 'establishment']","1500 Norman Avenue #201, Santa Clara",37.384476,-121.955999
33,"Sunnyvale, California",gym,ChIJqXPxUB62j4AR_1-pkcSS8xk,"Yoga @ Cindy's, Inc.","['gym', 'health', 'point_of_interest', 'establishment']","500 Lawrence Expressway, Sunnyvale",37.3819397,-121.995236
34,"Sunnyvale, California",gym,ChIJB-tFfVa1j4ARcWQQUUzT_Hg,Bikram Yoga San Jose,"['gym', 'health', 'point_of_interest', 'establishment']","5289 Prospect Road, San Jose",37.2942291,-121.9953404
35,"Sunnyvale, California",gym,ChIJ10OwaCG3j4ARkM8KcPldDIg,Gold Star Gymnastics,"['gym', 'health', 'point_of_interest', 'establishment']","727 Sunnyvale Saratoga Road, Sunnyvale",37.36680619999999,-122.0334962
36,"Sunnyvale, California",gym,ChIJne0uYta1j4ARGOZINuM1C7c,American Kickboxing Academy Sunnyvale,"['gym', 'health', 'point_of_interest', 'establishment']","168 East Fremont Avenue, Sunnyvale",37.35119340000001,-122.0298596
37,"Sunnyvale, California",gym,ChIJuWS3T_vJj4ARryUe6nCH_50,Bay Club Santa Clara,"['gym', 'health', 'point_of_interest', 'establishment']","3250 Central Expressway, Santa Clara",37.37683579999999,-121.9860288
38,"Sunnyvale, California",gym,ChIJL4Zl_cC3j4ARUTvqR3vLvp0,Bintang Badminton,"['gym', 'store', 'health', 'point_of_interest', 'establishment']","1365 Geneva Drive, Sunnyvale",37.4146205,-122.0134755
39,"Sunnyvale, California",gym,ChIJsbeep221j4ARTqAnqVw8L44,Studio 10 Dance,"['gym', 'health', 'point_of_interest', 'establishment']","6190 Bollinger Road, San Jose",37.3081606,-122.0139723
40,"Sunnyvale, California",gym,ChIJCQWatmS2j4ARBSqMkzxCKmo,24 Hour Fitness Super Sport,"['gym', 'health', 'point_of_interest', 'establishment']","762 Sunnyvale Saratoga Road, Sunnyvale",37.36433679999999,-122.0313533
41,"Sunnyvale, California",gym,ChIJKxNY7ta1j4ARWZ1QVt293qM,24 Hour Fitness,"['gym', 'health', 'point_of_interest', 'establishment']","150 East Fremont Avenue, Sunnyvale",37.3513866,-122.0307856
42,"Sunnyvale, California",gym,ChIJpQ3NzbK1j4AR9QzCdlznk68,Northwest YMCA,"['gym', 'health', 'point_of_interest', 'establishment']","20803 Alves Drive, Cupertino",37.3253899,-122.0376972
43,"Sunnyvale, California",gym,ChIJbzhlXR62j4ARaczV75rdyCg,24 Hour Fitness,"['gym', 'health', 'point_of_interest', 'establishment']","1211 East Arques Avenue, Sunnyvale",37.38106,-121.995274
44,"Sunnyvale, California",gym,ChIJUzd2sz62j4ARaPfiq1rRSNQ,Planet Granite Sunnyvale,"['gym', 'health', 'point_of_interest', 'establishment']","815 Stewart Drive, Sunnyvale",37.3844225,-122.010685
45,"Sunnyvale, California",gym,ChIJmRiO99G2j4ARoLWEnn40al8,El Camino YMCA,"['gym', 'health', 'school', 'point_of_interest', 'establishment']","2400 Grant Road, Mountain View",37.3707115,-122.0787925
46,"Sunnyvale, California",gym,ChIJxevLLZmwj4ARkA3OHUAuby0,24 Hour Fitness Sport,"['gym', 'health', 'point_of_interest', 'establishment']","550 Showers Drive, Mountain View",37.4027493,-122.1095609
47,"Sunnyvale, California",gym,ChIJqZ-uoIjJj4ARlHbyZshTRZY,American Barbell Clubs,"['gym', 'store', 'health', 'point_of_interest', 'establishment']","1900 Duane Avenue, Santa Clara",37.379918,-121.959164
48,"Sunnyvale, California",gym,ChIJscQfx6C3j4ARvZpp21SN8h8,Moffett Towers Club,"['spa', 'gym', 'health', 'point_of_interest', 'establishment']","1080 Enterprise Way, Sunnyvale",37.40675499999999,-122.0365857
49,"Sunnyvale, California",gym,ChIJHVbpgxS6j4AR9YLHy_G1z6E,Oshman Family JCC,"['gym', 'health', 'school', 'point_of_interest', 'establishment']","3921 Fabian Way, Palo Alto",37.4236743,-122.1034291
50,"Sunnyvale, California",gym,ChIJfdzwVCyxj4ARLimAtjafPeg,St Francis High School Gym,"['gym', 'health', 'point_of_interest', 'establishment']","1885 Miramonte Avenue, Mountain View",37.3696275,-122.0848059
51,"Sunnyvale, California",gym,ChIJS-9sSAm6j4ARZ2WUzSwLzg0,Tandez Academy of Martial Arts,"['gym', 'health', 'point_of_interest', 'establishment']","1931 Old Middlefield Way unit c, Mountain View",37.414049,-122.0888
52,"Sunnyvale, California",gym,ChIJ590bAYXJj4AR0CnHpe7w1RY,Sagar Hot Yoga/Pilates Santa Clara,"['gym', 'health', 'point_of_interest', 'establishment']","1500 Norman Avenue #201, Santa Clara",37.384476,-121.955999
53,"Sunnyvale, California",gym,ChIJqXPxUB62j4AR_1-pkcSS8xk,"Yoga @ Cindy's, Inc.","['gym', 'health', 'point_of_interest', 'establishment']","500 Lawrence Expressway, Sunnyvale",37.3819397,-121.995236
54,"Sunnyvale, California",gym,ChIJB-tFfVa1j4ARcWQQUUzT_Hg,Bikram Yoga San Jose,"['gym', 'health', 'point_of_interest', 'establishment']","5289 Prospect Road, San Jose",37.2942291,-121.9953404
55,"Sunnyvale, California",gym,ChIJ10OwaCG3j4ARkM8KcPldDIg,Gold Star Gymnastics,"['gym', 'health', 'point_of_interest', 'establishment']","727 Sunnyvale Saratoga Road, Sunnyvale",37.36680619999999,-122.0334962
56,"Sunnyvale, California",gym,ChIJne0uYta1j4ARGOZINuM1C7c,American Kickboxing Academy Sunnyvale,"['gym', 'health', 'point_of_interest', 'establishment']","168 East Fremont Avenue, Sunnyvale",37.35119340000001,-122.0298596
57,"Sunnyvale, California",gym,ChIJuWS3T_vJj4ARryUe6nCH_50,Bay Club Santa Clara,"['gym', 'health', 'point_of_interest', 'establishment']","3250 Central Expressway, Santa Clara",37.37683579999999,-121.9860288
58,"Sunnyvale, California",gym,ChIJL4Zl_cC3j4ARUTvqR3vLvp0,Bintang Badminton,"['gym', 'store', 'health', 'point_of_interest', 'establishment']","1365 Geneva Drive, Sunnyvale",37.4146205,-122.0134755
59,"Sunnyvale, California",gym,ChIJsbeep221j4ARTqAnqVw8L44,Studio 10 Dance,"['gym', 'health', 'point_of_interest', 'establishment']","6190 Bollinger Road, San Jose",37.3081606,-122.0139723
0,"Cupertino, California",gym,ChIJCQWatmS2j4ARBSqMkzxCKmo,24 Hour Fitness Super Sport,"['gym', 'health', 'point_of_interest', 'establishment']","762 Sunnyvale Saratoga Road, Sunnyvale",37.36433679999999,-122.0313533
1,"Cupertino, California",gym,ChIJKxNY7ta1j4ARWZ1QVt293qM,24 Hour Fitness,"['gym', 'health', 'point_of_interest', 'establishment']","150 East Fremont Avenue, Sunnyvale",37.3513866,-122.0307856
2,"Cupertino, California",gym,ChIJpQ3NzbK1j4AR9QzCdlznk68,Northwest YMCA,"['gym', 'health', 'point_of_interest', 'establishment']","20803 Alves Drive, Cupertino",37.3253899,-122.0376972
3,"Cupertino, California",gym,ChIJmRiO99G2j4ARoLWEnn40al8,El Camino YMCA,"['gym', 'health', 'school', 'point_of_interest', 'establishment']","2400 Grant Road, Mountain View",37.3707115,-122.0787925
4,"Cupertino, California",gym,ChIJUzd2sz62j4ARaPfiq1rRSNQ,Planet Granite Sunnyvale,"['gym', 'health', 'point_of_interest', 'establishment']","815 Stewart Drive, Sunnyvale",37.3844225,-122.010685
5,"Cupertino, California",gym,ChIJbzhlXR62j4ARaczV75rdyCg,24 Hour Fitness,"['gym', 'health', 'point_of_interest', 'establishment']","1211 East Arques Avenue, Sunnyvale",37.38106,-121.995274
6,"Cupertino, California",gym,ChIJB-tFfVa1j4ARcWQQUUzT_Hg,Bikram Yoga San Jose,"['gym', 'health', 'point_of_interest', 'establishment']","5289 Prospect Road, San Jose",37.2942291,-121.9953404
7,"Cupertino, California",gym,ChIJ54EkQ6dKjoARvkg4D0zlWYg,Southwest YMCA,"['gym', 'health', 'school', 'point_of_interest', 'establishment']","13500 Quito Road, Saratoga",37.2754533,-121.9935273
8,"Cupertino, California",gym,ChIJfdzwVCyxj4ARLimAtjafPeg,St Francis High School Gym,"['gym', 'health', 'point_of_interest', 'establishment']","1885 Miramonte Avenue, Mountain View",37.3696275,-122.0848059
9,"Cupertino, California",gym,ChIJqZ-uoIjJj4ARlHbyZshTRZY,American Barbell Clubs,"['gym', 'store', 'health', 'point_of_interest', 'establishment']","1900 Duane Avenue, Santa Clara",37.379918,-121.959164
10,"Cupertino, California",gym,ChIJqXPxUB62j4AR_1-pkcSS8xk,"Yoga @ Cindy's, Inc.","['gym', 'health', 'point_of_interest', 'establishment']","500 Lawrence Expressway, Sunnyvale",37.3819397,-121.995236
11,"Cupertino, California",gym,ChIJ10OwaCG3j4ARkM8KcPldDIg,Gold Star Gymnastics,"['gym', 'health', 'point_of_interest', 'establishment']","727 Sunnyvale Saratoga Road, Sunnyvale",37.36680619999999,-122.0334962
12,"Cupertino, California",gym,ChIJne0uYta1j4ARGOZINuM1C7c,American Kickboxing Academy Sunnyvale,"['gym', 'health', 'point_of_interest', 'establishment']","168 East Fremont Avenue, Sunnyvale",37.35119340000001,-122.0298596
13,"Cupertino, California",gym,ChIJscQfx6C3j4ARvZpp21SN8h8,Moffett Towers Club,"['spa', 'gym', 'health', 'point_of_interest', 'establishment']","1080 Enterprise Way, Sunnyvale",37.40675499999999,-122.0365857
14,"Cupertino, California",gym,ChIJuWS3T_vJj4ARryUe6nCH_50,Bay Club Santa Clara,"['gym', 'health', 'point_of_interest', 'establishment']","3250 Central Expressway, Santa Clara",37.37683579999999,-121.9860288
15,"Cupertino, California",gym,ChIJsbeep221j4ARTqAnqVw8L44,Studio 10 Dance,"['gym', 'health', 'point_of_interest', 'establishment']","6190 Bollinger Road, San Jose",37.3081606,-122.0139723
16,"Cupertino, California",gym,ChIJRzjmVHm2j4ARol6WBKmfIPQ,KravZone,"['gym', 'health', 'point_of_interest', 'establishment']","1039 Sunnyvale Saratoga Road, Sunnyvale",37.358538,-122.032913
17,"Cupertino, California",gym,ChIJLc4y0zM1joARGWcR62i1mP4,American Barbell Clubs,"['gym', 'store', 'health', 'point_of_interest', 'establishment']","700 West Hamilton Avenue, Campbell",37.2938379,-121.961436
18,"Cupertino, California",gym,ChIJUSJCGfC1j4ARlA3slbS51hA,Fitness 19,"['gym', 'health', 'point_of_interest', 'establishment']","1060 East El Camino Real, Sunnyvale",37.351824,-122.003964
19,"Cupertino, California",gym,ChIJJ6kEmyuxj4AR8MXcMU1POYo,California Yoga Center,"['gym', 'health', 'point_of_interest', 'establishment']","1776 Miramonte Avenue, Mountain View",37.37159729999999,-122.0879954
20,"Cupertino, California",gym,ChIJCQWatmS2j4ARBSqMkzxCKmo,24 Hour Fitness Super Sport,"['gym', 'health', 'point_of_interest', 'establishment']","762 Sunnyvale Saratoga Road, Sunnyvale",37.36433679999999,-122.0313533
21,"Cupertino, California",gym,ChIJKxNY7ta1j4ARWZ1QVt293qM,24 Hour Fitness,"['gym', 'health', 'point_of_interest', 'establishment']","150 East Fremont Avenue, Sunnyvale",37.3513866,-122.0307856
22,"Cupertino, California",gym,ChIJpQ3NzbK1j4AR9QzCdlznk68,Northwest YMCA,"['gym', 'health', 'point_of_interest', 'establishment']","20803 Alves Drive, Cupertino",37.3253899,-122.0376972
23,"Cupertino, California",gym,ChIJmRiO99G2j4ARoLWEnn40al8,El Camino YMCA,"['gym', 'health', 'school', 'point_of_interest', 'establishment']","2400 Grant Road, Mountain View",37.3707115,-122.0787925
24,"Cupertino, California",gym,ChIJUzd2sz62j4ARaPfiq1rRSNQ,Planet Granite Sunnyvale,"['gym', 'health', 'point_of_interest', 'establishment']","815 Stewart Drive, Sunnyvale",37.3844225,-122.010685
25,"Cupertino, California",gym,ChIJbzhlXR62j4ARaczV75rdyCg,24 Hour Fitness,"['gym', 'health', 'point_of_interest', 'establishment']","1211 East Arques Avenue, Sunnyvale",37.38106,-121.995274
26,"Cupertino, California",gym,ChIJB-tFfVa1j4ARcWQQUUzT_Hg,Bikram Yoga San Jose,"['gym', 'health', 'point_of_interest', 'establishment']","5289 Prospect Road, San Jose",37.2942291,-121.9953404
27,"Cupertino, California",gym,ChIJ54EkQ6dKjoARvkg4D0zlWYg,Southwest YMCA,"['gym', 'health', 'school', 'point_of_interest', 'establishment']","13500 Quito Road, Saratoga",37.2754533,-121.9935273
28,"Cupertino, California",gym,ChIJfdzwVCyxj4ARLimAtjafPeg,St Francis High School Gym,"['gym', 'health', 'point_of_interest', 'establishment']","1885 Miramonte Avenue, Mountain View",37.3696275,-122.0848059
29,"Cupertino, California",gym,ChIJqZ-uoIjJj4ARlHbyZshTRZY,American Barbell Clubs,"['gym', 'store', 'health', 'point_of_interest', 'establishment']","1900 Duane Avenue, Santa Clara",37.379918,-121.959164
30,"Cupertino, California",gym,ChIJqXPxUB62j4AR_1-pkcSS8xk,"Yoga @ Cindy's, Inc.","['gym', 'health', 'point_of_interest', 'establishment']","500 Lawrence Expressway, Sunnyvale",37.3819397,-121.995236
31,"Cupertino, California",gym,ChIJ10OwaCG3j4ARkM8KcPldDIg,Gold Star Gymnastics,"['gym', 'health', 'point_of_interest', 'establishment']","727 Sunnyvale Saratoga Road, Sunnyvale",37.36680619999999,-122.0334962
32,"Cupertino, California",gym,ChIJne0uYta1j4ARGOZINuM1C7c,American Kickboxing Academy Sunnyvale,"['gym', 'health', 'point_of_interest', 'establishment']","168 East Fremont Avenue, Sunnyvale",37.35119340000001,-122.0298596
33,"Cupertino, California",gym,ChIJscQfx6C3j4ARvZpp21SN8h8,Moffett Towers Club,"['spa', 'gym', 'health', 'point_of_interest', 'establishment']","1080 Enterprise Way, Sunnyvale",37.40675499999999,-122.0365857
34,"Cupertino, California",gym,ChIJuWS3T_vJj4ARryUe6nCH_50,Bay Club Santa Clara,"['gym', 'health', 'point_of_interest', 'establishment']","3250 Central Expressway, Santa Clara",37.37683579999999,-121.9860288
35,"Cupertino, California",gym,ChIJsbeep221j4ARTqAnqVw8L44,Studio 10 Dance,"['gym', 'health', 'point_of_interest', 'establishment']","6190 Bollinger Road, San Jose",37.3081606,-122.0139723
36,"Cupertino, California",gym,ChIJRzjmVHm2j4ARol6WBKmfIPQ,KravZone,"['gym', 'health', 'point_of_interest', 'establishment']","1039 Sunnyvale Saratoga Road, Sunnyvale",37.358538,-122.032913
37,"Cupertino, California",gym,ChIJLc4y0zM1joARGWcR62i1mP4,American Barbell Clubs,"['gym', 'store', 'health', 'point_of_interest', 'establishment']","700 West Hamilton Avenue, Campbell",37.2938379,-121.961436
38,"Cupertino, California",gym,ChIJUSJCGfC1j4ARlA3slbS51hA,Fitness 19,"['gym', 'health', 'point_of_interest', 'establishment']","1060 East El Camino Real, Sunnyvale",37.351824,-122.003964
39,"Cupertino, California",gym,ChIJJ6kEmyuxj4AR8MXcMU1POYo,California Yoga Center,"['gym', 'health', 'point_of_interest', 'establishment']","1776 Miramonte Avenue, Mountain View",37.37159729999999,-122.0879954
40,"Cupertino, California",gym,ChIJCQWatmS2j4ARBSqMkzxCKmo,24 Hour Fitness Super Sport,"['gym', 'health', 'point_of_interest', 'establishment']","762 Sunnyvale Saratoga Road, Sunnyvale",37.36433679999999,-122.0313533
41,"Cupertino, California",gym,ChIJKxNY7ta1j4ARWZ1QVt293qM,24 Hour Fitness,"['gym', 'health', 'point_of_interest', 'establishment']","150 East Fremont Avenue, Sunnyvale",37.3513866,-122.0307856
42,"Cupertino, California",gym,ChIJpQ3NzbK1j4AR9QzCdlznk68,Northwest YMCA,"['gym', 'health', 'point_of_interest', 'establishment']","20803 Alves Drive, Cupertino",37.3253899,-122.0376972
43,"Cupertino, California",gym,ChIJmRiO99G2j4ARoLWEnn40al8,El Camino YMCA,"['gym', 'health', 'school', 'point_of_interest', 'establishment']","2400 Grant Road, Mountain View",37.3707115,-122.0787925
44,"Cupertino, California",gym,ChIJUzd2sz62j4ARaPfiq1rRSNQ,Planet Granite Sunnyvale,"['gym', 'health', 'point_of_interest', 'establishment']","815 Stewart Drive, Sunnyvale",37.3844225,-122.010685
45,"Cupertino, California",gym,ChIJbzhlXR62j4ARaczV75rdyCg,24 Hour Fitness,"['gym', 'health', 'point_of_interest', 'establishment']","1211 East Arques Avenue, Sunnyvale",37.38106,-121.995274
46,"Cupertino, California",gym,ChIJB-tFfVa1j4ARcWQQUUzT_Hg,Bikram Yoga San Jose,"['gym', 'health', 'point_of_interest', 'establishment']","5289 Prospect Road, San Jose",37.2942291,-121.9953404
47,"Cupertino, California",gym,ChIJ54EkQ6dKjoARvkg4D0zlWYg,Southwest YMCA,"['gym', 'health', 'school', 'point_of_interest', 'establishment']","13500 Quito Road, Saratoga",37.2754533,-121.9935273
48,"Cupertino, California",gym,ChIJfdzwVCyxj4ARLimAtjafPeg,St Francis High School Gym,"['gym', 'health', 'point_of_interest', 'establishment']","1885 Miramonte Avenue, Mountain View",37.3696275,-122.0848059
49,"Cupertino, California",gym,ChIJqZ-uoIjJj4ARlHbyZshTRZY,American Barbell Clubs,"['gym', 'store', 'health', 'point_of_interest', 'establishment']","1900 Duane Avenue, Santa Clara",37.379918,-121.959164
50,"Cupertino, California",gym,ChIJqXPxUB62j4AR_1-pkcSS8xk,"Yoga @ Cindy's, Inc.","['gym', 'health', 'point_of_interest', 'establishment']","500 Lawrence Expressway, Sunnyvale",37.3819397,-121.995236
51,"Cupertino, California",gym,ChIJ10OwaCG3j4ARkM8KcPldDIg,Gold Star Gymnastics,"['gym', 'health', 'point_of_interest', 'establishment']","727 Sunnyvale Saratoga Road, Sunnyvale",37.36680619999999,-122.0334962
52,"Cupertino, California",gym,ChIJne0uYta1j4ARGOZINuM1C7c,American Kickboxing Academy Sunnyvale,"['gym', 'health', 'point_of_interest', 'establishment']","168 East Fremont Avenue, Sunnyvale",37.35119340000001,-122.0298596
53,"Cupertino, California",gym,ChIJscQfx6C3j4ARvZpp21SN8h8,Moffett Towers Club,"['spa', 'gym', 'health', 'point_of_interest', 'establishment']","1080 Enterprise Way, Sunnyvale",37.40675499999999,-122.0365857
54,"Cupertino, California",gym,ChIJuWS3T_vJj4ARryUe6nCH_50,Bay Club Santa Clara,"['gym', 'health', 'point_of_interest', 'establishment']","3250 Central Expressway, Santa Clara",37.37683579999999,-121.9860288
55,"Cupertino, California",gym,ChIJsbeep221j4ARTqAnqVw8L44,Studio 10 Dance,"['gym', 'health', 'point_of_interest', 'establishment']","6190 Bollinger Road, San Jose",37.3081606,-122.0139723
56,"Cupertino, California",gym,ChIJRzjmVHm2j4ARol6WBKmfIPQ,KravZone,"['gym', 'health', 'point_of_interest', 'establishment']","1039 Sunnyvale Saratoga Road, Sunnyvale",37.358538,-122.032913
57,"Cupertino, California",gym,ChIJLc4y0zM1joARGWcR62i1mP4,American Barbell Clubs,"['gym', 'store', 'health', 'point_of_interest', 'establishment']","700 West Hamilton Avenue, Campbell",37.2938379,-121.961436
58,"Cupertino, California",gym,ChIJUSJCGfC1j4ARlA3slbS51hA,Fitness 19,"['gym', 'health', 'point_of_interest', 'establishment']","1060 East El Camino Real, Sunnyvale",37.351824,-122.003964
59,"Cupertino, California",gym,ChIJJ6kEmyuxj4AR8MXcMU1POYo,California Yoga Center,"['gym', 'health', 'point_of_interest', 'establishment']","1776 Miramonte Avenue, Mountain View",37.37159729999999,-122.0879954
0,"Santa Clara, California",gym,ChIJrYuZNI3Lj4ARY8QMl0jFYuc,24 Hour Fitness,"['gym', 'health', 'point_of_interest', 'establishment']","1610 Crane Court, San Jose",37.3714584,-121.9114983
1,"Santa Clara, California",gym,ChIJCQWatmS2j4ARBSqMkzxCKmo,24 Hour Fitness Super Sport,"['gym', 'health', 'point_of_interest', 'establishment']","762 Sunnyvale Saratoga Road, Sunnyvale",37.36433679999999,-122.0313533
2,"Santa Clara, California",gym,ChIJE4HRpE7Lj4ARoMK7LEvzC8g,24 Hour Fitness,"['gym', 'health', 'point_of_interest', 'establishment']","1531 Parkmoor Avenue, San Jose",37.3177699,-121.915649
3,"Santa Clara, California",gym,ChIJKxNY7ta1j4ARWZ1QVt293qM,24 Hour Fitness,"['gym', 'health', 'point_of_interest', 'establishment']","150 East Fremont Avenue, Sunnyvale",37.3513866,-122.0307856
4,"Santa Clara, California",gym,ChIJbzhlXR62j4ARaczV75rdyCg,24 Hour Fitness,"['gym', 'health', 'point_of_interest', 'establishment']","1211 East Arques Avenue, Sunnyvale",37.38106,-121.995274
5,"Santa Clara, California",gym,ChIJUzd2sz62j4ARaPfiq1rRSNQ,Planet Granite Sunnyvale,"['gym', 'health', 'point_of_interest', 'establishment']","815 Stewart Drive, Sunnyvale",37.3844225,-122.010685
6,"Santa Clara, California",gym,ChIJpQ3NzbK1j4AR9QzCdlznk68,Northwest YMCA,"['gym', 'health', 'point_of_interest', 'establishment']","20803 Alves Drive, Cupertino",37.3253899,-122.0376972
7,"Santa Clara, California",gym,ChIJi1d6FnMzjoARN1TfVMaxwCU,24 Hour Fitness,"['gym', 'health', 'point_of_interest', 'establishment']","2306 Almaden Road #140, San Jose",37.2911738,-121.8792991
8,"Santa Clara, California",gym,ChIJqZ-uoIjJj4ARlHbyZshTRZY,American Barbell Clubs,"['gym', 'store', 'health', 'point_of_interest', 'establishment']","1900 Duane Avenue, Santa Clara",37.379918,-121.959164
9,"Santa Clara, California",gym,ChIJB-tFfVa1j4ARcWQQUUzT_Hg,Bikram Yoga San Jose,"['gym', 'health', 'point_of_interest', 'establishment']","5289 Prospect Road, San Jose",37.2942291,-121.9953404
10,"Santa Clara, California",gym,ChIJ590bAYXJj4AR0CnHpe7w1RY,Sagar Hot Yoga/Pilates Santa Clara,"['gym', 'health', 'point_of_interest', 'establishment']","1500 Norman Avenue #201, Santa Clara",37.384476,-121.955999
11,"Santa Clara, California",gym,ChIJqXPxUB62j4AR_1-pkcSS8xk,"Yoga @ Cindy's, Inc.","['gym', 'health', 'point_of_interest', 'establishment']","500 Lawrence Expressway, Sunnyvale",37.3819397,-121.995236
12,"Santa Clara, California",gym,ChIJn6jEQg7Jj4ARmAfz3y_HuvA,The Sycamores at North Park Apartments,"['gym', 'health', 'point_of_interest', 'establishment']","3500 Palmilla Drive, San Jose",37.4079402,-121.9379907
13,"Santa Clara, California",gym,ChIJK7xb3gjMj4ARPPZ-r2ppU6s,City Sports Club,"['gym', 'health', 'point_of_interest', 'establishment']","1045 East Brokaw Road, San Jose",37.3841961,-121.8981611
14,"Santa Clara, California",gym,ChIJne0uYta1j4ARGOZINuM1C7c,American Kickboxing Academy Sunnyvale,"['gym', 'health', 'point_of_interest', 'establishment']","168 East Fremont Avenue, Sunnyvale",37.35119340000001,-122.0298596
15,"Santa Clara, California",gym,ChIJ10OwaCG3j4ARkM8KcPldDIg,Gold Star Gymnastics,"['gym', 'health', 'point_of_interest', 'establishment']","727 Sunnyvale Saratoga Road, Sunnyvale",37.36680619999999,-122.0334962
16,"Santa Clara, California",gym,ChIJscQfx6C3j4ARvZpp21SN8h8,Moffett Towers Club,"['spa', 'gym', 'health', 'point_of_interest', 'establishment']","1080 Enterprise Way, Sunnyvale",37.40675499999999,-122.0365857
17,"Santa Clara, California",gym,ChIJvYWTfG3Lj4ARKV9JxB0x52c,Center For Spiritual Enlightenment,"['church', 'place_of_worship', 'gym', 'health', 'point_of_interest', 'establishment']","1146 University Avenue, San Jose",37.33901739999999,-121.9224343
18,"Santa Clara, California",gym,ChIJuWS3T_vJj4ARryUe6nCH_50,Bay Club Santa Clara,"['gym', 'health', 'point_of_interest', 'establishment']","3250 Central Expressway, Santa Clara",37.37683579999999,-121.9860288
19,"Santa Clara, California",gym,ChIJhYjLblDLj4ARu3R0gA82RP4,California Sports Center - Race St,"['gym', 'health', 'point_of_interest', 'establishment']","336 Race Street, San Jose",37.3223978,-121.9111306
20,"Santa Clara, California",gym,ChIJrYuZNI3Lj4ARY8QMl0jFYuc,24 Hour Fitness,"['gym', 'health', 'point_of_interest', 'establishment']","1610 Crane Court, San Jose",37.3714584,-121.9114983
21,"Santa Clara, California",gym,ChIJCQWatmS2j4ARBSqMkzxCKmo,24 Hour Fitness Super Sport,"['gym', 'health', 'point_of_interest', 'establishment']","762 Sunnyvale Saratoga Road, Sunnyvale",37.36433679999999,-122.0313533
22,"Santa Clara, California",gym,ChIJE4HRpE7Lj4ARoMK7LEvzC8g,24 Hour Fitness,"['gym', 'health', 'point_of_interest', 'establishment']","1531 Parkmoor Avenue, San Jose",37.3177699,-121.915649
23,"Santa Clara, California",gym,ChIJKxNY7ta1j4ARWZ1QVt293qM,24 Hour Fitness,"['gym', 'health', 'point_of_interest', 'establishment']","150 East Fremont Avenue, Sunnyvale",37.3513866,-122.0307856
24,"Santa Clara, California",gym,ChIJbzhlXR62j4ARaczV75rdyCg,24 Hour Fitness,"['gym', 'health', 'point_of_interest', 'establishment']","1211 East Arques Avenue, Sunnyvale",37.38106,-121.995274
25,"Santa Clara, California",gym,ChIJUzd2sz62j4ARaPfiq1rRSNQ,Planet Granite Sunnyvale,"['gym', 'health', 'point_of_interest', 'establishment']","815 Stewart Drive, Sunnyvale",37.3844225,-122.010685
26,"Santa Clara, California",gym,ChIJpQ3NzbK1j4AR9QzCdlznk68,Northwest YMCA,"['gym', 'health', 'point_of_interest', 'establishment']","20803 Alves Drive, Cupertino",37.3253899,-122.0376972
27,"Santa Clara, California",gym,ChIJi1d6FnMzjoARN1TfVMaxwCU,24 Hour Fitness,"['gym', 'health', 'point_of_interest', 'establishment']","2306 Almaden Road #140, San Jose",37.2911738,-121.8792991
28,"Santa Clara, California",gym,ChIJqZ-uoIjJj4ARlHbyZshTRZY,American Barbell Clubs,"['gym', 'store', 'health', 'point_of_interest', 'establishment']","1900 Duane Avenue, Santa Clara",37.379918,-121.959164
29,"Santa Clara, California",gym,ChIJB-tFfVa1j4ARcWQQUUzT_Hg,Bikram Yoga San Jose,"['gym', 'health', 'point_of_interest', 'establishment']","5289 Prospect Road, San Jose",37.2942291,-121.9953404
30,"Santa Clara, California",gym,ChIJ590bAYXJj4AR0CnHpe7w1RY,Sagar Hot Yoga/Pilates Santa Clara,"['gym', 'health', 'point_of_interest', 'establishment']","1500 Norman Avenue #201, Santa Clara",37.384476,-121.955999
31,"Santa Clara, California",gym,ChIJqXPxUB62j4AR_1-pkcSS8xk,"Yoga @ Cindy's, Inc.","['gym', 'health', 'point_of_interest', 'establishment']","500 Lawrence Expressway, Sunnyvale",37.3819397,-121.995236
32,"Santa Clara, California",gym,ChIJn6jEQg7Jj4ARmAfz3y_HuvA,The Sycamores at North Park Apartments,"['gym', 'health', 'point_of_interest', 'establishment']","3500 Palmilla Drive, San Jose",37.4079402,-121.9379907
33,"Santa Clara, California",gym,ChIJK7xb3gjMj4ARPPZ-r2ppU6s,City Sports Club,"['gym', 'health', 'point_of_interest', 'establishment']","1045 East Brokaw Road, San Jose",37.3841961,-121.8981611
34,"Santa Clara, California",gym,ChIJne0uYta1j4ARGOZINuM1C7c,American Kickboxing Academy Sunnyvale,"['gym', 'health', 'point_of_interest', 'establishment']","168 East Fremont Avenue, Sunnyvale",37.35119340000001,-122.0298596
35,"Santa Clara, California",gym,ChIJ10OwaCG3j4ARkM8KcPldDIg,Gold Star Gymnastics,"['gym', 'health', 'point_of_interest', 'establishment']","727 Sunnyvale Saratoga Road, Sunnyvale",37.36680619999999,-122.0334962
36,"Santa Clara, California",gym,ChIJscQfx6C3j4ARvZpp21SN8h8,Moffett Towers Club,"['spa', 'gym', 'health', 'point_of_interest', 'establishment']","1080 Enterprise Way, Sunnyvale",37.40675499999999,-122.0365857
37,"Santa Clara, California",gym,ChIJvYWTfG3Lj4ARKV9JxB0x52c,Center For Spiritual Enlightenment,"['church', 'place_of_worship', 'gym', 'health', 'point_of_interest', 'establishment']","1146 University Avenue, San Jose",37.33901739999999,-121.9224343
38,"Santa Clara, California",gym,ChIJuWS3T_vJj4ARryUe6nCH_50,Bay Club Santa Clara,"['gym', 'health', 'point_of_interest', 'establishment']","3250 Central Expressway, Santa Clara",37.37683579999999,-121.9860288
39,"Santa Clara, California",gym,ChIJhYjLblDLj4ARu3R0gA82RP4,California Sports Center - Race St,"['gym', 'health', 'point_of_interest', 'establishment']","336 Race Street, San Jose",37.3223978,-121.9111306
40,"Santa Clara, California",gym,ChIJrYuZNI3Lj4ARY8QMl0jFYuc,24 Hour Fitness,"['gym', 'health', 'point_of_interest', 'establishment']","1610 Crane Court, San Jose",37.3714584,-121.9114983
41,"Santa Clara, California",gym,ChIJCQWatmS2j4ARBSqMkzxCKmo,24 Hour Fitness Super Sport,"['gym', 'health', 'point_of_interest', 'establishment']","762 Sunnyvale Saratoga Road, Sunnyvale",37.36433679999999,-122.0313533
42,"Santa Clara, California",gym,ChIJE4HRpE7Lj4ARoMK7LEvzC8g,24 Hour Fitness,"['gym', 'health', 'point_of_interest', 'establishment']","1531 Parkmoor Avenue, San Jose",37.3177699,-121.915649
43,"Santa Clara, California",gym,ChIJKxNY7ta1j4ARWZ1QVt293qM,24 Hour Fitness,"['gym', 'health', 'point_of_interest', 'establishment']","150 East Fremont Avenue, Sunnyvale",37.3513866,-122.0307856
44,"Santa Clara, California",gym,ChIJbzhlXR62j4ARaczV75rdyCg,24 Hour Fitness,"['gym', 'health', 'point_of_interest', 'establishment']","1211 East Arques Avenue, Sunnyvale",37.38106,-121.995274
45,"Santa Clara, California",gym,ChIJUzd2sz62j4ARaPfiq1rRSNQ,Planet Granite Sunnyvale,"['gym', 'health', 'point_of_interest', 'establishment']","815 Stewart Drive, Sunnyvale",37.3844225,-122.010685
46,"Santa Clara, California",gym,ChIJpQ3NzbK1j4AR9QzCdlznk68,Northwest YMCA,"['gym', 'health', 'point_of_interest', 'establishment']","20803 Alves Drive, Cupertino",37.3253899,-122.0376972
47,"Santa Clara, California",gym,ChIJi1d6FnMzjoARN1TfVMaxwCU,24 Hour Fitness,"['gym', 'health', 'point_of_interest', 'establishment']","2306 Almaden Road #140, San Jose",37.2911738,-121.8792991
48,"Santa Clara, California",gym,ChIJqZ-uoIjJj4ARlHbyZshTRZY,American Barbell Clubs,"['gym', 'store', 'health', 'point_of_interest', 'establishment']","1900 Duane Avenue, Santa Clara",37.379918,-121.959164
49,"Santa Clara, California",gym,ChIJB-tFfVa1j4ARcWQQUUzT_Hg,Bikram Yoga San Jose,"['gym', 'health', 'point_of_interest', 'establishment']","5289 Prospect Road, San Jose",37.2942291,-121.9953404
50,"Santa Clara, California",gym,ChIJ590bAYXJj4AR0CnHpe7w1RY,Sagar Hot Yoga/Pilates Santa Clara,"['gym', 'health', 'point_of_interest', 'establishment']","1500 Norman Avenue #201, Santa Clara",37.384476,-121.955999
51,"Santa Clara, California",gym,ChIJqXPxUB62j4AR_1-pkcSS8xk,"Yoga @ Cindy's, Inc.","['gym', 'health', 'point_of_interest', 'establishment']","500 Lawrence Expressway, Sunnyvale",37.3819397,-121.995236
52,"Santa Clara, California",gym,ChIJn6jEQg7Jj4ARmAfz3y_HuvA,The Sycamores at North Park Apartments,"['gym', 'health', 'point_of_interest', 'establishment']","3500 Palmilla Drive, San Jose",37.4079402,-121.9379907
53,"Santa Clara, California",gym,ChIJK7xb3gjMj4ARPPZ-r2ppU6s,City Sports Club,"['gym', 'health', 'point_of_interest', 'establishment']","1045 East Brokaw Road, San Jose",37.3841961,-121.8981611
54,"Santa Clara, California",gym,ChIJne0uYta1j4ARGOZINuM1C7c,American Kickboxing Academy Sunnyvale,"['gym', 'health', 'point_of_interest', 'establishment']","168 East Fremont Avenue, Sunnyvale",37.35119340000001,-122.0298596
55,"Santa Clara, California",gym,ChIJ10OwaCG3j4ARkM8KcPldDIg,Gold Star Gymnastics,"['gym', 'health', 'point_of_interest', 'establishment']","727 Sunnyvale Saratoga Road, Sunnyvale",37.36680619999999,-122.0334962
56,"Santa Clara, California",gym,ChIJscQfx6C3j4ARvZpp21SN8h8,Moffett Towers Club,"['spa', 'gym', 'health', 'point_of_interest', 'establishment']","1080 Enterprise Way, Sunnyvale",37.40675499999999,-122.0365857
57,"Santa Clara, California",gym,ChIJvYWTfG3Lj4ARKV9JxB0x52c,Center For Spiritual Enlightenment,"['church', 'place_of_worship', 'gym', 'health', 'point_of_interest', 'establishment']","1146 University Avenue, San Jose",37.33901739999999,-121.9224343
58,"Santa Clara, California",gym,ChIJuWS3T_vJj4ARryUe6nCH_50,Bay Club Santa Clara,"['gym', 'health', 'point_of_interest', 'establishment']","3250 Central Expressway, Santa Clara",37.37683579999999,-121.9860288
59,"Santa Clara, California",gym,ChIJhYjLblDLj4ARu3R0gA82RP4,California Sports Center - Race St,"['gym', 'health', 'point_of_interest', 'establishment']","336 Race Street, San Jose",37.3223978,-121.9111306
0,"San Jose, California",gym,ChIJi1d6FnMzjoARN1TfVMaxwCU,24 Hour Fitness,"['gym', 'health', 'point_of_interest', 'establishment']","2306 Almaden Road #140, San Jose",37.2911738,-121.8792991
1,"San Jose, California",gym,ChIJrYuZNI3Lj4ARY8QMl0jFYuc,24 Hour Fitness,"['gym', 'health', 'point_of_interest', 'establishment']","1610 Crane Court, San Jose",37.3714584,-121.9114983
2,"San Jose, California",gym,ChIJE4HRpE7Lj4ARoMK7LEvzC8g,24 Hour Fitness,"['gym', 'health', 'point_of_interest', 'establishment']","1531 Parkmoor Avenue, San Jose",37.3177699,-121.915649
3,"San Jose, California",gym,ChIJE_kUDWY0joAR3PBHRxKuV60,24 Hour Fitness,"['gym', 'health', 'point_of_interest', 'establishment']","1825 Hillsdale Avenue A, San Jose",37.2642501,-121.9195191
4,"San Jose, California",gym,ChIJc5cEBwjNj4ARdg1Yw53gJH4,24 Hour Fitness,"['gym', 'health', 'point_of_interest', 'establishment']","375A North Capitol Avenue, San Jose",37.3711461,-121.8467643
5,"San Jose, California",gym,ChIJd8sMc5TOj4ARPNpTQPiTCWU,Fitness 19,"['gym', 'health', 'point_of_interest', 'establishment']","1350 South Park Victoria Drive #22, Milpitas",37.4178204,-121.8744385
6,"San Jose, California",gym,ChIJqZ-uoIjJj4ARlHbyZshTRZY,American Barbell Clubs,"['gym', 'store', 'health', 'point_of_interest', 'establishment']","1900 Duane Avenue, Santa Clara",37.379918,-121.959164
7,"San Jose, California",gym,ChIJ590bAYXJj4AR0CnHpe7w1RY,Sagar Hot Yoga/Pilates Santa Clara,"['gym', 'health', 'point_of_interest', 'establishment']","1500 Norman Avenue #201, Santa Clara",37.384476,-121.955999
8,"San Jose, California",gym,ChIJK7xb3gjMj4ARPPZ-r2ppU6s,City Sports Club,"['gym', 'health', 'point_of_interest', 'establishment']","1045 East Brokaw Road, San Jose",37.3841961,-121.8981611
9,"San Jose, California",gym,ChIJvYWTfG3Lj4ARKV9JxB0x52c,Center For Spiritual Enlightenment,"['church', 'place_of_worship', 'gym', 'health', 'point_of_interest', 'establishment']","1146 University Avenue, San Jose",37.33901739999999,-121.9224343
10,"San Jose, California",gym,ChIJhYjLblDLj4ARu3R0gA82RP4,California Sports Center - Race St,"['gym', 'health', 'point_of_interest', 'establishment']","336 Race Street, San Jose",37.3223978,-121.9111306
11,"San Jose, California",gym,ChIJXWHIXGwzjoARwnfA3Fw_ysU,California Sports Center - Malone,"['gym', 'health', 'point_of_interest', 'establishment']","832 Malone Road, San Jose",37.2962216,-121.8825731
12,"San Jose, California",gym,ChIJT9zBorDMj4ARRqE5sY5rbZY,The Studio Climbing,"['gym', 'health', 'point_of_interest', 'establishment']","396 South 1st Street, San Jose",37.33021180000001,-121.8859576
13,"San Jose, California",gym,ChIJWy9TJFgzjoARMAlhvl9l1dQ,Willow Glen Yoga,"['gym', 'health', 'point_of_interest', 'establishment']","1188 Lincoln Avenue, San Jose",37.3069625,-121.8994391
14,"San Jose, California",gym,ChIJn6jEQg7Jj4ARmAfz3y_HuvA,The Sycamores at North Park Apartments,"['gym', 'health', 'point_of_interest', 'establishment']","3500 Palmilla Drive, San Jose",37.4079402,-121.9379907
15,"San Jose, California",gym,ChIJJcrIuZXOj4ARiB2C9W7a0NU,Milpitas Boxing & Fitness,"['gym', 'health', 'point_of_interest', 'establishment']","1535 Landess Avenue, Milpitas",37.41686300000001,-121.8768701
16,"San Jose, California",gym,ChIJBWfQAC_Kj4ARJU3I9lHjjz8,Airborne Gymnastics,"['gym', 'health', 'point_of_interest', 'establishment']","1515 Walsh Avenue, Santa Clara",37.370437,-121.9564803
17,"San Jose, California",gym,ChIJFW7wGaDNj4ARNKYgVALyoTo,San Jose Boxing & Fitness,"['gym', 'health', 'point_of_interest', 'establishment']","3469 McKee Road, San Jose",37.3814218,-121.8288426
18,"San Jose, California",gym,ChIJCSCY_GkyjoARC4nPDjhlP9c,Seven Trees Community Center,"['gym', 'health', 'point_of_interest', 'establishment']","3590 Cas Drive, San Jose",37.2849667,-121.8332644
19,"San Jose, California",gym,ChIJOR9k7HXJj4AR0icIWCC-2-c,Just Breathe Yoga,"['gym', 'health', 'point_of_interest', 'establishment']","3971 Rivermark Plaza, Santa Clara",37.39541479999999,-121.9463656
20,"San Jose, California",gym,ChIJi1d6FnMzjoARN1TfVMaxwCU,24 Hour Fitness,"['gym', 'health', 'point_of_interest', 'establishment']","2306 Almaden Road #140, San Jose",37.2911738,-121.8792991
21,"San Jose, California",gym,ChIJrYuZNI3Lj4ARY8QMl0jFYuc,24 Hour Fitness,"['gym', 'health', 'point_of_interest', 'establishment']","1610 Crane Court, San Jose",37.3714584,-121.9114983
22,"San Jose, California",gym,ChIJE4HRpE7Lj4ARoMK7LEvzC8g,24 Hour Fitness,"['gym', 'health', 'point_of_interest', 'establishment']","1531 Parkmoor Avenue, San Jose",37.3177699,-121.915649
23,"San Jose, California",gym,ChIJE_kUDWY0joAR3PBHRxKuV60,24 Hour Fitness,"['gym', 'health', 'point_of_interest', 'establishment']","1825 Hillsdale Avenue A, San Jose",37.2642501,-121.9195191
24,"San Jose, California",gym,ChIJc5cEBwjNj4ARdg1Yw53gJH4,24 Hour Fitness,"['gym', 'health', 'point_of_interest', 'establishment']","375A North Capitol Avenue, San Jose",37.3711461,-121.8467643
25,"San Jose, California",gym,ChIJd8sMc5TOj4ARPNpTQPiTCWU,Fitness 19,"['gym', 'health', 'point_of_interest', 'establishment']","1350 South Park Victoria Drive #22, Milpitas",37.4178204,-121.8744385
26,"San Jose, California",gym,ChIJqZ-uoIjJj4ARlHbyZshTRZY,American Barbell Clubs,"['gym', 'store', 'health', 'point_of_interest', 'establishment']","1900 Duane Avenue, Santa Clara",37.379918,-121.959164
27,"San Jose, California",gym,ChIJ590bAYXJj4AR0CnHpe7w1RY,Sagar Hot Yoga/Pilates Santa Clara,"['gym', 'health', 'point_of_interest', 'establishment']","1500 Norman Avenue #201, Santa Clara",37.384476,-121.955999
28,"San Jose, California",gym,ChIJK7xb3gjMj4ARPPZ-r2ppU6s,City Sports Club,"['gym', 'health', 'point_of_interest', 'establishment']","1045 East Brokaw Road, San Jose",37.3841961,-121.8981611
29,"San Jose, California",gym,ChIJvYWTfG3Lj4ARKV9JxB0x52c,Center For Spiritual Enlightenment,"['church', 'place_of_worship', 'gym', 'health', 'point_of_interest', 'establishment']","1146 University Avenue, San Jose",37.33901739999999,-121.9224343
30,"San Jose, California",gym,ChIJhYjLblDLj4ARu3R0gA82RP4,California Sports Center - Race St,"['gym', 'health', 'point_of_interest', 'establishment']","336 Race Street, San Jose",37.3223978,-121.9111306
31,"San Jose, California",gym,ChIJXWHIXGwzjoARwnfA3Fw_ysU,California Sports Center - Malone,"['gym', 'health', 'point_of_interest', 'establishment']","832 Malone Road, San Jose",37.2962216,-121.8825731
32,"San Jose, California",gym,ChIJT9zBorDMj4ARRqE5sY5rbZY,The Studio Climbing,"['gym', 'health', 'point_of_interest', 'establishment']","396 South 1st Street, San Jose",37.33021180000001,-121.8859576
33,"San Jose, California",gym,ChIJWy9TJFgzjoARMAlhvl9l1dQ,Willow Glen Yoga,"['gym', 'health', 'point_of_interest', 'establishment']","1188 Lincoln Avenue, San Jose",37.3069625,-121.8994391
34,"San Jose, California",gym,ChIJn6jEQg7Jj4ARmAfz3y_HuvA,The Sycamores at North Park Apartments,"['gym', 'health', 'point_of_interest', 'establishment']","3500 Palmilla Drive, San Jose",37.4079402,-121.9379907
35,"San Jose, California",gym,ChIJJcrIuZXOj4ARiB2C9W7a0NU,Milpitas Boxing & Fitness,"['gym', 'health', 'point_of_interest', 'establishment']","1535 Landess Avenue, Milpitas",37.41686300000001,-121.8768701
36,"San Jose, California",gym,ChIJBWfQAC_Kj4ARJU3I9lHjjz8,Airborne Gymnastics,"['gym', 'health', 'point_of_interest', 'establishment']","1515 Walsh Avenue, Santa Clara",37.370437,-121.9564803
37,"San Jose, California",gym,ChIJFW7wGaDNj4ARNKYgVALyoTo,San Jose Boxing & Fitness,"['gym', 'health', 'point_of_interest', 'establishment']","3469 McKee Road, San Jose",37.3814218,-121.8288426
38,"San Jose, California",gym,ChIJCSCY_GkyjoARC4nPDjhlP9c,Seven Trees Community Center,"['gym', 'health', 'point_of_interest', 'establishment']","3590 Cas Drive, San Jose",37.2849667,-121.8332644
39,"San Jose, California",gym,ChIJOR9k7HXJj4AR0icIWCC-2-c,Just Breathe Yoga,"['gym', 'health', 'point_of_interest', 'establishment']","3971 Rivermark Plaza, Santa Clara",37.39541479999999,-121.9463656
40,"San Jose, California",gym,ChIJi1d6FnMzjoARN1TfVMaxwCU,24 Hour Fitness,"['gym', 'health', 'point_of_interest', 'establishment']","2306 Almaden Road #140, San Jose",37.2911738,-121.8792991
41,"San Jose, California",gym,ChIJrYuZNI3Lj4ARY8QMl0jFYuc,24 Hour Fitness,"['gym', 'health', 'point_of_interest', 'establishment']","1610 Crane Court, San Jose",37.3714584,-121.9114983
42,"San Jose, California",gym,ChIJE4HRpE7Lj4ARoMK7LEvzC8g,24 Hour Fitness,"['gym', 'health', 'point_of_interest', 'establishment']","1531 Parkmoor Avenue, San Jose",37.3177699,-121.915649
43,"San Jose, California",gym,ChIJE_kUDWY0joAR3PBHRxKuV60,24 Hour Fitness,"['gym', 'health', 'point_of_interest', 'establishment']","1825 Hillsdale Avenue A, San Jose",37.2642501,-121.9195191
44,"San Jose, California",gym,ChIJc5cEBwjNj4ARdg1Yw53gJH4,24 Hour Fitness,"['gym', 'health', 'point_of_interest', 'establishment']","375A North Capitol Avenue, San Jose",37.3711461,-121.8467643
45,"San Jose, California",gym,ChIJd8sMc5TOj4ARPNpTQPiTCWU,Fitness 19,"['gym', 'health', 'point_of_interest', 'establishment']","1350 South Park Victoria Drive #22, Milpitas",37.4178204,-121.8744385
46,"San Jose, California",gym,ChIJqZ-uoIjJj4ARlHbyZshTRZY,American Barbell Clubs,"['gym', 'store', 'health', 'point_of_interest', 'establishment']","1900 Duane Avenue, Santa Clara",37.379918,-121.959164
47,"San Jose, California",gym,ChIJ590bAYXJj4AR0CnHpe7w1RY,Sagar Hot Yoga/Pilates Santa Clara,"['gym', 'health', 'point_of_interest', 'establishment']","1500 Norman Avenue #201, Santa Clara",37.384476,-121.955999
48,"San Jose, California",gym,ChIJK7xb3gjMj4ARPPZ-r2ppU6s,City Sports Club,"['gym', 'health', 'point_of_interest', 'establishment']","1045 East Brokaw Road, San Jose",37.3841961,-121.8981611
49,"San Jose, California",gym,ChIJvYWTfG3Lj4ARKV9JxB0x52c,Center For Spiritual Enlightenment,"['church', 'place_of_worship', 'gym', 'health', 'point_of_interest', 'establishment']","1146 University Avenue, San Jose",37.33901739999999,-121.9224343
50,"San Jose, California",gym,ChIJhYjLblDLj4ARu3R0gA82RP4,California Sports Center - Race St,"['gym', 'health', 'point_of_interest', 'establishment']","336 Race Street, San Jose",37.3223978,-121.9111306
51,"San Jose, California",gym,ChIJXWHIXGwzjoARwnfA3Fw_ysU,California Sports Center - Malone,"['gym', 'health', 'point_of_interest', 'establishment']","832 Malone Road, San Jose",37.2962216,-121.8825731
52,"San Jose, California",gym,ChIJT9zBorDMj4ARRqE5sY5rbZY,The Studio Climbing,"['gym', 'health', 'point_of_interest', 'establishment']","396 South 1st Street, San Jose",37.33021180000001,-121.8859576
53,"San Jose, California",gym,ChIJWy9TJFgzjoARMAlhvl9l1dQ,Willow Glen Yoga,"['gym', 'health', 'point_of_interest', 'establishment']","1188 Lincoln Avenue, San Jose",37.3069625,-121.8994391
54,"San Jose, California",gym,ChIJn6jEQg7Jj4ARmAfz3y_HuvA,The Sycamores at North Park Apartments,"['gym', 'health', 'point_of_interest', 'establishment']","3500 Palmilla Drive, San Jose",37.4079402,-121.9379907
55,"San Jose, California",gym,ChIJJcrIuZXOj4ARiB2C9W7a0NU,Milpitas Boxing & Fitness,"['gym', 'health', 'point_of_interest', 'establishment']","1535 Landess Avenue, Milpitas",37.41686300000001,-121.8768701
56,"San Jose, California",gym,ChIJBWfQAC_Kj4ARJU3I9lHjjz8,Airborne Gymnastics,"['gym', 'health', 'point_of_interest', 'establishment']","1515 Walsh Avenue, Santa Clara",37.370437,-121.9564803
57,"San Jose, California",gym,ChIJFW7wGaDNj4ARNKYgVALyoTo,San Jose Boxing & Fitness,"['gym', 'health', 'point_of_interest', 'establishment']","3469 McKee Road, San Jose",37.3814218,-121.8288426
58,"San Jose, California",gym,ChIJCSCY_GkyjoARC4nPDjhlP9c,Seven Trees Community Center,"['gym', 'health', 'point_of_interest', 'establishment']","3590 Cas Drive, San Jose",37.2849667,-121.8332644
59,"San Jose, California",gym,ChIJOR9k7HXJj4AR0icIWCC-2-c,Just Breathe Yoga,"['gym', 'health', 'point_of_interest', 'establishment']","3971 Rivermark Plaza, Santa Clara",37.39541479999999,-121.9463656
0,"Fremont, California",gym,ChIJb_Vqz5HAj4ARHNoFvcehKok,24 Hour Fitness,"['gym', 'health', 'point_of_interest', 'establishment']","39300 Paseo Padre Parkway, Fremont",37.5536371,-121.9777348
1,"Fremont, California",gym,ChIJ4aAqgZmVj4AR5THPeuWHn9Q,Pacific West Gymnastics,"['gym', 'health', 'school', 'point_of_interest', 'establishment']","32920 Alvarado-Niles Road #210, Union City",37.596174,-122.046543
2,"Fremont, California",gym,ChIJtx8ao07Gj4ARZfAg8FV7Jl0,ClubSport Fremont Health and Fitness Gym,"['gym', 'spa', 'health', 'point_of_interest', 'establishment']","46650 Landing Parkway, Fremont",37.483559,-121.940697
3,"Fremont, California",gym,ChIJ-QWnM1q_j4ARd-lq4x3mfAE,Planet Fitness,"['gym', 'health', 'point_of_interest', 'establishment']","39161 Farwell Drive, Fremont",37.5295005,-121.9994632
4,"Fremont, California",gym,ChIJv22MjVu_j4AR_zlHfMXV_H8,City Sports Club,"['gym', 'health', 'point_of_interest', 'establishment']","39153 Farwell Drive, Fremont",37.5312654,-122.0001375
5,"Fremont, California",gym,ChIJVWXZjrnGj4ARo2_pODdxA5U,Snap Fitness,"['gym', 'health', 'point_of_interest', 'establishment']","43480 Mission Boulevard Suite #160, Fremont",37.5316339,-121.9193263
6,"Fremont, California",gym,ChIJKdLLRN_Gj4ARH62bDqpkE1Y,Mind Body Zone LLC,"['gym', 'health', 'point_of_interest', 'establishment']","3335 Seldon Court, Fremont",37.51920070000001,-121.9471351
7,"Fremont, California",gym,ChIJBX2Y-2zHj4ARhMzadZCyAsw,United Badminton Club,"['gym', 'health', 'point_of_interest', 'establishment']","43901 Boscell Road, Fremont",37.4996944,-121.9724284
8,"Fremont, California",gym,ChIJUc-BeNLAj4ARafcbhP9uQdA,"Physique Complete, LLC","['gym', 'store', 'health', 'point_of_interest', 'establishment']","3984 Washington Boulevard, Fremont",37.53200340000001,-121.9584426
9,"Fremont, California",gym,ChIJQf0oFim-j4AROohLUs5YzDk,Calphin Aquatic Club,"['gym', 'health', 'school', 'point_of_interest', 'establishment']","34075 Fremont Boulevard, Fremont",37.5766755,-122.0460558
10,"Fremont, California",gym,ChIJrxcL4lHHj4ARgz5kntFENLM,Wellness By All Means,"['gym', 'health', 'school', 'point_of_interest', 'establishment']","5500 Stewart Avenue, Fremont",37.5172492,-121.9812545
11,"Fremont, California",gym,ChIJV11CL2HAj4ARVlBM3OmX_Vs,Art of Living Foundation,"['gym', 'health', 'school', 'point_of_interest', 'establishment']","555 Mowry Avenue, Fremont",37.5681848,-121.9731719
12,"Fremont, California",gym,ChIJPbkZRVG_j4ARHq9ZViaPGOM,Xplore Yoga Newark,"['gym', 'health', 'point_of_interest', 'establishment']","5572 Newpark Mall Road, Newark",37.52312999999999,-121.998567
13,"Fremont, California",gym,ChIJO9rjCcmVj4ARxjY9EWhYNAU,24 Hour Fitness,"['gym', 'health', 'point_of_interest', 'establishment']","2480 Whipple Road, Hayward",37.6054886,-122.0643905
14,"Fremont, California",gym,ChIJqUnc052_j4ARkNHYKbj5l7Y,CrossFit of Fremont,"['gym', 'health', 'point_of_interest', 'establishment']","37330 Cedar Boulevard, Newark",37.5413229,-122.0205975
15,"Fremont, California",gym,ChIJ2fj5MneVj4AR2h-bCJiddzY,Crossfit One World & Self Defense,"['gym', 'health', 'point_of_interest', 'establishment']","33415 Western Avenue, Union City",37.595548,-122.03315
16,"Fremont, California",gym,ChIJcUfO2RXHj4AR3zpYI80o944,Bay Aerials Gymnastics,"['gym', 'health', 'point_of_interest', 'establishment']","4883 Davenport Place, Fremont",37.507206,-121.9650883
17,"Fremont, California",gym,ChIJ7ztZ0s3Aj4ARFi0sI1MK_vk,Karate For Kids/ Martial Arts America,"['gym', 'health', 'point_of_interest', 'establishment']","4040 Papazian Way, Fremont",37.5333569,-121.9612864
18,"Fremont, California",gym,ChIJd3LH4V2_j4AR84SJqIBE4q8,Top Flight,"['gym', 'health', 'point_of_interest', 'establishment']","5127 Mowry Ave, Fremont",37.536254,-122.0008885
19,"Fremont, California",gym,ChIJ-QL3jJnAj4ARa33CM2bvxik,Fremont - Body & Brain YogaTai Chi,"['gym', 'health', 'school', 'point_of_interest', 'establishment']","39360 Fremont Boulevard, Fremont",37.5463646,-121.9830147
20,"Fremont, California",gym,ChIJb_Vqz5HAj4ARHNoFvcehKok,24 Hour Fitness,"['gym', 'health', 'point_of_interest', 'establishment']","39300 Paseo Padre Parkway, Fremont",37.5536371,-121.9777348
21,"Fremont, California",gym,ChIJ4aAqgZmVj4AR5THPeuWHn9Q,Pacific West Gymnastics,"['gym', 'health', 'school', 'point_of_interest', 'establishment']","32920 Alvarado-Niles Road #210, Union City",37.596174,-122.046543
22,"Fremont, California",gym,ChIJtx8ao07Gj4ARZfAg8FV7Jl0,ClubSport Fremont Health and Fitness Gym,"['gym', 'spa', 'health', 'point_of_interest', 'establishment']","46650 Landing Parkway, Fremont",37.483559,-121.940697
23,"Fremont, California",gym,ChIJ-QWnM1q_j4ARd-lq4x3mfAE,Planet Fitness,"['gym', 'health', 'point_of_interest', 'establishment']","39161 Farwell Drive, Fremont",37.5295005,-121.9994632
24,"Fremont, California",gym,ChIJv22MjVu_j4AR_zlHfMXV_H8,City Sports Club,"['gym', 'health', 'point_of_interest', 'establishment']","39153 Farwell Drive, Fremont",37.5312654,-122.0001375
25,"Fremont, California",gym,ChIJVWXZjrnGj4ARo2_pODdxA5U,Snap Fitness,"['gym', 'health', 'point_of_interest', 'establishment']","43480 Mission Boulevard Suite #160, Fremont",37.5316339,-121.9193263
26,"Fremont, California",gym,ChIJKdLLRN_Gj4ARH62bDqpkE1Y,Mind Body Zone LLC,"['gym', 'health', 'point_of_interest', 'establishment']","3335 Seldon Court, Fremont",37.51920070000001,-121.9471351
27,"Fremont, California",gym,ChIJBX2Y-2zHj4ARhMzadZCyAsw,United Badminton Club,"['gym', 'health', 'point_of_interest', 'establishment']","43901 Boscell Road, Fremont",37.4996944,-121.9724284
28,"Fremont, California",gym,ChIJUc-BeNLAj4ARafcbhP9uQdA,"Physique Complete, LLC","['gym', 'store', 'health', 'point_of_interest', 'establishment']","3984 Washington Boulevard, Fremont",37.53200340000001,-121.9584426
29,"Fremont, California",gym,ChIJQf0oFim-j4AROohLUs5YzDk,Calphin Aquatic Club,"['gym', 'health', 'school', 'point_of_interest', 'establishment']","34075 Fremont Boulevard, Fremont",37.5766755,-122.0460558
30,"Fremont, California",gym,ChIJrxcL4lHHj4ARgz5kntFENLM,Wellness By All Means,"['gym', 'health', 'school', 'point_of_interest', 'establishment']","5500 Stewart Avenue, Fremont",37.5172492,-121.9812545
31,"Fremont, California",gym,ChIJV11CL2HAj4ARVlBM3OmX_Vs,Art of Living Foundation,"['gym', 'health', 'school', 'point_of_interest', 'establishment']","555 Mowry Avenue, Fremont",37.5681848,-121.9731719
32,"Fremont, California",gym,ChIJPbkZRVG_j4ARHq9ZViaPGOM,Xplore Yoga Newark,"['gym', 'health', 'point_of_interest', 'establishment']","5572 Newpark Mall Road, Newark",37.52312999999999,-121.998567
33,"Fremont, California",gym,ChIJO9rjCcmVj4ARxjY9EWhYNAU,24 Hour Fitness,"['gym', 'health', 'point_of_interest', 'establishment']","2480 Whipple Road, Hayward",37.6054886,-122.0643905
34,"Fremont, California",gym,ChIJqUnc052_j4ARkNHYKbj5l7Y,CrossFit of Fremont,"['gym', 'health', 'point_of_interest', 'establishment']","37330 Cedar Boulevard, Newark",37.5413229,-122.0205975
35,"Fremont, California",gym,ChIJ2fj5MneVj4AR2h-bCJiddzY,Crossfit One World & Self Defense,"['gym', 'health', 'point_of_interest', 'establishment']","33415 Western Avenue, Union City",37.595548,-122.03315
36,"Fremont, California",gym,ChIJcUfO2RXHj4AR3zpYI80o944,Bay Aerials Gymnastics,"['gym', 'health', 'point_of_interest', 'establishment']","4883 Davenport Place, Fremont",37.507206,-121.9650883
37,"Fremont, California",gym,ChIJ7ztZ0s3Aj4ARFi0sI1MK_vk,Karate For Kids/ Martial Arts America,"['gym', 'health', 'point_of_interest', 'establishment']","4040 Papazian Way, Fremont",37.5333569,-121.9612864
38,"Fremont, California",gym,ChIJd3LH4V2_j4AR84SJqIBE4q8,Top Flight,"['gym', 'health', 'point_of_interest', 'establishment']","5127 Mowry Ave, Fremont",37.536254,-122.0008885
39,"Fremont, California",gym,ChIJ-QL3jJnAj4ARa33CM2bvxik,Fremont - Body & Brain YogaTai Chi,"['gym', 'health', 'school', 'point_of_interest', 'establishment']","39360 Fremont Boulevard, Fremont",37.5463646,-121.9830147
40,"Fremont, California",gym,ChIJb_Vqz5HAj4ARHNoFvcehKok,24 Hour Fitness,"['gym', 'health', 'point_of_interest', 'establishment']","39300 Paseo Padre Parkway, Fremont",37.5536371,-121.9777348
41,"Fremont, California",gym,ChIJ4aAqgZmVj4AR5THPeuWHn9Q,Pacific West Gymnastics,"['gym', 'health', 'school', 'point_of_interest', 'establishment']","32920 Alvarado-Niles Road #210, Union City",37.596174,-122.046543
42,"Fremont, California",gym,ChIJtx8ao07Gj4ARZfAg8FV7Jl0,ClubSport Fremont Health and Fitness Gym,"['gym', 'spa', 'health', 'point_of_interest', 'establishment']","46650 Landing Parkway, Fremont",37.483559,-121.940697
43,"Fremont, California",gym,ChIJ-QWnM1q_j4ARd-lq4x3mfAE,Planet Fitness,"['gym', 'health', 'point_of_interest', 'establishment']","39161 Farwell Drive, Fremont",37.5295005,-121.9994632
44,"Fremont, California",gym,ChIJv22MjVu_j4AR_zlHfMXV_H8,City Sports Club,"['gym', 'health', 'point_of_interest', 'establishment']","39153 Farwell Drive, Fremont",37.5312654,-122.0001375
45,"Fremont, California",gym,ChIJVWXZjrnGj4ARo2_pODdxA5U,Snap Fitness,"['gym', 'health', 'point_of_interest', 'establishment']","43480 Mission Boulevard Suite #160, Fremont",37.5316339,-121.9193263
46,"Fremont, California",gym,ChIJKdLLRN_Gj4ARH62bDqpkE1Y,Mind Body Zone LLC,"['gym', 'health', 'point_of_interest', 'establishment']","3335 Seldon Court, Fremont",37.51920070000001,-121.9471351
47,"Fremont, California",gym,ChIJBX2Y-2zHj4ARhMzadZCyAsw,United Badminton Club,"['gym', 'health', 'point_of_interest', 'establishment']","43901 Boscell Road, Fremont",37.4996944,-121.9724284
48,"Fremont, California",gym,ChIJUc-BeNLAj4ARafcbhP9uQdA,"Physique Complete, LLC","['gym', 'store', 'health', 'point_of_interest', 'establishment']","3984 Washington Boulevard, Fremont",37.53200340000001,-121.9584426
49,"Fremont, California",gym,ChIJQf0oFim-j4AROohLUs5YzDk,Calphin Aquatic Club,"['gym', 'health', 'school', 'point_of_interest', 'establishment']","34075 Fremont Boulevard, Fremont",37.5766755,-122.0460558
50,"Fremont, California",gym,ChIJrxcL4lHHj4ARgz5kntFENLM,Wellness By All Means,"['gym', 'health', 'school', 'point_of_interest', 'establishment']","5500 Stewart Avenue, Fremont",37.5172492,-121.9812545
51,"Fremont, California",gym,ChIJV11CL2HAj4ARVlBM3OmX_Vs,Art of Living Foundation,"['gym', 'health', 'school', 'point_of_interest', 'establishment']","555 Mowry Avenue, Fremont",37.5681848,-121.9731719
52,"Fremont, California",gym,ChIJPbkZRVG_j4ARHq9ZViaPGOM,Xplore Yoga Newark,"['gym', 'health', 'point_of_interest', 'establishment']","5572 Newpark Mall Road, Newark",37.52312999999999,-121.998567
53,"Fremont, California",gym,ChIJO9rjCcmVj4ARxjY9EWhYNAU,24 Hour Fitness,"['gym', 'health', 'point_of_interest', 'establishment']","2480 Whipple Road, Hayward",37.6054886,-122.0643905
54,"Fremont, California",gym,ChIJqUnc052_j4ARkNHYKbj5l7Y,CrossFit of Fremont,"['gym', 'health', 'point_of_interest', 'establishment']","37330 Cedar Boulevard, Newark",37.5413229,-122.0205975
55,"Fremont, California",gym,ChIJ2fj5MneVj4AR2h-bCJiddzY,Crossfit One World & Self Defense,"['gym', 'health', 'point_of_interest', 'establishment']","33415 Western Avenue, Union City",37.595548,-122.03315
56,"Fremont, California",gym,ChIJcUfO2RXHj4AR3zpYI80o944,Bay Aerials Gymnastics,"['gym', 'health', 'point_of_interest', 'establishment']","4883 Davenport Place, Fremont",37.507206,-121.9650883
57,"Fremont, California",gym,ChIJ7ztZ0s3Aj4ARFi0sI1MK_vk,Karate For Kids/ Martial Arts America,"['gym', 'health', 'point_of_interest', 'establishment']","4040 Papazian Way, Fremont",37.5333569,-121.9612864
58,"Fremont, California",gym,ChIJd3LH4V2_j4AR84SJqIBE4q8,Top Flight,"['gym', 'health', 'point_of_interest', 'establishment']","5127 Mowry Ave, Fremont",37.536254,-122.0008885
59,"Fremont, California",gym,ChIJ-QL3jJnAj4ARa33CM2bvxik,Fremont - Body & Brain YogaTai Chi,"['gym', 'health', 'school', 'point_of_interest', 'establishment']","39360 Fremont Boulevard, Fremont",37.5463646,-121.9830147
