,City,Type,Place ID,Name,Point of interests,Address,Lat,Lng
0,"San Francisco, California",local_government_office,ChIJlbvCgJ6AhYARv4JSejr6lU8,San Francisco Municipal Transportation Agency,"['local_government_office', 'point_of_interest', 'establishment']","1 South Van Ness Avenue, San Francisco",37.77495499999999,-122.419055
1,"San Francisco, California",local_government_office,ChIJd2spnJuAhYARbbDmxMLr-ws,Project Read-Main Library,"['library', 'local_government_office', 'point_of_interest', 'establishment']","100 Larkin Street, San Francisco",37.7791156,-122.4157662
2,"San Francisco, California",local_government_office,ChIJAe-oMNd_j4AR-PSfbqF0BbY,California Unemployment Insurance Appeals Board,"['local_government_office', 'point_of_interest', 'establishment']","185 Berry Street # 200, San Francisco",37.77650670000001,-122.3920394
3,"San Francisco, California",local_government_office,ChIJf21VOpqAhYARIgY0yWCWuP8,Supreme Court of California,"['courthouse', 'local_government_office', 'point_of_interest', 'establishment']","350 McAllister Street, San Francisco",37.7807339,-122.4178528
4,"San Francisco, California",local_government_office,ChIJjzgIo56AhYARtXdJAWnHwt0,Public Works Department Engineering,"['local_government_office', 'point_of_interest', 'establishment']","30 Van Ness Avenue # 5100, San Francisco",37.77597,-122.4190548
5,"San Francisco, California",local_government_office,ChIJp2UYiWKAhYARWbFNX3-c7bA,Victorian Government Business Office,"['local_government_office', 'finance', 'point_of_interest', 'establishment']","575 Market Street, San Francisco",37.7896601,-122.4004355
6,"San Francisco, California",local_government_office,ChIJF-l7ZYiAhYARU-zELCWxKwA,VisaCentral San Francisco,"['local_government_office', 'point_of_interest', 'establishment']","555 Montgomery Street, San Francisco",37.7943714,-122.4036105
7,"San Francisco, California",local_government_office,ChIJEfL_42SAhYARDf1dtbmQT68,The State Bar of California,"['lawyer', 'local_government_office', 'point_of_interest', 'establishment']","180 Howard Street, San Francisco",37.79115900000001,-122.393274
8,"San Francisco, California",local_government_office,ChIJ3UTZGJqAhYARWnUjlHYTJOk,Assemblyman Tom Ammiano,"['local_government_office', 'point_of_interest', 'establishment']","455 Golden Gate Avenue # 14300, San Francisco",37.7811142,-122.4180618
9,"San Francisco, California",local_government_office,ChIJzwpUCZyAhYARpD64Jc7SNb4,"San Francisco City & County: Department of Children, Youth & Their Families (DCYF)","['local_government_office', 'point_of_interest', 'establishment']","1390 Market Street #900, San Francisco",37.7770837,-122.4176807
10,"San Francisco, California",local_government_office,ChIJb5sV-T5-j4ARsgGyPhUmAT4,US Social Security Administration,"['local_government_office', 'point_of_interest', 'establishment']","1098 Valencia Street, San Francisco",37.7554763,-122.4212374
11,"San Francisco, California",local_government_office,ChIJTbkSkpeAhYAR2mpRc-5df-0,Experience Unlimited,"['local_government_office', 'point_of_interest', 'establishment']","745 Franklin Street, San Francisco",37.781352,-122.422385
12,"San Francisco, California",local_government_office,ChIJO8CPF2GAhYARjxt6Nf_Infk,Travel Document Systems,"['travel_agency', 'local_government_office', 'point_of_interest', 'establishment']","One Embarcadero Center Suite #552, San Francisco",37.794883,-122.399814
13,"San Francisco, California",local_government_office,ChIJ4djOTYqAhYARwcDnu8aCr68,SeedPort,"['local_government_office', 'point_of_interest', 'establishment']","580 California Street, San Francisco",37.7928738,-122.4039427
14,"San Francisco, California",local_government_office,ChIJsQywyImAhYARjsNbnRN4UB8,Natural Resources Defense Council,"['local_government_office', 'point_of_interest', 'establishment']","111 Sutter Street # 20, San Francisco",37.7898134,-122.4025526
15,"San Francisco, California",local_government_office,ChIJdxz21ZuAhYARN11qqiOe8r0,San Francisco Pool Service,"['courthouse', 'local_government_office', 'point_of_interest', 'establishment']","1 Doctor Carlton B Goodlett Place, San Francisco",37.7792845,-122.4195323
16,"San Francisco, California",local_government_office,ChIJh2VAamKAhYARDyC6QgZ8sWw,HOK,"['local_government_office', 'general_contractor', 'point_of_interest', 'establishment']","One Bush Street Suite 200, San Francisco",37.79097819999999,-122.4000388
17,"San Francisco, California",local_government_office,ChIJOS1iwJ6AhYARRp8zRUk08S8,San Francisco Arts Commission,"['local_government_office', 'point_of_interest', 'establishment']","401 Van Ness Avenue #325, San Francisco",37.7795853,-122.4210028
18,"San Francisco, California",local_government_office,ChIJKc7FX5mAhYARsTUy353leeA,San Francisco Office of Vital Records,"['local_government_office', 'point_of_interest', 'establishment']","101 Grove Street #105, San Francisco",37.7781592,-122.4186388
19,"San Francisco, California",local_government_office,ChIJA5OA_YWAhYARnUMSIXhGWuM,Visa Network,"['local_government_office', 'point_of_interest', 'establishment']","870 Market Street #888, San Francisco",37.785156,-122.407535
20,"San Francisco, California",local_government_office,ChIJlbvCgJ6AhYARv4JSejr6lU8,San Francisco Municipal Transportation Agency,"['local_government_office', 'point_of_interest', 'establishment']","1 South Van Ness Avenue, San Francisco",37.77495499999999,-122.419055
21,"San Francisco, California",local_government_office,ChIJd2spnJuAhYARbbDmxMLr-ws,Project Read-Main Library,"['library', 'local_government_office', 'point_of_interest', 'establishment']","100 Larkin Street, San Francisco",37.7791156,-122.4157662
22,"San Francisco, California",local_government_office,ChIJAe-oMNd_j4AR-PSfbqF0BbY,California Unemployment Insurance Appeals Board,"['local_government_office', 'point_of_interest', 'establishment']","185 Berry Street # 200, San Francisco",37.77650670000001,-122.3920394
23,"San Francisco, California",local_government_office,ChIJf21VOpqAhYARIgY0yWCWuP8,Supreme Court of California,"['courthouse', 'local_government_office', 'point_of_interest', 'establishment']","350 McAllister Street, San Francisco",37.7807339,-122.4178528
24,"San Francisco, California",local_government_office,ChIJjzgIo56AhYARtXdJAWnHwt0,Public Works Department Engineering,"['local_government_office', 'point_of_interest', 'establishment']","30 Van Ness Avenue # 5100, San Francisco",37.77597,-122.4190548
25,"San Francisco, California",local_government_office,ChIJp2UYiWKAhYARWbFNX3-c7bA,Victorian Government Business Office,"['local_government_office', 'finance', 'point_of_interest', 'establishment']","575 Market Street, San Francisco",37.7896601,-122.4004355
26,"San Francisco, California",local_government_office,ChIJF-l7ZYiAhYARU-zELCWxKwA,VisaCentral San Francisco,"['local_government_office', 'point_of_interest', 'establishment']","555 Montgomery Street, San Francisco",37.7943714,-122.4036105
27,"San Francisco, California",local_government_office,ChIJEfL_42SAhYARDf1dtbmQT68,The State Bar of California,"['lawyer', 'local_government_office', 'point_of_interest', 'establishment']","180 Howard Street, San Francisco",37.79115900000001,-122.393274
28,"San Francisco, California",local_government_office,ChIJ3UTZGJqAhYARWnUjlHYTJOk,Assemblyman Tom Ammiano,"['local_government_office', 'point_of_interest', 'establishment']","455 Golden Gate Avenue # 14300, San Francisco",37.7811142,-122.4180618
29,"San Francisco, California",local_government_office,ChIJzwpUCZyAhYARpD64Jc7SNb4,"San Francisco City & County: Department of Children, Youth & Their Families (DCYF)","['local_government_office', 'point_of_interest', 'establishment']","1390 Market Street #900, San Francisco",37.7770837,-122.4176807
30,"San Francisco, California",local_government_office,ChIJb5sV-T5-j4ARsgGyPhUmAT4,US Social Security Administration,"['local_government_office', 'point_of_interest', 'establishment']","1098 Valencia Street, San Francisco",37.7554763,-122.4212374
31,"San Francisco, California",local_government_office,ChIJTbkSkpeAhYAR2mpRc-5df-0,Experience Unlimited,"['local_government_office', 'point_of_interest', 'establishment']","745 Franklin Street, San Francisco",37.781352,-122.422385
32,"San Francisco, California",local_government_office,ChIJO8CPF2GAhYARjxt6Nf_Infk,Travel Document Systems,"['travel_agency', 'local_government_office', 'point_of_interest', 'establishment']","One Embarcadero Center Suite #552, San Francisco",37.794883,-122.399814
33,"San Francisco, California",local_government_office,ChIJ4djOTYqAhYARwcDnu8aCr68,SeedPort,"['local_government_office', 'point_of_interest', 'establishment']","580 California Street, San Francisco",37.7928738,-122.4039427
34,"San Francisco, California",local_government_office,ChIJsQywyImAhYARjsNbnRN4UB8,Natural Resources Defense Council,"['local_government_office', 'point_of_interest', 'establishment']","111 Sutter Street # 20, San Francisco",37.7898134,-122.4025526
35,"San Francisco, California",local_government_office,ChIJdxz21ZuAhYARN11qqiOe8r0,San Francisco Pool Service,"['courthouse', 'local_government_office', 'point_of_interest', 'establishment']","1 Doctor Carlton B Goodlett Place, San Francisco",37.7792845,-122.4195323
36,"San Francisco, California",local_government_office,ChIJh2VAamKAhYARDyC6QgZ8sWw,HOK,"['local_government_office', 'general_contractor', 'point_of_interest', 'establishment']","One Bush Street Suite 200, San Francisco",37.79097819999999,-122.4000388
37,"San Francisco, California",local_government_office,ChIJOS1iwJ6AhYARRp8zRUk08S8,San Francisco Arts Commission,"['local_government_office', 'point_of_interest', 'establishment']","401 Van Ness Avenue #325, San Francisco",37.7795853,-122.4210028
38,"San Francisco, California",local_government_office,ChIJKc7FX5mAhYARsTUy353leeA,San Francisco Office of Vital Records,"['local_government_office', 'point_of_interest', 'establishment']","101 Grove Street #105, San Francisco",37.7781592,-122.4186388
39,"San Francisco, California",local_government_office,ChIJA5OA_YWAhYARnUMSIXhGWuM,Visa Network,"['local_government_office', 'point_of_interest', 'establishment']","870 Market Street #888, San Francisco",37.785156,-122.407535
40,"San Francisco, California",local_government_office,ChIJlbvCgJ6AhYARv4JSejr6lU8,San Francisco Municipal Transportation Agency,"['local_government_office', 'point_of_interest', 'establishment']","1 South Van Ness Avenue, San Francisco",37.77495499999999,-122.419055
41,"San Francisco, California",local_government_office,ChIJd2spnJuAhYARbbDmxMLr-ws,Project Read-Main Library,"['library', 'local_government_office', 'point_of_interest', 'establishment']","100 Larkin Street, San Francisco",37.7791156,-122.4157662
42,"San Francisco, California",local_government_office,ChIJAe-oMNd_j4AR-PSfbqF0BbY,California Unemployment Insurance Appeals Board,"['local_government_office', 'point_of_interest', 'establishment']","185 Berry Street # 200, San Francisco",37.77650670000001,-122.3920394
43,"San Francisco, California",local_government_office,ChIJf21VOpqAhYARIgY0yWCWuP8,Supreme Court of California,"['courthouse', 'local_government_office', 'point_of_interest', 'establishment']","350 McAllister Street, San Francisco",37.7807339,-122.4178528
44,"San Francisco, California",local_government_office,ChIJjzgIo56AhYARtXdJAWnHwt0,Public Works Department Engineering,"['local_government_office', 'point_of_interest', 'establishment']","30 Van Ness Avenue # 5100, San Francisco",37.77597,-122.4190548
45,"San Francisco, California",local_government_office,ChIJp2UYiWKAhYARWbFNX3-c7bA,Victorian Government Business Office,"['local_government_office', 'finance', 'point_of_interest', 'establishment']","575 Market Street, San Francisco",37.7896601,-122.4004355
46,"San Francisco, California",local_government_office,ChIJF-l7ZYiAhYARU-zELCWxKwA,VisaCentral San Francisco,"['local_government_office', 'point_of_interest', 'establishment']","555 Montgomery Street, San Francisco",37.7943714,-122.4036105
47,"San Francisco, California",local_government_office,ChIJEfL_42SAhYARDf1dtbmQT68,The State Bar of California,"['lawyer', 'local_government_office', 'point_of_interest', 'establishment']","180 Howard Street, San Francisco",37.79115900000001,-122.393274
48,"San Francisco, California",local_government_office,ChIJ3UTZGJqAhYARWnUjlHYTJOk,Assemblyman Tom Ammiano,"['local_government_office', 'point_of_interest', 'establishment']","455 Golden Gate Avenue # 14300, San Francisco",37.7811142,-122.4180618
49,"San Francisco, California",local_government_office,ChIJzwpUCZyAhYARpD64Jc7SNb4,"San Francisco City & County: Department of Children, Youth & Their Families (DCYF)","['local_government_office', 'point_of_interest', 'establishment']","1390 Market Street #900, San Francisco",37.7770837,-122.4176807
50,"San Francisco, California",local_government_office,ChIJb5sV-T5-j4ARsgGyPhUmAT4,US Social Security Administration,"['local_government_office', 'point_of_interest', 'establishment']","1098 Valencia Street, San Francisco",37.7554763,-122.4212374
51,"San Francisco, California",local_government_office,ChIJTbkSkpeAhYAR2mpRc-5df-0,Experience Unlimited,"['local_government_office', 'point_of_interest', 'establishment']","745 Franklin Street, San Francisco",37.781352,-122.422385
52,"San Francisco, California",local_government_office,ChIJO8CPF2GAhYARjxt6Nf_Infk,Travel Document Systems,"['travel_agency', 'local_government_office', 'point_of_interest', 'establishment']","One Embarcadero Center Suite #552, San Francisco",37.794883,-122.399814
53,"San Francisco, California",local_government_office,ChIJ4djOTYqAhYARwcDnu8aCr68,SeedPort,"['local_government_office', 'point_of_interest', 'establishment']","580 California Street, San Francisco",37.7928738,-122.4039427
54,"San Francisco, California",local_government_office,ChIJsQywyImAhYARjsNbnRN4UB8,Natural Resources Defense Council,"['local_government_office', 'point_of_interest', 'establishment']","111 Sutter Street # 20, San Francisco",37.7898134,-122.4025526
55,"San Francisco, California",local_government_office,ChIJdxz21ZuAhYARN11qqiOe8r0,San Francisco Pool Service,"['courthouse', 'local_government_office', 'point_of_interest', 'establishment']","1 Doctor Carlton B Goodlett Place, San Francisco",37.7792845,-122.4195323
56,"San Francisco, California",local_government_office,ChIJh2VAamKAhYARDyC6QgZ8sWw,HOK,"['local_government_office', 'general_contractor', 'point_of_interest', 'establishment']","One Bush Street Suite 200, San Francisco",37.79097819999999,-122.4000388
57,"San Francisco, California",local_government_office,ChIJOS1iwJ6AhYARRp8zRUk08S8,San Francisco Arts Commission,"['local_government_office', 'point_of_interest', 'establishment']","401 Van Ness Avenue #325, San Francisco",37.7795853,-122.4210028
58,"San Francisco, California",local_government_office,ChIJKc7FX5mAhYARsTUy353leeA,San Francisco Office of Vital Records,"['local_government_office', 'point_of_interest', 'establishment']","101 Grove Street #105, San Francisco",37.7781592,-122.4186388
59,"San Francisco, California",local_government_office,ChIJA5OA_YWAhYARnUMSIXhGWuM,Visa Network,"['local_government_office', 'point_of_interest', 'establishment']","870 Market Street #888, San Francisco",37.785156,-122.407535
0,"Redwood City, California",local_government_office,ChIJxSA2h1Kij4ARt7gct0Omres,San Mateo Superior Court,"['local_government_office', 'point_of_interest', 'establishment']","400 County Center, Redwood City",37.4882258,-122.2308181
1,"Redwood City, California",local_government_office,ChIJq5MKbwOij4ARtBm__vVGjXw,National Corporate Housing,"['local_government_office', 'point_of_interest', 'establishment']",San Carlos,37.5071591,-122.2605222
2,"Redwood City, California",local_government_office,ChIJ2xGjd7OYj4AR44HwopIu2Kc,SamCERA (San Mateo County Employees' Retirement Association),"['local_government_office', 'point_of_interest', 'establishment']","100 Marine Parkway, Redwood City",37.5279495,-122.2626806
3,"Redwood City, California",local_government_office,ChIJxSA2h1Kij4ARKM2Y59h9_kM,San Mateo Municipal Court,"['local_government_office', 'point_of_interest', 'establishment']","400 County Center #4, Redwood City",37.4882258,-122.2308181
4,"Redwood City, California",local_government_office,ChIJZzGT602ij4AReiJsdrf1FlU,Social Security Office,"['local_government_office', 'point_of_interest', 'establishment']","601 Allerton Street, Redwood City",37.4890594,-122.2326392
5,"Redwood City, California",local_government_office,ChIJzxCiY1Kij4ARNb8a0QJ80F0,"San Mateo County, Assessor-County Clerk-Recorder","['local_government_office', 'point_of_interest', 'establishment']","555 County Center, Redwood City",37.48888100000001,-122.229836
6,"Redwood City, California",local_government_office,ChIJyaQW0zu7j4ARUiDBucIO1eU,City of Palo Alto City Hall,"['city_hall', 'local_government_office', 'point_of_interest', 'establishment']","250 Hamilton Avenue, Palo Alto",37.4443593,-122.159902
7,"Redwood City, California",local_government_office,ChIJWWSTHhGkj4ARejnVrUZoTlY,Woodside Town Planning,"['local_government_office', 'point_of_interest', 'establishment']","2955 Woodside Road, Woodside",37.4279107,-122.2509456
8,"Redwood City, California",local_government_office,ChIJYbQDcFKij4AR52HhCeLe8q4,County of San Mateo,"['local_government_office', 'point_of_interest', 'establishment']","555 County Center, Redwood City",37.4888809,-122.229836
9,"Redwood City, California",local_government_office,ChIJ2_NWxk2ij4ARj8ZMSTaT5wQ,San Mateo County Probation,"['local_government_office', 'point_of_interest', 'establishment']","400 County Center, Redwood City",37.4881419,-122.2307807
10,"Redwood City, California",local_government_office,ChIJY2-_6rKYj4ARWrQPM52XXhY,San Mateo County Office of Education,"['local_government_office', 'point_of_interest', 'establishment']","101 Twin Dolphin Drive, Redwood City",37.525841,-122.263004
11,"Redwood City, California",local_government_office,ChIJgyD27Kyjj4AR2GLMCLXYL1w,Redwood City Finance Department,"['accounting', 'local_government_office', 'finance', 'point_of_interest', 'establishment']","1017 Middlefield Road, Redwood City",37.4848871,-122.2274132
12,"Redwood City, California",local_government_office,ChIJZzGT602ij4AR9PDb-lyrIi0,San Mateo County Pre-Trial Services,"['local_government_office', 'point_of_interest', 'establishment']","601 Allerton Street # 100, Redwood City",37.489056,-122.232601
13,"Redwood City, California",local_government_office,ChIJ31vahlCij4ARnfttwftPoHo,Small Claims Court,"['courthouse', 'local_government_office', 'point_of_interest', 'establishment']","400 County Center, Redwood City",37.4884281,-122.2297779
14,"Redwood City, California",local_government_office,ChIJs_PLVhe7j4ARXd-ownsJcYo,Lucie Stern Community Center,"['local_government_office', 'point_of_interest', 'establishment']","1305 Middlefield Road #1, Palo Alto",37.4443171,-122.1455497
15,"Redwood City, California",local_government_office,ChIJzxCiY1Kij4ARKrLRPptajO8,San Mateo Superior Court - Family Law,"['local_government_office', 'point_of_interest', 'establishment']","400 County Center, Redwood City",37.4879767,-122.2309106
16,"Redwood City, California",local_government_office,ChIJzxCiY1Kij4AR4Dx1BmgQmio,San Mateo County Counsel,"['local_government_office', 'point_of_interest', 'establishment']","400 County Center, Redwood City",37.4882258,-122.2308181
17,"Redwood City, California",local_government_office,ChIJH_CaYVKij4ARKMSeMhenEdk,San Mateo County Assessor-County Clerk-Recorder's Office,"['local_government_office', 'point_of_interest', 'establishment']","555 County Center, Redwood City",37.4889292,-122.2297821
18,"Redwood City, California",local_government_office,ChIJxSA2h1Kij4ARKfjru9sWXT8,Redwood City Business Licenses,"['local_government_office', 'point_of_interest', 'establishment']","1017 Middlefield Road, Redwood City",37.4848871,-122.2274132
19,"Redwood City, California",local_government_office,ChIJgyD27Kyjj4ARRLB96ZiHSq0,City of Redwood City: Code Enforcement General Information,"['local_government_office', 'point_of_interest', 'establishment']","1017 Middlefield Road, Redwood City",37.485023,-122.227533
20,"Redwood City, California",local_government_office,ChIJxSA2h1Kij4ARt7gct0Omres,San Mateo Superior Court,"['local_government_office', 'point_of_interest', 'establishment']","400 County Center, Redwood City",37.4882258,-122.2308181
21,"Redwood City, California",local_government_office,ChIJq5MKbwOij4ARtBm__vVGjXw,National Corporate Housing,"['local_government_office', 'point_of_interest', 'establishment']",San Carlos,37.5071591,-122.2605222
22,"Redwood City, California",local_government_office,ChIJ2xGjd7OYj4AR44HwopIu2Kc,SamCERA (San Mateo County Employees' Retirement Association),"['local_government_office', 'point_of_interest', 'establishment']","100 Marine Parkway, Redwood City",37.5279495,-122.2626806
23,"Redwood City, California",local_government_office,ChIJxSA2h1Kij4ARKM2Y59h9_kM,San Mateo Municipal Court,"['local_government_office', 'point_of_interest', 'establishment']","400 County Center #4, Redwood City",37.4882258,-122.2308181
24,"Redwood City, California",local_government_office,ChIJZzGT602ij4AReiJsdrf1FlU,Social Security Office,"['local_government_office', 'point_of_interest', 'establishment']","601 Allerton Street, Redwood City",37.4890594,-122.2326392
25,"Redwood City, California",local_government_office,ChIJzxCiY1Kij4ARNb8a0QJ80F0,"San Mateo County, Assessor-County Clerk-Recorder","['local_government_office', 'point_of_interest', 'establishment']","555 County Center, Redwood City",37.48888100000001,-122.229836
26,"Redwood City, California",local_government_office,ChIJyaQW0zu7j4ARUiDBucIO1eU,City of Palo Alto City Hall,"['city_hall', 'local_government_office', 'point_of_interest', 'establishment']","250 Hamilton Avenue, Palo Alto",37.4443593,-122.159902
27,"Redwood City, California",local_government_office,ChIJWWSTHhGkj4ARejnVrUZoTlY,Woodside Town Planning,"['local_government_office', 'point_of_interest', 'establishment']","2955 Woodside Road, Woodside",37.4279107,-122.2509456
28,"Redwood City, California",local_government_office,ChIJYbQDcFKij4AR52HhCeLe8q4,County of San Mateo,"['local_government_office', 'point_of_interest', 'establishment']","555 County Center, Redwood City",37.4888809,-122.229836
29,"Redwood City, California",local_government_office,ChIJ2_NWxk2ij4ARj8ZMSTaT5wQ,San Mateo County Probation,"['local_government_office', 'point_of_interest', 'establishment']","400 County Center, Redwood City",37.4881419,-122.2307807
30,"Redwood City, California",local_government_office,ChIJY2-_6rKYj4ARWrQPM52XXhY,San Mateo County Office of Education,"['local_government_office', 'point_of_interest', 'establishment']","101 Twin Dolphin Drive, Redwood City",37.525841,-122.263004
31,"Redwood City, California",local_government_office,ChIJgyD27Kyjj4AR2GLMCLXYL1w,Redwood City Finance Department,"['accounting', 'local_government_office', 'finance', 'point_of_interest', 'establishment']","1017 Middlefield Road, Redwood City",37.4848871,-122.2274132
32,"Redwood City, California",local_government_office,ChIJZzGT602ij4AR9PDb-lyrIi0,San Mateo County Pre-Trial Services,"['local_government_office', 'point_of_interest', 'establishment']","601 Allerton Street # 100, Redwood City",37.489056,-122.232601
33,"Redwood City, California",local_government_office,ChIJ31vahlCij4ARnfttwftPoHo,Small Claims Court,"['courthouse', 'local_government_office', 'point_of_interest', 'establishment']","400 County Center, Redwood City",37.4884281,-122.2297779
34,"Redwood City, California",local_government_office,ChIJs_PLVhe7j4ARXd-ownsJcYo,Lucie Stern Community Center,"['local_government_office', 'point_of_interest', 'establishment']","1305 Middlefield Road #1, Palo Alto",37.4443171,-122.1455497
35,"Redwood City, California",local_government_office,ChIJzxCiY1Kij4ARKrLRPptajO8,San Mateo Superior Court - Family Law,"['local_government_office', 'point_of_interest', 'establishment']","400 County Center, Redwood City",37.4879767,-122.2309106
36,"Redwood City, California",local_government_office,ChIJzxCiY1Kij4AR4Dx1BmgQmio,San Mateo County Counsel,"['local_government_office', 'point_of_interest', 'establishment']","400 County Center, Redwood City",37.4882258,-122.2308181
37,"Redwood City, California",local_government_office,ChIJH_CaYVKij4ARKMSeMhenEdk,San Mateo County Assessor-County Clerk-Recorder's Office,"['local_government_office', 'point_of_interest', 'establishment']","555 County Center, Redwood City",37.4889292,-122.2297821
38,"Redwood City, California",local_government_office,ChIJxSA2h1Kij4ARKfjru9sWXT8,Redwood City Business Licenses,"['local_government_office', 'point_of_interest', 'establishment']","1017 Middlefield Road, Redwood City",37.4848871,-122.2274132
39,"Redwood City, California",local_government_office,ChIJgyD27Kyjj4ARRLB96ZiHSq0,City of Redwood City: Code Enforcement General Information,"['local_government_office', 'point_of_interest', 'establishment']","1017 Middlefield Road, Redwood City",37.485023,-122.227533
40,"Redwood City, California",local_government_office,ChIJxSA2h1Kij4ARt7gct0Omres,San Mateo Superior Court,"['local_government_office', 'point_of_interest', 'establishment']","400 County Center, Redwood City",37.4882258,-122.2308181
41,"Redwood City, California",local_government_office,ChIJq5MKbwOij4ARtBm__vVGjXw,National Corporate Housing,"['local_government_office', 'point_of_interest', 'establishment']",San Carlos,37.5071591,-122.2605222
42,"Redwood City, California",local_government_office,ChIJ2xGjd7OYj4AR44HwopIu2Kc,SamCERA (San Mateo County Employees' Retirement Association),"['local_government_office', 'point_of_interest', 'establishment']","100 Marine Parkway, Redwood City",37.5279495,-122.2626806
43,"Redwood City, California",local_government_office,ChIJxSA2h1Kij4ARKM2Y59h9_kM,San Mateo Municipal Court,"['local_government_office', 'point_of_interest', 'establishment']","400 County Center #4, Redwood City",37.4882258,-122.2308181
44,"Redwood City, California",local_government_office,ChIJZzGT602ij4AReiJsdrf1FlU,Social Security Office,"['local_government_office', 'point_of_interest', 'establishment']","601 Allerton Street, Redwood City",37.4890594,-122.2326392
45,"Redwood City, California",local_government_office,ChIJzxCiY1Kij4ARNb8a0QJ80F0,"San Mateo County, Assessor-County Clerk-Recorder","['local_government_office', 'point_of_interest', 'establishment']","555 County Center, Redwood City",37.48888100000001,-122.229836
46,"Redwood City, California",local_government_office,ChIJyaQW0zu7j4ARUiDBucIO1eU,City of Palo Alto City Hall,"['city_hall', 'local_government_office', 'point_of_interest', 'establishment']","250 Hamilton Avenue, Palo Alto",37.4443593,-122.159902
47,"Redwood City, California",local_government_office,ChIJWWSTHhGkj4ARejnVrUZoTlY,Woodside Town Planning,"['local_government_office', 'point_of_interest', 'establishment']","2955 Woodside Road, Woodside",37.4279107,-122.2509456
48,"Redwood City, California",local_government_office,ChIJYbQDcFKij4AR52HhCeLe8q4,County of San Mateo,"['local_government_office', 'point_of_interest', 'establishment']","555 County Center, Redwood City",37.4888809,-122.229836
49,"Redwood City, California",local_government_office,ChIJ2_NWxk2ij4ARj8ZMSTaT5wQ,San Mateo County Probation,"['local_government_office', 'point_of_interest', 'establishment']","400 County Center, Redwood City",37.4881419,-122.2307807
50,"Redwood City, California",local_government_office,ChIJY2-_6rKYj4ARWrQPM52XXhY,San Mateo County Office of Education,"['local_government_office', 'point_of_interest', 'establishment']","101 Twin Dolphin Drive, Redwood City",37.525841,-122.263004
51,"Redwood City, California",local_government_office,ChIJgyD27Kyjj4AR2GLMCLXYL1w,Redwood City Finance Department,"['accounting', 'local_government_office', 'finance', 'point_of_interest', 'establishment']","1017 Middlefield Road, Redwood City",37.4848871,-122.2274132
52,"Redwood City, California",local_government_office,ChIJZzGT602ij4AR9PDb-lyrIi0,San Mateo County Pre-Trial Services,"['local_government_office', 'point_of_interest', 'establishment']","601 Allerton Street # 100, Redwood City",37.489056,-122.232601
53,"Redwood City, California",local_government_office,ChIJ31vahlCij4ARnfttwftPoHo,Small Claims Court,"['courthouse', 'local_government_office', 'point_of_interest', 'establishment']","400 County Center, Redwood City",37.4884281,-122.2297779
54,"Redwood City, California",local_government_office,ChIJs_PLVhe7j4ARXd-ownsJcYo,Lucie Stern Community Center,"['local_government_office', 'point_of_interest', 'establishment']","1305 Middlefield Road #1, Palo Alto",37.4443171,-122.1455497
55,"Redwood City, California",local_government_office,ChIJzxCiY1Kij4ARKrLRPptajO8,San Mateo Superior Court - Family Law,"['local_government_office', 'point_of_interest', 'establishment']","400 County Center, Redwood City",37.4879767,-122.2309106
56,"Redwood City, California",local_government_office,ChIJzxCiY1Kij4AR4Dx1BmgQmio,San Mateo County Counsel,"['local_government_office', 'point_of_interest', 'establishment']","400 County Center, Redwood City",37.4882258,-122.2308181
57,"Redwood City, California",local_government_office,ChIJH_CaYVKij4ARKMSeMhenEdk,San Mateo County Assessor-County Clerk-Recorder's Office,"['local_government_office', 'point_of_interest', 'establishment']","555 County Center, Redwood City",37.4889292,-122.2297821
58,"Redwood City, California",local_government_office,ChIJxSA2h1Kij4ARKfjru9sWXT8,Redwood City Business Licenses,"['local_government_office', 'point_of_interest', 'establishment']","1017 Middlefield Road, Redwood City",37.4848871,-122.2274132
59,"Redwood City, California",local_government_office,ChIJgyD27Kyjj4ARRLB96ZiHSq0,City of Redwood City: Code Enforcement General Information,"['local_government_office', 'point_of_interest', 'establishment']","1017 Middlefield Road, Redwood City",37.485023,-122.227533
0,"Berkeley, California",local_government_office,ChIJKSX4y7GAj4AR-AMXRPCJN_U,Unemployment Insurance Appeals,"['local_government_office', 'point_of_interest', 'establishment']","1515 Clay Street #902, Oakland",37.8065375,-122.273497
1,"Berkeley, California",local_government_office,ChIJKSX4y7GAj4AR5uO-6OZU0a8,California Bureau of Real Estate,"['real_estate_agency', 'local_government_office', 'point_of_interest', 'establishment']","1515 Clay Street # 702, Oakland",37.8065375,-122.273497
2,"Berkeley, California",local_government_office,ChIJJxDfFU2Hj4ARcreQHdIEOI4,Bay Area Rapid Transit,"['local_government_office', 'point_of_interest', 'establishment']","300 Lakeside Drive, Oakland",37.8087498,-122.263705
3,"Berkeley, California",local_government_office,ChIJKSX4y7GAj4AROjDRecJ_pCo,Office of Administration Hearings,"['local_government_office', 'point_of_interest', 'establishment']","1515 Clay Street # 206, Oakland",37.8065375,-122.273497
4,"Berkeley, California",local_government_office,ChIJfXfug0qHj4AReFD2q3efgP0,Alameda County General Services,"['local_government_office', 'point_of_interest', 'establishment']","1401 Lakeside Drive # 10, Oakland",37.80126120000001,-122.2629746
5,"Berkeley, California",local_government_office,ChIJKSX4y7GAj4AR14byBCWBdZo,California Elevator Unit,"['local_government_office', 'point_of_interest', 'establishment']","1515 Clay Street # 1306, Oakland",37.8065375,-122.273497
6,"Berkeley, California",local_government_office,ChIJKSX4y7GAj4ARBGNvldjk61o,Occupational Safety & Health,"['local_government_office', 'health', 'point_of_interest', 'establishment']","1515 Clay Street # 1303, Oakland",37.8064379,-122.2732025
7,"Berkeley, California",local_government_office,ChIJKSX4y7GAj4ARMSD_kD7mY_Q,Assembly Member Nancy Skinner,"['local_government_office', 'point_of_interest', 'establishment']","1515 Clay Street # 2202, Oakland",37.8065375,-122.273497
8,"Berkeley, California",local_government_office,ChIJKSX4y7GAj4ARlRumHR7l9es,High Hazard Unit,"['local_government_office', 'point_of_interest', 'establishment']","1515 Clay Street # 1303, Oakland",37.8065375,-122.273497
9,"Berkeley, California",local_government_office,ChIJKSX4y7GAj4ARTEwaJCYGeQA,CARDINAL New & Vintage Bikes,"['local_government_office', 'point_of_interest', 'establishment']","1515 Clay Street, Oakland",37.8065375,-122.273497
10,"Berkeley, California",local_government_office,ChIJKSX4y7GAj4ARRKBWQHj_W5A,Senator Loni Hancock,"['local_government_office', 'point_of_interest', 'establishment']","1515 Clay Street # 2202, Oakland",37.806393,-122.273583
11,"Berkeley, California",local_government_office,ChIJKSX4y7GAj4ARng59B1nAwwE,Assembly Member Sandre Swanson,"['local_government_office', 'point_of_interest', 'establishment']","1515 Clay Street # 2204, Oakland",37.8065375,-122.273497
12,"Berkeley, California",local_government_office,ChIJKSX4y7GAj4ARZshevYXfIbA,DSA Oakland Regional Office,"['local_government_office', 'point_of_interest', 'establishment']","1515 Clay Street # 1201, Oakland",37.8065375,-122.273497
13,"Berkeley, California",local_government_office,ChIJKSX4y7GAj4AR7BnG-g_g5Ys,Equalization Board,"['local_government_office', 'point_of_interest', 'establishment']","1515 Clay Street # 303, Oakland",37.8065375,-122.273497
14,"Berkeley, California",local_government_office,ChIJC6q3OXuHj4AR3cgxfOXICuM,Piedmont Community Hall,"['local_government_office', 'point_of_interest', 'establishment']","711 Highland Avenue, Piedmont",37.8237785,-122.2305834
15,"Berkeley, California",local_government_office,ChIJKSX4y7GAj4ARZ1EH937b3Cw,General Services Department,"['local_government_office', 'point_of_interest', 'establishment']","1515 Clay Street #206, Oakland",37.8065375,-122.273497
16,"Berkeley, California",local_government_office,ChIJN9tiLrSAj4ARZR49lYy3Xzc,EBMUD,"['local_government_office', 'point_of_interest', 'establishment']","375 11th Street, Oakland",37.8013825,-122.2708183
17,"Berkeley, California",local_government_office,ChIJw2-EUFB-hYARUAQbeK18wlo,Emeryville City Manager,"['local_government_office', 'point_of_interest', 'establishment']","1333 Park Avenue, Emeryville",37.8311412,-122.2852135
18,"Berkeley, California",local_government_office,ChIJf4FKe7eAj4ARCIYDJsGk3qg,Alameda County District Attorney Office,"['local_government_office', 'point_of_interest', 'establishment']","661 Washington Street #225, Oakland",37.79973820000001,-122.276104
19,"Berkeley, California",local_government_office,ChIJHcuwXTWHj4ARARom8DbF9KE,Alameda County Board-Supervisors,"['local_government_office', 'point_of_interest', 'establishment']","1221 Oak Street # 536, Oakland",37.8002476,-122.264064
20,"Berkeley, California",local_government_office,ChIJKSX4y7GAj4AR-AMXRPCJN_U,Unemployment Insurance Appeals,"['local_government_office', 'point_of_interest', 'establishment']","1515 Clay Street #902, Oakland",37.8065375,-122.273497
21,"Berkeley, California",local_government_office,ChIJKSX4y7GAj4AR5uO-6OZU0a8,California Bureau of Real Estate,"['real_estate_agency', 'local_government_office', 'point_of_interest', 'establishment']","1515 Clay Street # 702, Oakland",37.8065375,-122.273497
22,"Berkeley, California",local_government_office,ChIJJxDfFU2Hj4ARcreQHdIEOI4,Bay Area Rapid Transit,"['local_government_office', 'point_of_interest', 'establishment']","300 Lakeside Drive, Oakland",37.8087498,-122.263705
23,"Berkeley, California",local_government_office,ChIJKSX4y7GAj4AROjDRecJ_pCo,Office of Administration Hearings,"['local_government_office', 'point_of_interest', 'establishment']","1515 Clay Street # 206, Oakland",37.8065375,-122.273497
24,"Berkeley, California",local_government_office,ChIJfXfug0qHj4AReFD2q3efgP0,Alameda County General Services,"['local_government_office', 'point_of_interest', 'establishment']","1401 Lakeside Drive # 10, Oakland",37.80126120000001,-122.2629746
25,"Berkeley, California",local_government_office,ChIJKSX4y7GAj4AR14byBCWBdZo,California Elevator Unit,"['local_government_office', 'point_of_interest', 'establishment']","1515 Clay Street # 1306, Oakland",37.8065375,-122.273497
26,"Berkeley, California",local_government_office,ChIJKSX4y7GAj4ARBGNvldjk61o,Occupational Safety & Health,"['local_government_office', 'health', 'point_of_interest', 'establishment']","1515 Clay Street # 1303, Oakland",37.8064379,-122.2732025
27,"Berkeley, California",local_government_office,ChIJKSX4y7GAj4ARMSD_kD7mY_Q,Assembly Member Nancy Skinner,"['local_government_office', 'point_of_interest', 'establishment']","1515 Clay Street # 2202, Oakland",37.8065375,-122.273497
28,"Berkeley, California",local_government_office,ChIJKSX4y7GAj4ARlRumHR7l9es,High Hazard Unit,"['local_government_office', 'point_of_interest', 'establishment']","1515 Clay Street # 1303, Oakland",37.8065375,-122.273497
29,"Berkeley, California",local_government_office,ChIJKSX4y7GAj4ARTEwaJCYGeQA,CARDINAL New & Vintage Bikes,"['local_government_office', 'point_of_interest', 'establishment']","1515 Clay Street, Oakland",37.8065375,-122.273497
30,"Berkeley, California",local_government_office,ChIJKSX4y7GAj4ARRKBWQHj_W5A,Senator Loni Hancock,"['local_government_office', 'point_of_interest', 'establishment']","1515 Clay Street # 2202, Oakland",37.806393,-122.273583
31,"Berkeley, California",local_government_office,ChIJKSX4y7GAj4ARng59B1nAwwE,Assembly Member Sandre Swanson,"['local_government_office', 'point_of_interest', 'establishment']","1515 Clay Street # 2204, Oakland",37.8065375,-122.273497
32,"Berkeley, California",local_government_office,ChIJKSX4y7GAj4ARZshevYXfIbA,DSA Oakland Regional Office,"['local_government_office', 'point_of_interest', 'establishment']","1515 Clay Street # 1201, Oakland",37.8065375,-122.273497
33,"Berkeley, California",local_government_office,ChIJKSX4y7GAj4AR7BnG-g_g5Ys,Equalization Board,"['local_government_office', 'point_of_interest', 'establishment']","1515 Clay Street # 303, Oakland",37.8065375,-122.273497
34,"Berkeley, California",local_government_office,ChIJC6q3OXuHj4AR3cgxfOXICuM,Piedmont Community Hall,"['local_government_office', 'point_of_interest', 'establishment']","711 Highland Avenue, Piedmont",37.8237785,-122.2305834
35,"Berkeley, California",local_government_office,ChIJKSX4y7GAj4ARZ1EH937b3Cw,General Services Department,"['local_government_office', 'point_of_interest', 'establishment']","1515 Clay Street #206, Oakland",37.8065375,-122.273497
36,"Berkeley, California",local_government_office,ChIJN9tiLrSAj4ARZR49lYy3Xzc,EBMUD,"['local_government_office', 'point_of_interest', 'establishment']","375 11th Street, Oakland",37.8013825,-122.2708183
37,"Berkeley, California",local_government_office,ChIJw2-EUFB-hYARUAQbeK18wlo,Emeryville City Manager,"['local_government_office', 'point_of_interest', 'establishment']","1333 Park Avenue, Emeryville",37.8311412,-122.2852135
38,"Berkeley, California",local_government_office,ChIJf4FKe7eAj4ARCIYDJsGk3qg,Alameda County District Attorney Office,"['local_government_office', 'point_of_interest', 'establishment']","661 Washington Street #225, Oakland",37.79973820000001,-122.276104
39,"Berkeley, California",local_government_office,ChIJHcuwXTWHj4ARARom8DbF9KE,Alameda County Board-Supervisors,"['local_government_office', 'point_of_interest', 'establishment']","1221 Oak Street # 536, Oakland",37.8002476,-122.264064
40,"Berkeley, California",local_government_office,ChIJKSX4y7GAj4AR-AMXRPCJN_U,Unemployment Insurance Appeals,"['local_government_office', 'point_of_interest', 'establishment']","1515 Clay Street #902, Oakland",37.8065375,-122.273497
41,"Berkeley, California",local_government_office,ChIJKSX4y7GAj4AR5uO-6OZU0a8,California Bureau of Real Estate,"['real_estate_agency', 'local_government_office', 'point_of_interest', 'establishment']","1515 Clay Street # 702, Oakland",37.8065375,-122.273497
42,"Berkeley, California",local_government_office,ChIJJxDfFU2Hj4ARcreQHdIEOI4,Bay Area Rapid Transit,"['local_government_office', 'point_of_interest', 'establishment']","300 Lakeside Drive, Oakland",37.8087498,-122.263705
43,"Berkeley, California",local_government_office,ChIJKSX4y7GAj4AROjDRecJ_pCo,Office of Administration Hearings,"['local_government_office', 'point_of_interest', 'establishment']","1515 Clay Street # 206, Oakland",37.8065375,-122.273497
44,"Berkeley, California",local_government_office,ChIJfXfug0qHj4AReFD2q3efgP0,Alameda County General Services,"['local_government_office', 'point_of_interest', 'establishment']","1401 Lakeside Drive # 10, Oakland",37.80126120000001,-122.2629746
45,"Berkeley, California",local_government_office,ChIJKSX4y7GAj4AR14byBCWBdZo,California Elevator Unit,"['local_government_office', 'point_of_interest', 'establishment']","1515 Clay Street # 1306, Oakland",37.8065375,-122.273497
46,"Berkeley, California",local_government_office,ChIJKSX4y7GAj4ARBGNvldjk61o,Occupational Safety & Health,"['local_government_office', 'health', 'point_of_interest', 'establishment']","1515 Clay Street # 1303, Oakland",37.8064379,-122.2732025
47,"Berkeley, California",local_government_office,ChIJKSX4y7GAj4ARMSD_kD7mY_Q,Assembly Member Nancy Skinner,"['local_government_office', 'point_of_interest', 'establishment']","1515 Clay Street # 2202, Oakland",37.8065375,-122.273497
48,"Berkeley, California",local_government_office,ChIJKSX4y7GAj4ARlRumHR7l9es,High Hazard Unit,"['local_government_office', 'point_of_interest', 'establishment']","1515 Clay Street # 1303, Oakland",37.8065375,-122.273497
49,"Berkeley, California",local_government_office,ChIJKSX4y7GAj4ARTEwaJCYGeQA,CARDINAL New & Vintage Bikes,"['local_government_office', 'point_of_interest', 'establishment']","1515 Clay Street, Oakland",37.8065375,-122.273497
50,"Berkeley, California",local_government_office,ChIJKSX4y7GAj4ARRKBWQHj_W5A,Senator Loni Hancock,"['local_government_office', 'point_of_interest', 'establishment']","1515 Clay Street # 2202, Oakland",37.806393,-122.273583
51,"Berkeley, California",local_government_office,ChIJKSX4y7GAj4ARng59B1nAwwE,Assembly Member Sandre Swanson,"['local_government_office', 'point_of_interest', 'establishment']","1515 Clay Street # 2204, Oakland",37.8065375,-122.273497
52,"Berkeley, California",local_government_office,ChIJKSX4y7GAj4ARZshevYXfIbA,DSA Oakland Regional Office,"['local_government_office', 'point_of_interest', 'establishment']","1515 Clay Street # 1201, Oakland",37.8065375,-122.273497
53,"Berkeley, California",local_government_office,ChIJKSX4y7GAj4AR7BnG-g_g5Ys,Equalization Board,"['local_government_office', 'point_of_interest', 'establishment']","1515 Clay Street # 303, Oakland",37.8065375,-122.273497
54,"Berkeley, California",local_government_office,ChIJC6q3OXuHj4AR3cgxfOXICuM,Piedmont Community Hall,"['local_government_office', 'point_of_interest', 'establishment']","711 Highland Avenue, Piedmont",37.8237785,-122.2305834
55,"Berkeley, California",local_government_office,ChIJKSX4y7GAj4ARZ1EH937b3Cw,General Services Department,"['local_government_office', 'point_of_interest', 'establishment']","1515 Clay Street #206, Oakland",37.8065375,-122.273497
56,"Berkeley, California",local_government_office,ChIJN9tiLrSAj4ARZR49lYy3Xzc,EBMUD,"['local_government_office', 'point_of_interest', 'establishment']","375 11th Street, Oakland",37.8013825,-122.2708183
57,"Berkeley, California",local_government_office,ChIJw2-EUFB-hYARUAQbeK18wlo,Emeryville City Manager,"['local_government_office', 'point_of_interest', 'establishment']","1333 Park Avenue, Emeryville",37.8311412,-122.2852135
58,"Berkeley, California",local_government_office,ChIJf4FKe7eAj4ARCIYDJsGk3qg,Alameda County District Attorney Office,"['local_government_office', 'point_of_interest', 'establishment']","661 Washington Street #225, Oakland",37.79973820000001,-122.276104
59,"Berkeley, California",local_government_office,ChIJHcuwXTWHj4ARARom8DbF9KE,Alameda County Board-Supervisors,"['local_government_office', 'point_of_interest', 'establishment']","1221 Oak Street # 536, Oakland",37.8002476,-122.264064
0,"Palo Alto, California",local_government_office,ChIJs_PLVhe7j4ARXd-ownsJcYo,Lucie Stern Community Center,"['local_government_office', 'point_of_interest', 'establishment']","1305 Middlefield Road #1, Palo Alto",37.4443171,-122.1455497
1,"Palo Alto, California",local_government_office,ChIJyaQW0zu7j4ARUiDBucIO1eU,City of Palo Alto City Hall,"['city_hall', 'local_government_office', 'point_of_interest', 'establishment']","250 Hamilton Avenue, Palo Alto",37.4443593,-122.159902
2,"Palo Alto, California",local_government_office,ChIJxSA2h1Kij4ARt7gct0Omres,San Mateo Superior Court,"['local_government_office', 'point_of_interest', 'establishment']","400 County Center, Redwood City",37.4882258,-122.2308181
3,"Palo Alto, California",local_government_office,ChIJ47xiiDi7j4ARWWid7irUnuQ,"Sugimura Intellectual Property Services, Inc.","['local_government_office', 'point_of_interest', 'establishment']","960 San Antonio Road suite 101, Palo Alto",37.42398699999999,-122.100831
4,"Palo Alto, California",local_government_office,ChIJXTSR17qwj4ARTET6FRI_lRE,Mountain View Volunteer Services,"['local_government_office', 'point_of_interest', 'establishment']","201 South Rengstorff Avenue, Mountain View",37.4010264,-122.0977455
5,"Palo Alto, California",local_government_office,ChIJ33KOk-6wj4AR7m9cKm813uY,Los Altos Planning,"['local_government_office', 'point_of_interest', 'establishment']","1 North San Antonio Road, Los Altos",37.3816531,-122.1136191
6,"Palo Alto, California",local_government_office,ChIJxSA2h1Kij4ARKM2Y59h9_kM,San Mateo Municipal Court,"['local_government_office', 'point_of_interest', 'establishment']","400 County Center #4, Redwood City",37.4882258,-122.2308181
7,"Palo Alto, California",local_government_office,ChIJ_49s0Xy7j4ARmnmEgsbTwRE,City Administration,"['local_government_office', 'point_of_interest', 'establishment']","2415 University Avenue # 2, East Palo Alto",37.4723434,-122.1400444
8,"Palo Alto, California",local_government_office,ChIJgyD27Kyjj4AR2GLMCLXYL1w,Redwood City Finance Department,"['accounting', 'local_government_office', 'finance', 'point_of_interest', 'establishment']","1017 Middlefield Road, Redwood City",37.4848871,-122.2274132
9,"Palo Alto, California",local_government_office,ChIJzxCiY1Kij4ARNb8a0QJ80F0,"San Mateo County, Assessor-County Clerk-Recorder","['local_government_office', 'point_of_interest', 'establishment']","555 County Center, Redwood City",37.48888100000001,-122.229836
10,"Palo Alto, California",local_government_office,ChIJZzGT602ij4AReiJsdrf1FlU,Social Security Office,"['local_government_office', 'point_of_interest', 'establishment']","601 Allerton Street, Redwood City",37.4890594,-122.2326392
11,"Palo Alto, California",local_government_office,ChIJYbQDcFKij4AR52HhCeLe8q4,County of San Mateo,"['local_government_office', 'point_of_interest', 'establishment']","555 County Center, Redwood City",37.4888809,-122.229836
12,"Palo Alto, California",local_government_office,ChIJKUf9YbKkj4ARg65LbNErigM,Menlo Park Housing & Redevelop,"['local_government_office', 'point_of_interest', 'establishment']","701 Laurel Street, Menlo Park",37.451885,-122.1758202
13,"Palo Alto, California",local_government_office,ChIJ2_NWxk2ij4ARj8ZMSTaT5wQ,San Mateo County Probation,"['local_government_office', 'point_of_interest', 'establishment']","400 County Center, Redwood City",37.4881419,-122.2307807
14,"Palo Alto, California",local_government_office,ChIJyaQW0zu7j4ARgs28RbOVTqQ,Palo Alto Human Resources,"['local_government_office', 'point_of_interest', 'establishment']","250 Hamilton Avenue, Palo Alto",37.4442034,-122.1596147
15,"Palo Alto, California",local_government_office,ChIJKUf9YbKkj4AR6l8Who03sU8,Menlo Park Environmental Program,"['local_government_office', 'point_of_interest', 'establishment']","701 Laurel Street, Menlo Park",37.4519352,-122.1761897
16,"Palo Alto, California",local_government_office,ChIJ31vahlCij4ARnfttwftPoHo,Small Claims Court,"['courthouse', 'local_government_office', 'point_of_interest', 'establishment']","400 County Center, Redwood City",37.4884281,-122.2297779
17,"Palo Alto, California",local_government_office,ChIJKUf9YbKkj4AR2KKyfr1zvkc,Menlo Park Business License,"['local_government_office', 'point_of_interest', 'establishment']","701 Laurel Street, Menlo Park",37.451881,-122.17601
18,"Palo Alto, California",local_government_office,ChIJ6093Vj66j4ARdiyt1YN-388,Acterra: Action for a Healthy Planet,"['local_government_office', 'point_of_interest', 'establishment']","3921 East Bayshore Road, Palo Alto",37.430944,-122.103188
19,"Palo Alto, California",local_government_office,ChIJKUf9YbKkj4ARh5y-oCL0pTM,Menlo Park City Finance,"['accounting', 'local_government_office', 'finance', 'point_of_interest', 'establishment']","701 Laurel Street, Menlo Park",37.45202159999999,-122.1755959
20,"Palo Alto, California",local_government_office,ChIJs_PLVhe7j4ARXd-ownsJcYo,Lucie Stern Community Center,"['local_government_office', 'point_of_interest', 'establishment']","1305 Middlefield Road #1, Palo Alto",37.4443171,-122.1455497
21,"Palo Alto, California",local_government_office,ChIJyaQW0zu7j4ARUiDBucIO1eU,City of Palo Alto City Hall,"['city_hall', 'local_government_office', 'point_of_interest', 'establishment']","250 Hamilton Avenue, Palo Alto",37.4443593,-122.159902
22,"Palo Alto, California",local_government_office,ChIJxSA2h1Kij4ARt7gct0Omres,San Mateo Superior Court,"['local_government_office', 'point_of_interest', 'establishment']","400 County Center, Redwood City",37.4882258,-122.2308181
23,"Palo Alto, California",local_government_office,ChIJ47xiiDi7j4ARWWid7irUnuQ,"Sugimura Intellectual Property Services, Inc.","['local_government_office', 'point_of_interest', 'establishment']","960 San Antonio Road suite 101, Palo Alto",37.42398699999999,-122.100831
24,"Palo Alto, California",local_government_office,ChIJXTSR17qwj4ARTET6FRI_lRE,Mountain View Volunteer Services,"['local_government_office', 'point_of_interest', 'establishment']","201 South Rengstorff Avenue, Mountain View",37.4010264,-122.0977455
25,"Palo Alto, California",local_government_office,ChIJ33KOk-6wj4AR7m9cKm813uY,Los Altos Planning,"['local_government_office', 'point_of_interest', 'establishment']","1 North San Antonio Road, Los Altos",37.3816531,-122.1136191
26,"Palo Alto, California",local_government_office,ChIJxSA2h1Kij4ARKM2Y59h9_kM,San Mateo Municipal Court,"['local_government_office', 'point_of_interest', 'establishment']","400 County Center #4, Redwood City",37.4882258,-122.2308181
27,"Palo Alto, California",local_government_office,ChIJ_49s0Xy7j4ARmnmEgsbTwRE,City Administration,"['local_government_office', 'point_of_interest', 'establishment']","2415 University Avenue # 2, East Palo Alto",37.4723434,-122.1400444
28,"Palo Alto, California",local_government_office,ChIJgyD27Kyjj4AR2GLMCLXYL1w,Redwood City Finance Department,"['accounting', 'local_government_office', 'finance', 'point_of_interest', 'establishment']","1017 Middlefield Road, Redwood City",37.4848871,-122.2274132
29,"Palo Alto, California",local_government_office,ChIJzxCiY1Kij4ARNb8a0QJ80F0,"San Mateo County, Assessor-County Clerk-Recorder","['local_government_office', 'point_of_interest', 'establishment']","555 County Center, Redwood City",37.48888100000001,-122.229836
30,"Palo Alto, California",local_government_office,ChIJZzGT602ij4AReiJsdrf1FlU,Social Security Office,"['local_government_office', 'point_of_interest', 'establishment']","601 Allerton Street, Redwood City",37.4890594,-122.2326392
31,"Palo Alto, California",local_government_office,ChIJYbQDcFKij4AR52HhCeLe8q4,County of San Mateo,"['local_government_office', 'point_of_interest', 'establishment']","555 County Center, Redwood City",37.4888809,-122.229836
32,"Palo Alto, California",local_government_office,ChIJKUf9YbKkj4ARg65LbNErigM,Menlo Park Housing & Redevelop,"['local_government_office', 'point_of_interest', 'establishment']","701 Laurel Street, Menlo Park",37.451885,-122.1758202
33,"Palo Alto, California",local_government_office,ChIJ2_NWxk2ij4ARj8ZMSTaT5wQ,San Mateo County Probation,"['local_government_office', 'point_of_interest', 'establishment']","400 County Center, Redwood City",37.4881419,-122.2307807
34,"Palo Alto, California",local_government_office,ChIJyaQW0zu7j4ARgs28RbOVTqQ,Palo Alto Human Resources,"['local_government_office', 'point_of_interest', 'establishment']","250 Hamilton Avenue, Palo Alto",37.4442034,-122.1596147
35,"Palo Alto, California",local_government_office,ChIJKUf9YbKkj4AR6l8Who03sU8,Menlo Park Environmental Program,"['local_government_office', 'point_of_interest', 'establishment']","701 Laurel Street, Menlo Park",37.4519352,-122.1761897
36,"Palo Alto, California",local_government_office,ChIJ31vahlCij4ARnfttwftPoHo,Small Claims Court,"['courthouse', 'local_government_office', 'point_of_interest', 'establishment']","400 County Center, Redwood City",37.4884281,-122.2297779
37,"Palo Alto, California",local_government_office,ChIJKUf9YbKkj4AR2KKyfr1zvkc,Menlo Park Business License,"['local_government_office', 'point_of_interest', 'establishment']","701 Laurel Street, Menlo Park",37.451881,-122.17601
38,"Palo Alto, California",local_government_office,ChIJ6093Vj66j4ARdiyt1YN-388,Acterra: Action for a Healthy Planet,"['local_government_office', 'point_of_interest', 'establishment']","3921 East Bayshore Road, Palo Alto",37.430944,-122.103188
39,"Palo Alto, California",local_government_office,ChIJKUf9YbKkj4ARh5y-oCL0pTM,Menlo Park City Finance,"['accounting', 'local_government_office', 'finance', 'point_of_interest', 'establishment']","701 Laurel Street, Menlo Park",37.45202159999999,-122.1755959
40,"Palo Alto, California",local_government_office,ChIJs_PLVhe7j4ARXd-ownsJcYo,Lucie Stern Community Center,"['local_government_office', 'point_of_interest', 'establishment']","1305 Middlefield Road #1, Palo Alto",37.4443171,-122.1455497
41,"Palo Alto, California",local_government_office,ChIJyaQW0zu7j4ARUiDBucIO1eU,City of Palo Alto City Hall,"['city_hall', 'local_government_office', 'point_of_interest', 'establishment']","250 Hamilton Avenue, Palo Alto",37.4443593,-122.159902
42,"Palo Alto, California",local_government_office,ChIJxSA2h1Kij4ARt7gct0Omres,San Mateo Superior Court,"['local_government_office', 'point_of_interest', 'establishment']","400 County Center, Redwood City",37.4882258,-122.2308181
43,"Palo Alto, California",local_government_office,ChIJ47xiiDi7j4ARWWid7irUnuQ,"Sugimura Intellectual Property Services, Inc.","['local_government_office', 'point_of_interest', 'establishment']","960 San Antonio Road suite 101, Palo Alto",37.42398699999999,-122.100831
44,"Palo Alto, California",local_government_office,ChIJXTSR17qwj4ARTET6FRI_lRE,Mountain View Volunteer Services,"['local_government_office', 'point_of_interest', 'establishment']","201 South Rengstorff Avenue, Mountain View",37.4010264,-122.0977455
45,"Palo Alto, California",local_government_office,ChIJ33KOk-6wj4AR7m9cKm813uY,Los Altos Planning,"['local_government_office', 'point_of_interest', 'establishment']","1 North San Antonio Road, Los Altos",37.3816531,-122.1136191
46,"Palo Alto, California",local_government_office,ChIJxSA2h1Kij4ARKM2Y59h9_kM,San Mateo Municipal Court,"['local_government_office', 'point_of_interest', 'establishment']","400 County Center #4, Redwood City",37.4882258,-122.2308181
47,"Palo Alto, California",local_government_office,ChIJ_49s0Xy7j4ARmnmEgsbTwRE,City Administration,"['local_government_office', 'point_of_interest', 'establishment']","2415 University Avenue # 2, East Palo Alto",37.4723434,-122.1400444
48,"Palo Alto, California",local_government_office,ChIJgyD27Kyjj4AR2GLMCLXYL1w,Redwood City Finance Department,"['accounting', 'local_government_office', 'finance', 'point_of_interest', 'establishment']","1017 Middlefield Road, Redwood City",37.4848871,-122.2274132
49,"Palo Alto, California",local_government_office,ChIJzxCiY1Kij4ARNb8a0QJ80F0,"San Mateo County, Assessor-County Clerk-Recorder","['local_government_office', 'point_of_interest', 'establishment']","555 County Center, Redwood City",37.48888100000001,-122.229836
50,"Palo Alto, California",local_government_office,ChIJZzGT602ij4AReiJsdrf1FlU,Social Security Office,"['local_government_office', 'point_of_interest', 'establishment']","601 Allerton Street, Redwood City",37.4890594,-122.2326392
51,"Palo Alto, California",local_government_office,ChIJYbQDcFKij4AR52HhCeLe8q4,County of San Mateo,"['local_government_office', 'point_of_interest', 'establishment']","555 County Center, Redwood City",37.4888809,-122.229836
52,"Palo Alto, California",local_government_office,ChIJKUf9YbKkj4ARg65LbNErigM,Menlo Park Housing & Redevelop,"['local_government_office', 'point_of_interest', 'establishment']","701 Laurel Street, Menlo Park",37.451885,-122.1758202
53,"Palo Alto, California",local_government_office,ChIJ2_NWxk2ij4ARj8ZMSTaT5wQ,San Mateo County Probation,"['local_government_office', 'point_of_interest', 'establishment']","400 County Center, Redwood City",37.4881419,-122.2307807
54,"Palo Alto, California",local_government_office,ChIJyaQW0zu7j4ARgs28RbOVTqQ,Palo Alto Human Resources,"['local_government_office', 'point_of_interest', 'establishment']","250 Hamilton Avenue, Palo Alto",37.4442034,-122.1596147
55,"Palo Alto, California",local_government_office,ChIJKUf9YbKkj4AR6l8Who03sU8,Menlo Park Environmental Program,"['local_government_office', 'point_of_interest', 'establishment']","701 Laurel Street, Menlo Park",37.4519352,-122.1761897
56,"Palo Alto, California",local_government_office,ChIJ31vahlCij4ARnfttwftPoHo,Small Claims Court,"['courthouse', 'local_government_office', 'point_of_interest', 'establishment']","400 County Center, Redwood City",37.4884281,-122.2297779
57,"Palo Alto, California",local_government_office,ChIJKUf9YbKkj4AR2KKyfr1zvkc,Menlo Park Business License,"['local_government_office', 'point_of_interest', 'establishment']","701 Laurel Street, Menlo Park",37.451881,-122.17601
58,"Palo Alto, California",local_government_office,ChIJ6093Vj66j4ARdiyt1YN-388,Acterra: Action for a Healthy Planet,"['local_government_office', 'point_of_interest', 'establishment']","3921 East Bayshore Road, Palo Alto",37.430944,-122.103188
59,"Palo Alto, California",local_government_office,ChIJKUf9YbKkj4ARh5y-oCL0pTM,Menlo Park City Finance,"['accounting', 'local_government_office', 'finance', 'point_of_interest', 'establishment']","701 Laurel Street, Menlo Park",37.45202159999999,-122.1755959
0,"Mountain View, California",local_government_office,ChIJ7f3Xc_W2j4ARltu5wl2WS6U,Promatch,"['local_government_office', 'point_of_interest', 'establishment']","505 West Olive Avenue #737, Sunnyvale",37.372426,-122.038928
1,"Mountain View, California",local_government_office,ChIJs_PLVhe7j4ARXd-ownsJcYo,Lucie Stern Community Center,"['local_government_office', 'point_of_interest', 'establishment']","1305 Middlefield Road #1, Palo Alto",37.4443171,-122.1455497
2,"Mountain View, California",local_government_office,ChIJx84lwU20j4ARbc4oNQ-OOMc,Cupertino Teen Center,"['local_government_office', 'point_of_interest', 'establishment']","21111 Stevens Creek Boulevard, Cupertino",37.3234109,-122.0431597
3,"Mountain View, California",local_government_office,ChIJ33KOk-6wj4AR7m9cKm813uY,Los Altos Planning,"['local_government_office', 'point_of_interest', 'establishment']","1 North San Antonio Road, Los Altos",37.3816531,-122.1136191
4,"Mountain View, California",local_government_office,ChIJXTSR17qwj4ARTET6FRI_lRE,Mountain View Volunteer Services,"['local_government_office', 'point_of_interest', 'establishment']","201 South Rengstorff Avenue, Mountain View",37.4010264,-122.0977455
5,"Mountain View, California",local_government_office,ChIJ47xiiDi7j4ARWWid7irUnuQ,"Sugimura Intellectual Property Services, Inc.","['local_government_office', 'point_of_interest', 'establishment']","960 San Antonio Road suite 101, Palo Alto",37.42398699999999,-122.100831
6,"Mountain View, California",local_government_office,ChIJDRgD-xe3j4AR6mV7Q807Lsg,Public Services Department,"['local_government_office', 'point_of_interest', 'establishment']","231 North Whisman Road, Mountain View",37.3940063,-122.0603515
7,"Mountain View, California",local_government_office,ChIJyaQW0zu7j4ARUiDBucIO1eU,City of Palo Alto City Hall,"['city_hall', 'local_government_office', 'point_of_interest', 'establishment']","250 Hamilton Avenue, Palo Alto",37.4443593,-122.159902
8,"Mountain View, California",local_government_office,ChIJScWuUvW2j4ARCoMEbWINTns,Sunnyvale City Council,"['local_government_office', 'point_of_interest', 'establishment']","456 West Olive Avenue, Sunnyvale",37.371044,-122.0374624
9,"Mountain View, California",local_government_office,ChIJayy7he62j4ARJOaxTO3JaHc,Sunnyvale Auto Registration,"['local_government_office', 'point_of_interest', 'establishment']","620 Grape Avenue #103, Sunnyvale",37.371973,-122.0525939
10,"Mountain View, California",local_government_office,ChIJ6093Vj66j4ARdiyt1YN-388,Acterra: Action for a Healthy Planet,"['local_government_office', 'point_of_interest', 'establishment']","3921 East Bayshore Road, Palo Alto",37.430944,-122.103188
11,"Mountain View, California",local_government_office,ChIJcXjmdE60j4ARWawQZs_9LVo,Cupertino City Public Info,"['local_government_office', 'point_of_interest', 'establishment']","10300 Torre Avenue, Cupertino",37.3184258,-122.0283667
12,"Mountain View, California",local_government_office,ChIJY64uQEy0j4ARkvzYmnwhHAA,Cupertino Recreation & Community Services,"['local_government_office', 'point_of_interest', 'establishment']","10185 North Stelling Road, Cupertino",37.3258153,-122.042527
13,"Mountain View, California",local_government_office,ChIJk3bU9V-2j4ARVGS6HMwtVv0,NOVA Job Center,"['local_government_office', 'point_of_interest', 'establishment']","505 West Olive Avenue #550, Sunnyvale",37.3727782,-122.0383593
14,"Mountain View, California",local_government_office,ChIJodN_GTO3j4AR4NA59AwLmBM,Mountain View Building Permits,"['local_government_office', 'point_of_interest', 'establishment']","500 Castro Street, Mountain View",37.3893785,-122.0822354
15,"Mountain View, California",local_government_office,ChIJ33KOk-6wj4ARm2yvsU2v8jQ,Los Altos City Council,"['local_government_office', 'point_of_interest', 'establishment']","1 North San Antonio Road, Los Altos",37.3816531,-122.1136191
16,"Mountain View, California",local_government_office,ChIJzz1faq-1j4ARJOdAylsPc2Y,Cupertino Environmental Services,"['local_government_office', 'general_contractor', 'point_of_interest', 'establishment']","10300 Torre Avenue, Cupertino",37.3184258,-122.0283667
17,"Mountain View, California",local_government_office,ChIJWcxHSzO3j4ARk7fdzHjb2sY,Mountain View Planning & Zoning,"['local_government_office', 'point_of_interest', 'establishment']","500 Castro Street, Mountain View",37.3893785,-122.0822354
18,"Mountain View, California",local_government_office,ChIJodN_GTO3j4AR-6j424zWcos,Mountain View City Manager,"['local_government_office', 'point_of_interest', 'establishment']","500 Castro Street, Mountain View",37.3893785,-122.0822354
19,"Mountain View, California",local_government_office,ChIJodN_GTO3j4ARAPF3We1XAAQ,Mountain View Purchasing Department,"['local_government_office', 'point_of_interest', 'establishment']","500 Castro Street, Mountain View",37.3893785,-122.0822354
20,"Mountain View, California",local_government_office,ChIJ7f3Xc_W2j4ARltu5wl2WS6U,Promatch,"['local_government_office', 'point_of_interest', 'establishment']","505 West Olive Avenue #737, Sunnyvale",37.372426,-122.038928
21,"Mountain View, California",local_government_office,ChIJs_PLVhe7j4ARXd-ownsJcYo,Lucie Stern Community Center,"['local_government_office', 'point_of_interest', 'establishment']","1305 Middlefield Road #1, Palo Alto",37.4443171,-122.1455497
22,"Mountain View, California",local_government_office,ChIJx84lwU20j4ARbc4oNQ-OOMc,Cupertino Teen Center,"['local_government_office', 'point_of_interest', 'establishment']","21111 Stevens Creek Boulevard, Cupertino",37.3234109,-122.0431597
23,"Mountain View, California",local_government_office,ChIJ33KOk-6wj4AR7m9cKm813uY,Los Altos Planning,"['local_government_office', 'point_of_interest', 'establishment']","1 North San Antonio Road, Los Altos",37.3816531,-122.1136191
24,"Mountain View, California",local_government_office,ChIJXTSR17qwj4ARTET6FRI_lRE,Mountain View Volunteer Services,"['local_government_office', 'point_of_interest', 'establishment']","201 South Rengstorff Avenue, Mountain View",37.4010264,-122.0977455
25,"Mountain View, California",local_government_office,ChIJ47xiiDi7j4ARWWid7irUnuQ,"Sugimura Intellectual Property Services, Inc.","['local_government_office', 'point_of_interest', 'establishment']","960 San Antonio Road suite 101, Palo Alto",37.42398699999999,-122.100831
26,"Mountain View, California",local_government_office,ChIJDRgD-xe3j4AR6mV7Q807Lsg,Public Services Department,"['local_government_office', 'point_of_interest', 'establishment']","231 North Whisman Road, Mountain View",37.3940063,-122.0603515
27,"Mountain View, California",local_government_office,ChIJyaQW0zu7j4ARUiDBucIO1eU,City of Palo Alto City Hall,"['city_hall', 'local_government_office', 'point_of_interest', 'establishment']","250 Hamilton Avenue, Palo Alto",37.4443593,-122.159902
28,"Mountain View, California",local_government_office,ChIJScWuUvW2j4ARCoMEbWINTns,Sunnyvale City Council,"['local_government_office', 'point_of_interest', 'establishment']","456 West Olive Avenue, Sunnyvale",37.371044,-122.0374624
29,"Mountain View, California",local_government_office,ChIJayy7he62j4ARJOaxTO3JaHc,Sunnyvale Auto Registration,"['local_government_office', 'point_of_interest', 'establishment']","620 Grape Avenue #103, Sunnyvale",37.371973,-122.0525939
30,"Mountain View, California",local_government_office,ChIJ6093Vj66j4ARdiyt1YN-388,Acterra: Action for a Healthy Planet,"['local_government_office', 'point_of_interest', 'establishment']","3921 East Bayshore Road, Palo Alto",37.430944,-122.103188
31,"Mountain View, California",local_government_office,ChIJcXjmdE60j4ARWawQZs_9LVo,Cupertino City Public Info,"['local_government_office', 'point_of_interest', 'establishment']","10300 Torre Avenue, Cupertino",37.3184258,-122.0283667
32,"Mountain View, California",local_government_office,ChIJY64uQEy0j4ARkvzYmnwhHAA,Cupertino Recreation & Community Services,"['local_government_office', 'point_of_interest', 'establishment']","10185 North Stelling Road, Cupertino",37.3258153,-122.042527
33,"Mountain View, California",local_government_office,ChIJk3bU9V-2j4ARVGS6HMwtVv0,NOVA Job Center,"['local_government_office', 'point_of_interest', 'establishment']","505 West Olive Avenue #550, Sunnyvale",37.3727782,-122.0383593
34,"Mountain View, California",local_government_office,ChIJodN_GTO3j4AR4NA59AwLmBM,Mountain View Building Permits,"['local_government_office', 'point_of_interest', 'establishment']","500 Castro Street, Mountain View",37.3893785,-122.0822354
35,"Mountain View, California",local_government_office,ChIJ33KOk-6wj4ARm2yvsU2v8jQ,Los Altos City Council,"['local_government_office', 'point_of_interest', 'establishment']","1 North San Antonio Road, Los Altos",37.3816531,-122.1136191
36,"Mountain View, California",local_government_office,ChIJzz1faq-1j4ARJOdAylsPc2Y,Cupertino Environmental Services,"['local_government_office', 'general_contractor', 'point_of_interest', 'establishment']","10300 Torre Avenue, Cupertino",37.3184258,-122.0283667
37,"Mountain View, California",local_government_office,ChIJWcxHSzO3j4ARk7fdzHjb2sY,Mountain View Planning & Zoning,"['local_government_office', 'point_of_interest', 'establishment']","500 Castro Street, Mountain View",37.3893785,-122.0822354
38,"Mountain View, California",local_government_office,ChIJodN_GTO3j4AR-6j424zWcos,Mountain View City Manager,"['local_government_office', 'point_of_interest', 'establishment']","500 Castro Street, Mountain View",37.3893785,-122.0822354
39,"Mountain View, California",local_government_office,ChIJodN_GTO3j4ARAPF3We1XAAQ,Mountain View Purchasing Department,"['local_government_office', 'point_of_interest', 'establishment']","500 Castro Street, Mountain View",37.3893785,-122.0822354
40,"Mountain View, California",local_government_office,ChIJ7f3Xc_W2j4ARltu5wl2WS6U,Promatch,"['local_government_office', 'point_of_interest', 'establishment']","505 West Olive Avenue #737, Sunnyvale",37.372426,-122.038928
41,"Mountain View, California",local_government_office,ChIJs_PLVhe7j4ARXd-ownsJcYo,Lucie Stern Community Center,"['local_government_office', 'point_of_interest', 'establishment']","1305 Middlefield Road #1, Palo Alto",37.4443171,-122.1455497
42,"Mountain View, California",local_government_office,ChIJx84lwU20j4ARbc4oNQ-OOMc,Cupertino Teen Center,"['local_government_office', 'point_of_interest', 'establishment']","21111 Stevens Creek Boulevard, Cupertino",37.3234109,-122.0431597
43,"Mountain View, California",local_government_office,ChIJ33KOk-6wj4AR7m9cKm813uY,Los Altos Planning,"['local_government_office', 'point_of_interest', 'establishment']","1 North San Antonio Road, Los Altos",37.3816531,-122.1136191
44,"Mountain View, California",local_government_office,ChIJXTSR17qwj4ARTET6FRI_lRE,Mountain View Volunteer Services,"['local_government_office', 'point_of_interest', 'establishment']","201 South Rengstorff Avenue, Mountain View",37.4010264,-122.0977455
45,"Mountain View, California",local_government_office,ChIJ47xiiDi7j4ARWWid7irUnuQ,"Sugimura Intellectual Property Services, Inc.","['local_government_office', 'point_of_interest', 'establishment']","960 San Antonio Road suite 101, Palo Alto",37.42398699999999,-122.100831
46,"Mountain View, California",local_government_office,ChIJDRgD-xe3j4AR6mV7Q807Lsg,Public Services Department,"['local_government_office', 'point_of_interest', 'establishment']","231 North Whisman Road, Mountain View",37.3940063,-122.0603515
47,"Mountain View, California",local_government_office,ChIJyaQW0zu7j4ARUiDBucIO1eU,City of Palo Alto City Hall,"['city_hall', 'local_government_office', 'point_of_interest', 'establishment']","250 Hamilton Avenue, Palo Alto",37.4443593,-122.159902
48,"Mountain View, California",local_government_office,ChIJScWuUvW2j4ARCoMEbWINTns,Sunnyvale City Council,"['local_government_office', 'point_of_interest', 'establishment']","456 West Olive Avenue, Sunnyvale",37.371044,-122.0374624
49,"Mountain View, California",local_government_office,ChIJayy7he62j4ARJOaxTO3JaHc,Sunnyvale Auto Registration,"['local_government_office', 'point_of_interest', 'establishment']","620 Grape Avenue #103, Sunnyvale",37.371973,-122.0525939
50,"Mountain View, California",local_government_office,ChIJ6093Vj66j4ARdiyt1YN-388,Acterra: Action for a Healthy Planet,"['local_government_office', 'point_of_interest', 'establishment']","3921 East Bayshore Road, Palo Alto",37.430944,-122.103188
51,"Mountain View, California",local_government_office,ChIJcXjmdE60j4ARWawQZs_9LVo,Cupertino City Public Info,"['local_government_office', 'point_of_interest', 'establishment']","10300 Torre Avenue, Cupertino",37.3184258,-122.0283667
52,"Mountain View, California",local_government_office,ChIJY64uQEy0j4ARkvzYmnwhHAA,Cupertino Recreation & Community Services,"['local_government_office', 'point_of_interest', 'establishment']","10185 North Stelling Road, Cupertino",37.3258153,-122.042527
53,"Mountain View, California",local_government_office,ChIJk3bU9V-2j4ARVGS6HMwtVv0,NOVA Job Center,"['local_government_office', 'point_of_interest', 'establishment']","505 West Olive Avenue #550, Sunnyvale",37.3727782,-122.0383593
54,"Mountain View, California",local_government_office,ChIJodN_GTO3j4AR4NA59AwLmBM,Mountain View Building Permits,"['local_government_office', 'point_of_interest', 'establishment']","500 Castro Street, Mountain View",37.3893785,-122.0822354
55,"Mountain View, California",local_government_office,ChIJ33KOk-6wj4ARm2yvsU2v8jQ,Los Altos City Council,"['local_government_office', 'point_of_interest', 'establishment']","1 North San Antonio Road, Los Altos",37.3816531,-122.1136191
56,"Mountain View, California",local_government_office,ChIJzz1faq-1j4ARJOdAylsPc2Y,Cupertino Environmental Services,"['local_government_office', 'general_contractor', 'point_of_interest', 'establishment']","10300 Torre Avenue, Cupertino",37.3184258,-122.0283667
57,"Mountain View, California",local_government_office,ChIJWcxHSzO3j4ARk7fdzHjb2sY,Mountain View Planning & Zoning,"['local_government_office', 'point_of_interest', 'establishment']","500 Castro Street, Mountain View",37.3893785,-122.0822354
58,"Mountain View, California",local_government_office,ChIJodN_GTO3j4AR-6j424zWcos,Mountain View City Manager,"['local_government_office', 'point_of_interest', 'establishment']","500 Castro Street, Mountain View",37.3893785,-122.0822354
59,"Mountain View, California",local_government_office,ChIJodN_GTO3j4ARAPF3We1XAAQ,Mountain View Purchasing Department,"['local_government_office', 'point_of_interest', 'establishment']","500 Castro Street, Mountain View",37.3893785,-122.0822354
0,"Sunnyvale, California",local_government_office,ChIJ7f3Xc_W2j4ARltu5wl2WS6U,Promatch,"['local_government_office', 'point_of_interest', 'establishment']","505 West Olive Avenue #737, Sunnyvale",37.372426,-122.038928
1,"Sunnyvale, California",local_government_office,ChIJTfdf-6zLj4ARAlch23HyUMQ,Santa Clara County Courthouse,"['courthouse', 'local_government_office', 'point_of_interest', 'establishment']","1095 Homestead Road, Santa Clara",37.3487998,-121.9452168
2,"Sunnyvale, California",local_government_office,ChIJx84lwU20j4ARbc4oNQ-OOMc,Cupertino Teen Center,"['local_government_office', 'point_of_interest', 'establishment']","21111 Stevens Creek Boulevard, Cupertino",37.3234109,-122.0431597
3,"Sunnyvale, California",local_government_office,ChIJUyysaknKj4AR3vkK72VrFYY,Silicon Valley Power,"['local_government_office', 'point_of_interest', 'establishment']","1500 Warburton Avenue, Santa Clara",37.3551373,-121.954875
4,"Sunnyvale, California",local_government_office,ChIJUyysaknKj4AR5AOjIDTIwbA,Santa Clara Finance Department,"['accounting', 'local_government_office', 'finance', 'point_of_interest', 'establishment']","1500 Warburton Avenue, Santa Clara",37.3551373,-121.954875
5,"Sunnyvale, California",local_government_office,ChIJUyysaknKj4ARtk9f8TxAsUA,Santa Clara Human Resources,"['local_government_office', 'point_of_interest', 'establishment']","1500 Warburton Avenue, Santa Clara",37.3550257,-121.955221
6,"Sunnyvale, California",local_government_office,ChIJXTSR17qwj4ARTET6FRI_lRE,Mountain View Volunteer Services,"['local_government_office', 'point_of_interest', 'establishment']","201 South Rengstorff Avenue, Mountain View",37.4010264,-122.0977455
7,"Sunnyvale, California",local_government_office,ChIJcXjmdE60j4ARWawQZs_9LVo,Cupertino City Public Info,"['local_government_office', 'point_of_interest', 'establishment']","10300 Torre Avenue, Cupertino",37.3184258,-122.0283667
8,"Sunnyvale, California",local_government_office,ChIJ33KOk-6wj4AR7m9cKm813uY,Los Altos Planning,"['local_government_office', 'point_of_interest', 'establishment']","1 North San Antonio Road, Los Altos",37.3816531,-122.1136191
9,"Sunnyvale, California",local_government_office,ChIJUyysaknKj4ARGDaRh6KsFdg,Santa Clara Business Licenses,"['local_government_office', 'point_of_interest', 'establishment']","1500 Warburton Avenue, Santa Clara",37.3551373,-121.954875
10,"Sunnyvale, California",local_government_office,ChIJDRgD-xe3j4AR6mV7Q807Lsg,Public Services Department,"['local_government_office', 'point_of_interest', 'establishment']","231 North Whisman Road, Mountain View",37.3940063,-122.0603515
11,"Sunnyvale, California",local_government_office,ChIJScWuUvW2j4ARCoMEbWINTns,Sunnyvale City Council,"['local_government_office', 'point_of_interest', 'establishment']","456 West Olive Avenue, Sunnyvale",37.371044,-122.0374624
12,"Sunnyvale, California",local_government_office,ChIJayy7he62j4ARJOaxTO3JaHc,Sunnyvale Auto Registration,"['local_government_office', 'point_of_interest', 'establishment']","620 Grape Avenue #103, Sunnyvale",37.371973,-122.0525939
13,"Sunnyvale, California",local_government_office,ChIJzz1faq-1j4ARJOdAylsPc2Y,Cupertino Environmental Services,"['local_government_office', 'general_contractor', 'point_of_interest', 'establishment']","10300 Torre Avenue, Cupertino",37.3184258,-122.0283667
14,"Sunnyvale, California",local_government_office,ChIJ47xiiDi7j4ARWWid7irUnuQ,"Sugimura Intellectual Property Services, Inc.","['local_government_office', 'point_of_interest', 'establishment']","960 San Antonio Road suite 101, Palo Alto",37.42398699999999,-122.100831
15,"Sunnyvale, California",local_government_office,ChIJ8etgxQzJj4ARz2n6nLVql3A,Santa Clara Valley Transportation Authority,"['local_government_office', 'point_of_interest', 'establishment']","3331 North 1st Street bldg b, San Jose",37.3997964,-121.9393629
16,"Sunnyvale, California",local_government_office,ChIJZ1l_-ai1j4AR19CxfY4i5k4,Cupertino City Compost Program,"['local_government_office', 'point_of_interest', 'establishment']","10300 Torre Avenue, Cupertino",37.3187455,-122.0286015
17,"Sunnyvale, California",local_government_office,ChIJY64uQEy0j4ARkvzYmnwhHAA,Cupertino Recreation & Community Services,"['local_government_office', 'point_of_interest', 'establishment']","10185 North Stelling Road, Cupertino",37.3258153,-122.042527
18,"Sunnyvale, California",local_government_office,ChIJZ1l_-ai1j4ARLoriz33h41o,Cupertino City Manager,"['local_government_office', 'point_of_interest', 'establishment']","10300 Torre Avenue, Cupertino",37.3184258,-122.0283667
19,"Sunnyvale, California",local_government_office,ChIJcXjmdE60j4AR1Lp1zi7xxA8,Cupertino Building Permits & Codes,"['local_government_office', 'point_of_interest', 'establishment']","10300 Torre Avenue, Cupertino",37.3184258,-122.0283667
20,"Sunnyvale, California",local_government_office,ChIJ7f3Xc_W2j4ARltu5wl2WS6U,Promatch,"['local_government_office', 'point_of_interest', 'establishment']","505 West Olive Avenue #737, Sunnyvale",37.372426,-122.038928
21,"Sunnyvale, California",local_government_office,ChIJTfdf-6zLj4ARAlch23HyUMQ,Santa Clara County Courthouse,"['courthouse', 'local_government_office', 'point_of_interest', 'establishment']","1095 Homestead Road, Santa Clara",37.3487998,-121.9452168
22,"Sunnyvale, California",local_government_office,ChIJx84lwU20j4ARbc4oNQ-OOMc,Cupertino Teen Center,"['local_government_office', 'point_of_interest', 'establishment']","21111 Stevens Creek Boulevard, Cupertino",37.3234109,-122.0431597
23,"Sunnyvale, California",local_government_office,ChIJUyysaknKj4AR3vkK72VrFYY,Silicon Valley Power,"['local_government_office', 'point_of_interest', 'establishment']","1500 Warburton Avenue, Santa Clara",37.3551373,-121.954875
24,"Sunnyvale, California",local_government_office,ChIJUyysaknKj4AR5AOjIDTIwbA,Santa Clara Finance Department,"['accounting', 'local_government_office', 'finance', 'point_of_interest', 'establishment']","1500 Warburton Avenue, Santa Clara",37.3551373,-121.954875
25,"Sunnyvale, California",local_government_office,ChIJUyysaknKj4ARtk9f8TxAsUA,Santa Clara Human Resources,"['local_government_office', 'point_of_interest', 'establishment']","1500 Warburton Avenue, Santa Clara",37.3550257,-121.955221
26,"Sunnyvale, California",local_government_office,ChIJXTSR17qwj4ARTET6FRI_lRE,Mountain View Volunteer Services,"['local_government_office', 'point_of_interest', 'establishment']","201 South Rengstorff Avenue, Mountain View",37.4010264,-122.0977455
27,"Sunnyvale, California",local_government_office,ChIJcXjmdE60j4ARWawQZs_9LVo,Cupertino City Public Info,"['local_government_office', 'point_of_interest', 'establishment']","10300 Torre Avenue, Cupertino",37.3184258,-122.0283667
28,"Sunnyvale, California",local_government_office,ChIJ33KOk-6wj4AR7m9cKm813uY,Los Altos Planning,"['local_government_office', 'point_of_interest', 'establishment']","1 North San Antonio Road, Los Altos",37.3816531,-122.1136191
29,"Sunnyvale, California",local_government_office,ChIJUyysaknKj4ARGDaRh6KsFdg,Santa Clara Business Licenses,"['local_government_office', 'point_of_interest', 'establishment']","1500 Warburton Avenue, Santa Clara",37.3551373,-121.954875
30,"Sunnyvale, California",local_government_office,ChIJDRgD-xe3j4AR6mV7Q807Lsg,Public Services Department,"['local_government_office', 'point_of_interest', 'establishment']","231 North Whisman Road, Mountain View",37.3940063,-122.0603515
31,"Sunnyvale, California",local_government_office,ChIJScWuUvW2j4ARCoMEbWINTns,Sunnyvale City Council,"['local_government_office', 'point_of_interest', 'establishment']","456 West Olive Avenue, Sunnyvale",37.371044,-122.0374624
32,"Sunnyvale, California",local_government_office,ChIJayy7he62j4ARJOaxTO3JaHc,Sunnyvale Auto Registration,"['local_government_office', 'point_of_interest', 'establishment']","620 Grape Avenue #103, Sunnyvale",37.371973,-122.0525939
33,"Sunnyvale, California",local_government_office,ChIJzz1faq-1j4ARJOdAylsPc2Y,Cupertino Environmental Services,"['local_government_office', 'general_contractor', 'point_of_interest', 'establishment']","10300 Torre Avenue, Cupertino",37.3184258,-122.0283667
34,"Sunnyvale, California",local_government_office,ChIJ47xiiDi7j4ARWWid7irUnuQ,"Sugimura Intellectual Property Services, Inc.","['local_government_office', 'point_of_interest', 'establishment']","960 San Antonio Road suite 101, Palo Alto",37.42398699999999,-122.100831
35,"Sunnyvale, California",local_government_office,ChIJ8etgxQzJj4ARz2n6nLVql3A,Santa Clara Valley Transportation Authority,"['local_government_office', 'point_of_interest', 'establishment']","3331 North 1st Street bldg b, San Jose",37.3997964,-121.9393629
36,"Sunnyvale, California",local_government_office,ChIJZ1l_-ai1j4AR19CxfY4i5k4,Cupertino City Compost Program,"['local_government_office', 'point_of_interest', 'establishment']","10300 Torre Avenue, Cupertino",37.3187455,-122.0286015
37,"Sunnyvale, California",local_government_office,ChIJY64uQEy0j4ARkvzYmnwhHAA,Cupertino Recreation & Community Services,"['local_government_office', 'point_of_interest', 'establishment']","10185 North Stelling Road, Cupertino",37.3258153,-122.042527
38,"Sunnyvale, California",local_government_office,ChIJZ1l_-ai1j4ARLoriz33h41o,Cupertino City Manager,"['local_government_office', 'point_of_interest', 'establishment']","10300 Torre Avenue, Cupertino",37.3184258,-122.0283667
39,"Sunnyvale, California",local_government_office,ChIJcXjmdE60j4AR1Lp1zi7xxA8,Cupertino Building Permits & Codes,"['local_government_office', 'point_of_interest', 'establishment']","10300 Torre Avenue, Cupertino",37.3184258,-122.0283667
40,"Sunnyvale, California",local_government_office,ChIJ7f3Xc_W2j4ARltu5wl2WS6U,Promatch,"['local_government_office', 'point_of_interest', 'establishment']","505 West Olive Avenue #737, Sunnyvale",37.372426,-122.038928
41,"Sunnyvale, California",local_government_office,ChIJTfdf-6zLj4ARAlch23HyUMQ,Santa Clara County Courthouse,"['courthouse', 'local_government_office', 'point_of_interest', 'establishment']","1095 Homestead Road, Santa Clara",37.3487998,-121.9452168
42,"Sunnyvale, California",local_government_office,ChIJx84lwU20j4ARbc4oNQ-OOMc,Cupertino Teen Center,"['local_government_office', 'point_of_interest', 'establishment']","21111 Stevens Creek Boulevard, Cupertino",37.3234109,-122.0431597
43,"Sunnyvale, California",local_government_office,ChIJUyysaknKj4AR3vkK72VrFYY,Silicon Valley Power,"['local_government_office', 'point_of_interest', 'establishment']","1500 Warburton Avenue, Santa Clara",37.3551373,-121.954875
44,"Sunnyvale, California",local_government_office,ChIJUyysaknKj4AR5AOjIDTIwbA,Santa Clara Finance Department,"['accounting', 'local_government_office', 'finance', 'point_of_interest', 'establishment']","1500 Warburton Avenue, Santa Clara",37.3551373,-121.954875
45,"Sunnyvale, California",local_government_office,ChIJUyysaknKj4ARtk9f8TxAsUA,Santa Clara Human Resources,"['local_government_office', 'point_of_interest', 'establishment']","1500 Warburton Avenue, Santa Clara",37.3550257,-121.955221
46,"Sunnyvale, California",local_government_office,ChIJXTSR17qwj4ARTET6FRI_lRE,Mountain View Volunteer Services,"['local_government_office', 'point_of_interest', 'establishment']","201 South Rengstorff Avenue, Mountain View",37.4010264,-122.0977455
47,"Sunnyvale, California",local_government_office,ChIJcXjmdE60j4ARWawQZs_9LVo,Cupertino City Public Info,"['local_government_office', 'point_of_interest', 'establishment']","10300 Torre Avenue, Cupertino",37.3184258,-122.0283667
48,"Sunnyvale, California",local_government_office,ChIJ33KOk-6wj4AR7m9cKm813uY,Los Altos Planning,"['local_government_office', 'point_of_interest', 'establishment']","1 North San Antonio Road, Los Altos",37.3816531,-122.1136191
49,"Sunnyvale, California",local_government_office,ChIJUyysaknKj4ARGDaRh6KsFdg,Santa Clara Business Licenses,"['local_government_office', 'point_of_interest', 'establishment']","1500 Warburton Avenue, Santa Clara",37.3551373,-121.954875
50,"Sunnyvale, California",local_government_office,ChIJDRgD-xe3j4AR6mV7Q807Lsg,Public Services Department,"['local_government_office', 'point_of_interest', 'establishment']","231 North Whisman Road, Mountain View",37.3940063,-122.0603515
51,"Sunnyvale, California",local_government_office,ChIJScWuUvW2j4ARCoMEbWINTns,Sunnyvale City Council,"['local_government_office', 'point_of_interest', 'establishment']","456 West Olive Avenue, Sunnyvale",37.371044,-122.0374624
52,"Sunnyvale, California",local_government_office,ChIJayy7he62j4ARJOaxTO3JaHc,Sunnyvale Auto Registration,"['local_government_office', 'point_of_interest', 'establishment']","620 Grape Avenue #103, Sunnyvale",37.371973,-122.0525939
53,"Sunnyvale, California",local_government_office,ChIJzz1faq-1j4ARJOdAylsPc2Y,Cupertino Environmental Services,"['local_government_office', 'general_contractor', 'point_of_interest', 'establishment']","10300 Torre Avenue, Cupertino",37.3184258,-122.0283667
54,"Sunnyvale, California",local_government_office,ChIJ47xiiDi7j4ARWWid7irUnuQ,"Sugimura Intellectual Property Services, Inc.","['local_government_office', 'point_of_interest', 'establishment']","960 San Antonio Road suite 101, Palo Alto",37.42398699999999,-122.100831
55,"Sunnyvale, California",local_government_office,ChIJ8etgxQzJj4ARz2n6nLVql3A,Santa Clara Valley Transportation Authority,"['local_government_office', 'point_of_interest', 'establishment']","3331 North 1st Street bldg b, San Jose",37.3997964,-121.9393629
56,"Sunnyvale, California",local_government_office,ChIJZ1l_-ai1j4AR19CxfY4i5k4,Cupertino City Compost Program,"['local_government_office', 'point_of_interest', 'establishment']","10300 Torre Avenue, Cupertino",37.3187455,-122.0286015
57,"Sunnyvale, California",local_government_office,ChIJY64uQEy0j4ARkvzYmnwhHAA,Cupertino Recreation & Community Services,"['local_government_office', 'point_of_interest', 'establishment']","10185 North Stelling Road, Cupertino",37.3258153,-122.042527
58,"Sunnyvale, California",local_government_office,ChIJZ1l_-ai1j4ARLoriz33h41o,Cupertino City Manager,"['local_government_office', 'point_of_interest', 'establishment']","10300 Torre Avenue, Cupertino",37.3184258,-122.0283667
59,"Sunnyvale, California",local_government_office,ChIJcXjmdE60j4AR1Lp1zi7xxA8,Cupertino Building Permits & Codes,"['local_government_office', 'point_of_interest', 'establishment']","10300 Torre Avenue, Cupertino",37.3184258,-122.0283667
0,"Cupertino, California",local_government_office,ChIJ3fKfxDM1joARl77GPuzoFXI,U.S. Social Security Administration,"['local_government_office', 'point_of_interest', 'establishment']","770 West Hamilton Avenue, Campbell",37.2936584,-121.9627471
1,"Cupertino, California",local_government_office,ChIJ7f3Xc_W2j4ARltu5wl2WS6U,Promatch,"['local_government_office', 'point_of_interest', 'establishment']","505 West Olive Avenue #737, Sunnyvale",37.372426,-122.038928
2,"Cupertino, California",local_government_office,ChIJTfdf-6zLj4ARAlch23HyUMQ,Santa Clara County Courthouse,"['courthouse', 'local_government_office', 'point_of_interest', 'establishment']","1095 Homestead Road, Santa Clara",37.3487998,-121.9452168
3,"Cupertino, California",local_government_office,ChIJKX2XuyY1joARLuNWx-BMVBw,Campbell Adult Center,"['local_government_office', 'point_of_interest', 'establishment']","1 West Campbell Avenue # C33, Campbell",37.2877729,-121.952066
4,"Cupertino, California",local_government_office,ChIJx84lwU20j4ARbc4oNQ-OOMc,Cupertino Teen Center,"['local_government_office', 'point_of_interest', 'establishment']","21111 Stevens Creek Boulevard, Cupertino",37.3234109,-122.0431597
5,"Cupertino, California",local_government_office,ChIJUyysaknKj4AR3vkK72VrFYY,Silicon Valley Power,"['local_government_office', 'point_of_interest', 'establishment']","1500 Warburton Avenue, Santa Clara",37.3551373,-121.954875
6,"Cupertino, California",local_government_office,ChIJUyysaknKj4AR5AOjIDTIwbA,Santa Clara Finance Department,"['accounting', 'local_government_office', 'finance', 'point_of_interest', 'establishment']","1500 Warburton Avenue, Santa Clara",37.3551373,-121.954875
7,"Cupertino, California",local_government_office,ChIJcXjmdE60j4ARWawQZs_9LVo,Cupertino City Public Info,"['local_government_office', 'point_of_interest', 'establishment']","10300 Torre Avenue, Cupertino",37.3184258,-122.0283667
8,"Cupertino, California",local_government_office,ChIJUyysaknKj4ARtk9f8TxAsUA,Santa Clara Human Resources,"['local_government_office', 'point_of_interest', 'establishment']","1500 Warburton Avenue, Santa Clara",37.3550257,-121.955221
9,"Cupertino, California",local_government_office,ChIJUyysaknKj4ARGDaRh6KsFdg,Santa Clara Business Licenses,"['local_government_office', 'point_of_interest', 'establishment']","1500 Warburton Avenue, Santa Clara",37.3551373,-121.954875
10,"Cupertino, California",local_government_office,ChIJzz1faq-1j4ARJOdAylsPc2Y,Cupertino Environmental Services,"['local_government_office', 'general_contractor', 'point_of_interest', 'establishment']","10300 Torre Avenue, Cupertino",37.3184258,-122.0283667
11,"Cupertino, California",local_government_office,ChIJScWuUvW2j4ARCoMEbWINTns,Sunnyvale City Council,"['local_government_office', 'point_of_interest', 'establishment']","456 West Olive Avenue, Sunnyvale",37.371044,-122.0374624
12,"Cupertino, California",local_government_office,ChIJayy7he62j4ARJOaxTO3JaHc,Sunnyvale Auto Registration,"['local_government_office', 'point_of_interest', 'establishment']","620 Grape Avenue #103, Sunnyvale",37.371973,-122.0525939
13,"Cupertino, California",local_government_office,ChIJDRgD-xe3j4AR6mV7Q807Lsg,Public Services Department,"['local_government_office', 'point_of_interest', 'establishment']","231 North Whisman Road, Mountain View",37.3940063,-122.0603515
14,"Cupertino, California",local_government_office,ChIJZ1l_-ai1j4AR19CxfY4i5k4,Cupertino City Compost Program,"['local_government_office', 'point_of_interest', 'establishment']","10300 Torre Avenue, Cupertino",37.3187455,-122.0286015
15,"Cupertino, California",local_government_office,ChIJY64uQEy0j4ARkvzYmnwhHAA,Cupertino Recreation & Community Services,"['local_government_office', 'point_of_interest', 'establishment']","10185 North Stelling Road, Cupertino",37.3258153,-122.042527
16,"Cupertino, California",local_government_office,ChIJZ1l_-ai1j4ARLoriz33h41o,Cupertino City Manager,"['local_government_office', 'point_of_interest', 'establishment']","10300 Torre Avenue, Cupertino",37.3184258,-122.0283667
17,"Cupertino, California",local_government_office,ChIJcXjmdE60j4AR1Lp1zi7xxA8,Cupertino Building Permits & Codes,"['local_government_office', 'point_of_interest', 'establishment']","10300 Torre Avenue, Cupertino",37.3184258,-122.0283667
18,"Cupertino, California",local_government_office,ChIJk3bU9V-2j4ARVGS6HMwtVv0,NOVA Job Center,"['local_government_office', 'point_of_interest', 'establishment']","505 West Olive Avenue #550, Sunnyvale",37.3727782,-122.0383593
19,"Cupertino, California",local_government_office,ChIJJ77sri_Lj4ARlPQGu2YmbVE,County Public Health Department California Children's Services Medical Therapy Unit Chandler Tripp,"['local_government_office', 'point_of_interest', 'establishment']","780 Thornton Way, San Jose",37.31321359999999,-121.9383339
20,"Cupertino, California",local_government_office,ChIJ3fKfxDM1joARl77GPuzoFXI,U.S. Social Security Administration,"['local_government_office', 'point_of_interest', 'establishment']","770 West Hamilton Avenue, Campbell",37.2936584,-121.9627471
21,"Cupertino, California",local_government_office,ChIJ7f3Xc_W2j4ARltu5wl2WS6U,Promatch,"['local_government_office', 'point_of_interest', 'establishment']","505 West Olive Avenue #737, Sunnyvale",37.372426,-122.038928
22,"Cupertino, California",local_government_office,ChIJTfdf-6zLj4ARAlch23HyUMQ,Santa Clara County Courthouse,"['courthouse', 'local_government_office', 'point_of_interest', 'establishment']","1095 Homestead Road, Santa Clara",37.3487998,-121.9452168
23,"Cupertino, California",local_government_office,ChIJKX2XuyY1joARLuNWx-BMVBw,Campbell Adult Center,"['local_government_office', 'point_of_interest', 'establishment']","1 West Campbell Avenue # C33, Campbell",37.2877729,-121.952066
24,"Cupertino, California",local_government_office,ChIJx84lwU20j4ARbc4oNQ-OOMc,Cupertino Teen Center,"['local_government_office', 'point_of_interest', 'establishment']","21111 Stevens Creek Boulevard, Cupertino",37.3234109,-122.0431597
25,"Cupertino, California",local_government_office,ChIJUyysaknKj4AR3vkK72VrFYY,Silicon Valley Power,"['local_government_office', 'point_of_interest', 'establishment']","1500 Warburton Avenue, Santa Clara",37.3551373,-121.954875
26,"Cupertino, California",local_government_office,ChIJUyysaknKj4AR5AOjIDTIwbA,Santa Clara Finance Department,"['accounting', 'local_government_office', 'finance', 'point_of_interest', 'establishment']","1500 Warburton Avenue, Santa Clara",37.3551373,-121.954875
27,"Cupertino, California",local_government_office,ChIJcXjmdE60j4ARWawQZs_9LVo,Cupertino City Public Info,"['local_government_office', 'point_of_interest', 'establishment']","10300 Torre Avenue, Cupertino",37.3184258,-122.0283667
28,"Cupertino, California",local_government_office,ChIJUyysaknKj4ARtk9f8TxAsUA,Santa Clara Human Resources,"['local_government_office', 'point_of_interest', 'establishment']","1500 Warburton Avenue, Santa Clara",37.3550257,-121.955221
29,"Cupertino, California",local_government_office,ChIJUyysaknKj4ARGDaRh6KsFdg,Santa Clara Business Licenses,"['local_government_office', 'point_of_interest', 'establishment']","1500 Warburton Avenue, Santa Clara",37.3551373,-121.954875
30,"Cupertino, California",local_government_office,ChIJzz1faq-1j4ARJOdAylsPc2Y,Cupertino Environmental Services,"['local_government_office', 'general_contractor', 'point_of_interest', 'establishment']","10300 Torre Avenue, Cupertino",37.3184258,-122.0283667
31,"Cupertino, California",local_government_office,ChIJScWuUvW2j4ARCoMEbWINTns,Sunnyvale City Council,"['local_government_office', 'point_of_interest', 'establishment']","456 West Olive Avenue, Sunnyvale",37.371044,-122.0374624
32,"Cupertino, California",local_government_office,ChIJayy7he62j4ARJOaxTO3JaHc,Sunnyvale Auto Registration,"['local_government_office', 'point_of_interest', 'establishment']","620 Grape Avenue #103, Sunnyvale",37.371973,-122.0525939
33,"Cupertino, California",local_government_office,ChIJDRgD-xe3j4AR6mV7Q807Lsg,Public Services Department,"['local_government_office', 'point_of_interest', 'establishment']","231 North Whisman Road, Mountain View",37.3940063,-122.0603515
34,"Cupertino, California",local_government_office,ChIJZ1l_-ai1j4AR19CxfY4i5k4,Cupertino City Compost Program,"['local_government_office', 'point_of_interest', 'establishment']","10300 Torre Avenue, Cupertino",37.3187455,-122.0286015
35,"Cupertino, California",local_government_office,ChIJY64uQEy0j4ARkvzYmnwhHAA,Cupertino Recreation & Community Services,"['local_government_office', 'point_of_interest', 'establishment']","10185 North Stelling Road, Cupertino",37.3258153,-122.042527
36,"Cupertino, California",local_government_office,ChIJZ1l_-ai1j4ARLoriz33h41o,Cupertino City Manager,"['local_government_office', 'point_of_interest', 'establishment']","10300 Torre Avenue, Cupertino",37.3184258,-122.0283667
37,"Cupertino, California",local_government_office,ChIJcXjmdE60j4AR1Lp1zi7xxA8,Cupertino Building Permits & Codes,"['local_government_office', 'point_of_interest', 'establishment']","10300 Torre Avenue, Cupertino",37.3184258,-122.0283667
38,"Cupertino, California",local_government_office,ChIJk3bU9V-2j4ARVGS6HMwtVv0,NOVA Job Center,"['local_government_office', 'point_of_interest', 'establishment']","505 West Olive Avenue #550, Sunnyvale",37.3727782,-122.0383593
39,"Cupertino, California",local_government_office,ChIJJ77sri_Lj4ARlPQGu2YmbVE,County Public Health Department California Children's Services Medical Therapy Unit Chandler Tripp,"['local_government_office', 'point_of_interest', 'establishment']","780 Thornton Way, San Jose",37.31321359999999,-121.9383339
40,"Cupertino, California",local_government_office,ChIJ3fKfxDM1joARl77GPuzoFXI,U.S. Social Security Administration,"['local_government_office', 'point_of_interest', 'establishment']","770 West Hamilton Avenue, Campbell",37.2936584,-121.9627471
41,"Cupertino, California",local_government_office,ChIJ7f3Xc_W2j4ARltu5wl2WS6U,Promatch,"['local_government_office', 'point_of_interest', 'establishment']","505 West Olive Avenue #737, Sunnyvale",37.372426,-122.038928
42,"Cupertino, California",local_government_office,ChIJTfdf-6zLj4ARAlch23HyUMQ,Santa Clara County Courthouse,"['courthouse', 'local_government_office', 'point_of_interest', 'establishment']","1095 Homestead Road, Santa Clara",37.3487998,-121.9452168
43,"Cupertino, California",local_government_office,ChIJKX2XuyY1joARLuNWx-BMVBw,Campbell Adult Center,"['local_government_office', 'point_of_interest', 'establishment']","1 West Campbell Avenue # C33, Campbell",37.2877729,-121.952066
44,"Cupertino, California",local_government_office,ChIJx84lwU20j4ARbc4oNQ-OOMc,Cupertino Teen Center,"['local_government_office', 'point_of_interest', 'establishment']","21111 Stevens Creek Boulevard, Cupertino",37.3234109,-122.0431597
45,"Cupertino, California",local_government_office,ChIJUyysaknKj4AR3vkK72VrFYY,Silicon Valley Power,"['local_government_office', 'point_of_interest', 'establishment']","1500 Warburton Avenue, Santa Clara",37.3551373,-121.954875
46,"Cupertino, California",local_government_office,ChIJUyysaknKj4AR5AOjIDTIwbA,Santa Clara Finance Department,"['accounting', 'local_government_office', 'finance', 'point_of_interest', 'establishment']","1500 Warburton Avenue, Santa Clara",37.3551373,-121.954875
47,"Cupertino, California",local_government_office,ChIJcXjmdE60j4ARWawQZs_9LVo,Cupertino City Public Info,"['local_government_office', 'point_of_interest', 'establishment']","10300 Torre Avenue, Cupertino",37.3184258,-122.0283667
48,"Cupertino, California",local_government_office,ChIJUyysaknKj4ARtk9f8TxAsUA,Santa Clara Human Resources,"['local_government_office', 'point_of_interest', 'establishment']","1500 Warburton Avenue, Santa Clara",37.3550257,-121.955221
49,"Cupertino, California",local_government_office,ChIJUyysaknKj4ARGDaRh6KsFdg,Santa Clara Business Licenses,"['local_government_office', 'point_of_interest', 'establishment']","1500 Warburton Avenue, Santa Clara",37.3551373,-121.954875
50,"Cupertino, California",local_government_office,ChIJzz1faq-1j4ARJOdAylsPc2Y,Cupertino Environmental Services,"['local_government_office', 'general_contractor', 'point_of_interest', 'establishment']","10300 Torre Avenue, Cupertino",37.3184258,-122.0283667
51,"Cupertino, California",local_government_office,ChIJScWuUvW2j4ARCoMEbWINTns,Sunnyvale City Council,"['local_government_office', 'point_of_interest', 'establishment']","456 West Olive Avenue, Sunnyvale",37.371044,-122.0374624
52,"Cupertino, California",local_government_office,ChIJayy7he62j4ARJOaxTO3JaHc,Sunnyvale Auto Registration,"['local_government_office', 'point_of_interest', 'establishment']","620 Grape Avenue #103, Sunnyvale",37.371973,-122.0525939
53,"Cupertino, California",local_government_office,ChIJDRgD-xe3j4AR6mV7Q807Lsg,Public Services Department,"['local_government_office', 'point_of_interest', 'establishment']","231 North Whisman Road, Mountain View",37.3940063,-122.0603515
54,"Cupertino, California",local_government_office,ChIJZ1l_-ai1j4AR19CxfY4i5k4,Cupertino City Compost Program,"['local_government_office', 'point_of_interest', 'establishment']","10300 Torre Avenue, Cupertino",37.3187455,-122.0286015
55,"Cupertino, California",local_government_office,ChIJY64uQEy0j4ARkvzYmnwhHAA,Cupertino Recreation & Community Services,"['local_government_office', 'point_of_interest', 'establishment']","10185 North Stelling Road, Cupertino",37.3258153,-122.042527
56,"Cupertino, California",local_government_office,ChIJZ1l_-ai1j4ARLoriz33h41o,Cupertino City Manager,"['local_government_office', 'point_of_interest', 'establishment']","10300 Torre Avenue, Cupertino",37.3184258,-122.0283667
57,"Cupertino, California",local_government_office,ChIJcXjmdE60j4AR1Lp1zi7xxA8,Cupertino Building Permits & Codes,"['local_government_office', 'point_of_interest', 'establishment']","10300 Torre Avenue, Cupertino",37.3184258,-122.0283667
58,"Cupertino, California",local_government_office,ChIJk3bU9V-2j4ARVGS6HMwtVv0,NOVA Job Center,"['local_government_office', 'point_of_interest', 'establishment']","505 West Olive Avenue #550, Sunnyvale",37.3727782,-122.0383593
59,"Cupertino, California",local_government_office,ChIJJ77sri_Lj4ARlPQGu2YmbVE,County Public Health Department California Children's Services Medical Therapy Unit Chandler Tripp,"['local_government_office', 'point_of_interest', 'establishment']","780 Thornton Way, San Jose",37.31321359999999,-121.9383339
0,"Santa Clara, California",local_government_office,ChIJ3fKfxDM1joARl77GPuzoFXI,U.S. Social Security Administration,"['local_government_office', 'point_of_interest', 'establishment']","770 West Hamilton Avenue, Campbell",37.2936584,-121.9627471
1,"Santa Clara, California",local_government_office,ChIJ50eMun_Lj4AR4Ky5M_N70v4,Santa Clara Tax Collector,"['accounting', 'local_government_office', 'finance', 'point_of_interest', 'establishment']","70 West Hedding Street, San Jose",37.35266439999999,-121.9037419
2,"Santa Clara, California",local_government_office,ChIJ2UdRm3TMj4ARqs95Yc3fR9g,Santa Clara County Department of Environmental Health,"['local_government_office', 'point_of_interest', 'establishment']","1555 Berger Drive, San Jose",37.3747139,-121.8960566
3,"Santa Clara, California",local_government_office,ChIJ50eMun_Lj4ARBEhtTA8Oxb4,Santa Clara Employee Services Agncy,"['local_government_office', 'point_of_interest', 'establishment']","70 West Hedding Street, San Jose",37.35266439999999,-121.9037419
4,"Santa Clara, California",local_government_office,ChIJRZRPLX_Lj4AROeMv1zxpWJ0,Santa Clara Hall of Justice,"['courthouse', 'local_government_office', 'point_of_interest', 'establishment']","190 West Hedding Street, San Jose",37.3510323,-121.9072548
5,"Santa Clara, California",local_government_office,ChIJB5m8NbzMj4ARda0CS7iPAw8,San Jose Flood Zone Maps,"['local_government_office', 'point_of_interest', 'establishment']","200 East Santa Clara Street, San Jose",37.3380898,-121.8854168
6,"Santa Clara, California",local_government_office,ChIJ50eMun_Lj4AR1-XaOr_0F24,Santa Clara Building Inspctn,"['local_government_office', 'point_of_interest', 'establishment']","70 West Hedding Street, San Jose",37.35266439999999,-121.9037419
7,"Santa Clara, California",local_government_office,ChIJTfdf-6zLj4ARAlch23HyUMQ,Santa Clara County Courthouse,"['courthouse', 'local_government_office', 'point_of_interest', 'establishment']","1095 Homestead Road, Santa Clara",37.3487998,-121.9452168
8,"Santa Clara, California",local_government_office,ChIJB5m8NbzMj4ARfW96ZgFbIEs,San Jose Housing Department,"['local_government_office', 'point_of_interest', 'establishment']","200 East Santa Clara Street, San Jose",37.33809369999999,-121.8853892
9,"Santa Clara, California",local_government_office,ChIJ50eMun_Lj4ARgphkN0il6TA,Santa Clara County Employee Services,"['local_government_office', 'point_of_interest', 'establishment']","70 West Hedding Street, San Jose",37.35266439999999,-121.9037419
10,"Santa Clara, California",local_government_office,ChIJB5m8NbzMj4ARPMLaPnFTSrc,San Jose Accounts Receivable,"['local_government_office', 'point_of_interest', 'establishment']","200 East Santa Clara Street, San Jose",37.33809369999999,-121.8853892
11,"Santa Clara, California",local_government_office,ChIJKX2XuyY1joARLuNWx-BMVBw,Campbell Adult Center,"['local_government_office', 'point_of_interest', 'establishment']","1 West Campbell Avenue # C33, Campbell",37.2877729,-121.952066
12,"Santa Clara, California",local_government_office,ChIJU6FNXOW6j4AR9AcIdZmk6Yc,Santa Clara County District Attorney,"['lawyer', 'local_government_office', 'point_of_interest', 'establishment']","West Wing, 70 West Hedding Street, San Jose",37.352297,-121.904665
13,"Santa Clara, California",local_government_office,ChIJB5m8NbzMj4ARMfq1h32zcLM,San Jose Commercial Recycling,"['local_government_office', 'point_of_interest', 'establishment']","200 East Santa Clara Street, San Jose",37.33809369999999,-121.8853892
14,"Santa Clara, California",local_government_office,ChIJB5m8NbzMj4ARC4oGjfkJ-t8,City of San Jose Human Resources Department,"['local_government_office', 'point_of_interest', 'establishment']","200 East Santa Clara Street, San Jose",37.3377099,-121.8859977
15,"Santa Clara, California",local_government_office,ChIJ50eMun_Lj4ARRYn6sg--PCU,Santa Clara Clerk-Recorder's Office,"['local_government_office', 'point_of_interest', 'establishment']","1, 70 West Hedding Street, San Jose",37.35234060000001,-121.9039277
16,"Santa Clara, California",local_government_office,ChIJ7f3Xc_W2j4ARltu5wl2WS6U,Promatch,"['local_government_office', 'point_of_interest', 'establishment']","505 West Olive Avenue #737, Sunnyvale",37.372426,-122.038928
17,"Santa Clara, California",local_government_office,ChIJBagTsb3Mj4AR3ZWhU69L_sY,City of San Jose Bureau of Fire Prevention,"['local_government_office', 'point_of_interest', 'establishment']","200 East Santa Clara Street, San Jose",37.3382788,-121.8856297
18,"Santa Clara, California",local_government_office,ChIJJ0M_-ZLLj4ARKCiCfG2f-eg,Peninsula Visa,"['local_government_office', 'point_of_interest', 'establishment']","100 Century Center Court #100, San Jose",37.367423,-121.916165
19,"Santa Clara, California",local_government_office,ChIJ8etgxQzJj4ARz2n6nLVql3A,Santa Clara Valley Transportation Authority,"['local_government_office', 'point_of_interest', 'establishment']","3331 North 1st Street bldg b, San Jose",37.3997964,-121.9393629
20,"Santa Clara, California",local_government_office,ChIJ3fKfxDM1joARl77GPuzoFXI,U.S. Social Security Administration,"['local_government_office', 'point_of_interest', 'establishment']","770 West Hamilton Avenue, Campbell",37.2936584,-121.9627471
21,"Santa Clara, California",local_government_office,ChIJ50eMun_Lj4AR4Ky5M_N70v4,Santa Clara Tax Collector,"['accounting', 'local_government_office', 'finance', 'point_of_interest', 'establishment']","70 West Hedding Street, San Jose",37.35266439999999,-121.9037419
22,"Santa Clara, California",local_government_office,ChIJ2UdRm3TMj4ARqs95Yc3fR9g,Santa Clara County Department of Environmental Health,"['local_government_office', 'point_of_interest', 'establishment']","1555 Berger Drive, San Jose",37.3747139,-121.8960566
23,"Santa Clara, California",local_government_office,ChIJ50eMun_Lj4ARBEhtTA8Oxb4,Santa Clara Employee Services Agncy,"['local_government_office', 'point_of_interest', 'establishment']","70 West Hedding Street, San Jose",37.35266439999999,-121.9037419
24,"Santa Clara, California",local_government_office,ChIJRZRPLX_Lj4AROeMv1zxpWJ0,Santa Clara Hall of Justice,"['courthouse', 'local_government_office', 'point_of_interest', 'establishment']","190 West Hedding Street, San Jose",37.3510323,-121.9072548
25,"Santa Clara, California",local_government_office,ChIJB5m8NbzMj4ARda0CS7iPAw8,San Jose Flood Zone Maps,"['local_government_office', 'point_of_interest', 'establishment']","200 East Santa Clara Street, San Jose",37.3380898,-121.8854168
26,"Santa Clara, California",local_government_office,ChIJ50eMun_Lj4AR1-XaOr_0F24,Santa Clara Building Inspctn,"['local_government_office', 'point_of_interest', 'establishment']","70 West Hedding Street, San Jose",37.35266439999999,-121.9037419
27,"Santa Clara, California",local_government_office,ChIJTfdf-6zLj4ARAlch23HyUMQ,Santa Clara County Courthouse,"['courthouse', 'local_government_office', 'point_of_interest', 'establishment']","1095 Homestead Road, Santa Clara",37.3487998,-121.9452168
28,"Santa Clara, California",local_government_office,ChIJB5m8NbzMj4ARfW96ZgFbIEs,San Jose Housing Department,"['local_government_office', 'point_of_interest', 'establishment']","200 East Santa Clara Street, San Jose",37.33809369999999,-121.8853892
29,"Santa Clara, California",local_government_office,ChIJ50eMun_Lj4ARgphkN0il6TA,Santa Clara County Employee Services,"['local_government_office', 'point_of_interest', 'establishment']","70 West Hedding Street, San Jose",37.35266439999999,-121.9037419
30,"Santa Clara, California",local_government_office,ChIJB5m8NbzMj4ARPMLaPnFTSrc,San Jose Accounts Receivable,"['local_government_office', 'point_of_interest', 'establishment']","200 East Santa Clara Street, San Jose",37.33809369999999,-121.8853892
31,"Santa Clara, California",local_government_office,ChIJKX2XuyY1joARLuNWx-BMVBw,Campbell Adult Center,"['local_government_office', 'point_of_interest', 'establishment']","1 West Campbell Avenue # C33, Campbell",37.2877729,-121.952066
32,"Santa Clara, California",local_government_office,ChIJU6FNXOW6j4AR9AcIdZmk6Yc,Santa Clara County District Attorney,"['lawyer', 'local_government_office', 'point_of_interest', 'establishment']","West Wing, 70 West Hedding Street, San Jose",37.352297,-121.904665
33,"Santa Clara, California",local_government_office,ChIJB5m8NbzMj4ARMfq1h32zcLM,San Jose Commercial Recycling,"['local_government_office', 'point_of_interest', 'establishment']","200 East Santa Clara Street, San Jose",37.33809369999999,-121.8853892
34,"Santa Clara, California",local_government_office,ChIJB5m8NbzMj4ARC4oGjfkJ-t8,City of San Jose Human Resources Department,"['local_government_office', 'point_of_interest', 'establishment']","200 East Santa Clara Street, San Jose",37.3377099,-121.8859977
35,"Santa Clara, California",local_government_office,ChIJ50eMun_Lj4ARRYn6sg--PCU,Santa Clara Clerk-Recorder's Office,"['local_government_office', 'point_of_interest', 'establishment']","1, 70 West Hedding Street, San Jose",37.35234060000001,-121.9039277
36,"Santa Clara, California",local_government_office,ChIJ7f3Xc_W2j4ARltu5wl2WS6U,Promatch,"['local_government_office', 'point_of_interest', 'establishment']","505 West Olive Avenue #737, Sunnyvale",37.372426,-122.038928
37,"Santa Clara, California",local_government_office,ChIJBagTsb3Mj4AR3ZWhU69L_sY,City of San Jose Bureau of Fire Prevention,"['local_government_office', 'point_of_interest', 'establishment']","200 East Santa Clara Street, San Jose",37.3382788,-121.8856297
38,"Santa Clara, California",local_government_office,ChIJJ0M_-ZLLj4ARKCiCfG2f-eg,Peninsula Visa,"['local_government_office', 'point_of_interest', 'establishment']","100 Century Center Court #100, San Jose",37.367423,-121.916165
39,"Santa Clara, California",local_government_office,ChIJ8etgxQzJj4ARz2n6nLVql3A,Santa Clara Valley Transportation Authority,"['local_government_office', 'point_of_interest', 'establishment']","3331 North 1st Street bldg b, San Jose",37.3997964,-121.9393629
40,"Santa Clara, California",local_government_office,ChIJ3fKfxDM1joARl77GPuzoFXI,U.S. Social Security Administration,"['local_government_office', 'point_of_interest', 'establishment']","770 West Hamilton Avenue, Campbell",37.2936584,-121.9627471
41,"Santa Clara, California",local_government_office,ChIJ50eMun_Lj4AR4Ky5M_N70v4,Santa Clara Tax Collector,"['accounting', 'local_government_office', 'finance', 'point_of_interest', 'establishment']","70 West Hedding Street, San Jose",37.35266439999999,-121.9037419
42,"Santa Clara, California",local_government_office,ChIJ2UdRm3TMj4ARqs95Yc3fR9g,Santa Clara County Department of Environmental Health,"['local_government_office', 'point_of_interest', 'establishment']","1555 Berger Drive, San Jose",37.3747139,-121.8960566
43,"Santa Clara, California",local_government_office,ChIJ50eMun_Lj4ARBEhtTA8Oxb4,Santa Clara Employee Services Agncy,"['local_government_office', 'point_of_interest', 'establishment']","70 West Hedding Street, San Jose",37.35266439999999,-121.9037419
44,"Santa Clara, California",local_government_office,ChIJRZRPLX_Lj4AROeMv1zxpWJ0,Santa Clara Hall of Justice,"['courthouse', 'local_government_office', 'point_of_interest', 'establishment']","190 West Hedding Street, San Jose",37.3510323,-121.9072548
45,"Santa Clara, California",local_government_office,ChIJB5m8NbzMj4ARda0CS7iPAw8,San Jose Flood Zone Maps,"['local_government_office', 'point_of_interest', 'establishment']","200 East Santa Clara Street, San Jose",37.3380898,-121.8854168
46,"Santa Clara, California",local_government_office,ChIJ50eMun_Lj4AR1-XaOr_0F24,Santa Clara Building Inspctn,"['local_government_office', 'point_of_interest', 'establishment']","70 West Hedding Street, San Jose",37.35266439999999,-121.9037419
47,"Santa Clara, California",local_government_office,ChIJTfdf-6zLj4ARAlch23HyUMQ,Santa Clara County Courthouse,"['courthouse', 'local_government_office', 'point_of_interest', 'establishment']","1095 Homestead Road, Santa Clara",37.3487998,-121.9452168
48,"Santa Clara, California",local_government_office,ChIJB5m8NbzMj4ARfW96ZgFbIEs,San Jose Housing Department,"['local_government_office', 'point_of_interest', 'establishment']","200 East Santa Clara Street, San Jose",37.33809369999999,-121.8853892
49,"Santa Clara, California",local_government_office,ChIJ50eMun_Lj4ARgphkN0il6TA,Santa Clara County Employee Services,"['local_government_office', 'point_of_interest', 'establishment']","70 West Hedding Street, San Jose",37.35266439999999,-121.9037419
50,"Santa Clara, California",local_government_office,ChIJB5m8NbzMj4ARPMLaPnFTSrc,San Jose Accounts Receivable,"['local_government_office', 'point_of_interest', 'establishment']","200 East Santa Clara Street, San Jose",37.33809369999999,-121.8853892
51,"Santa Clara, California",local_government_office,ChIJKX2XuyY1joARLuNWx-BMVBw,Campbell Adult Center,"['local_government_office', 'point_of_interest', 'establishment']","1 West Campbell Avenue # C33, Campbell",37.2877729,-121.952066
52,"Santa Clara, California",local_government_office,ChIJU6FNXOW6j4AR9AcIdZmk6Yc,Santa Clara County District Attorney,"['lawyer', 'local_government_office', 'point_of_interest', 'establishment']","West Wing, 70 West Hedding Street, San Jose",37.352297,-121.904665
53,"Santa Clara, California",local_government_office,ChIJB5m8NbzMj4ARMfq1h32zcLM,San Jose Commercial Recycling,"['local_government_office', 'point_of_interest', 'establishment']","200 East Santa Clara Street, San Jose",37.33809369999999,-121.8853892
54,"Santa Clara, California",local_government_office,ChIJB5m8NbzMj4ARC4oGjfkJ-t8,City of San Jose Human Resources Department,"['local_government_office', 'point_of_interest', 'establishment']","200 East Santa Clara Street, San Jose",37.3377099,-121.8859977
55,"Santa Clara, California",local_government_office,ChIJ50eMun_Lj4ARRYn6sg--PCU,Santa Clara Clerk-Recorder's Office,"['local_government_office', 'point_of_interest', 'establishment']","1, 70 West Hedding Street, San Jose",37.35234060000001,-121.9039277
56,"Santa Clara, California",local_government_office,ChIJ7f3Xc_W2j4ARltu5wl2WS6U,Promatch,"['local_government_office', 'point_of_interest', 'establishment']","505 West Olive Avenue #737, Sunnyvale",37.372426,-122.038928
57,"Santa Clara, California",local_government_office,ChIJBagTsb3Mj4AR3ZWhU69L_sY,City of San Jose Bureau of Fire Prevention,"['local_government_office', 'point_of_interest', 'establishment']","200 East Santa Clara Street, San Jose",37.3382788,-121.8856297
58,"Santa Clara, California",local_government_office,ChIJJ0M_-ZLLj4ARKCiCfG2f-eg,Peninsula Visa,"['local_government_office', 'point_of_interest', 'establishment']","100 Century Center Court #100, San Jose",37.367423,-121.916165
59,"Santa Clara, California",local_government_office,ChIJ8etgxQzJj4ARz2n6nLVql3A,Santa Clara Valley Transportation Authority,"['local_government_office', 'point_of_interest', 'establishment']","3331 North 1st Street bldg b, San Jose",37.3997964,-121.9393629
0,"San Jose, California",local_government_office,ChIJ50eMun_Lj4AR4Ky5M_N70v4,Santa Clara Tax Collector,"['accounting', 'local_government_office', 'finance', 'point_of_interest', 'establishment']","70 West Hedding Street, San Jose",37.35266439999999,-121.9037419
1,"San Jose, California",local_government_office,ChIJ3fKfxDM1joARl77GPuzoFXI,U.S. Social Security Administration,"['local_government_office', 'point_of_interest', 'establishment']","770 West Hamilton Avenue, Campbell",37.2936584,-121.9627471
2,"San Jose, California",local_government_office,ChIJ2UdRm3TMj4ARqs95Yc3fR9g,Santa Clara County Department of Environmental Health,"['local_government_office', 'point_of_interest', 'establishment']","1555 Berger Drive, San Jose",37.3747139,-121.8960566
3,"San Jose, California",local_government_office,ChIJ50eMun_Lj4ARBEhtTA8Oxb4,Santa Clara Employee Services Agncy,"['local_government_office', 'point_of_interest', 'establishment']","70 West Hedding Street, San Jose",37.35266439999999,-121.9037419
4,"San Jose, California",local_government_office,ChIJRZRPLX_Lj4AROeMv1zxpWJ0,Santa Clara Hall of Justice,"['courthouse', 'local_government_office', 'point_of_interest', 'establishment']","190 West Hedding Street, San Jose",37.3510323,-121.9072548
5,"San Jose, California",local_government_office,ChIJB5m8NbzMj4ARda0CS7iPAw8,San Jose Flood Zone Maps,"['local_government_office', 'point_of_interest', 'establishment']","200 East Santa Clara Street, San Jose",37.3380898,-121.8854168
6,"San Jose, California",local_government_office,ChIJnS9NJHQtjoARvpf--QIWl0s,Social Security Administration Office,"['local_government_office', 'point_of_interest', 'establishment']","2500 Fontaine Road, San Jose",37.317521,-121.8289307
7,"San Jose, California",local_government_office,ChIJ50eMun_Lj4AR1-XaOr_0F24,Santa Clara Building Inspctn,"['local_government_office', 'point_of_interest', 'establishment']","70 West Hedding Street, San Jose",37.35266439999999,-121.9037419
8,"San Jose, California",local_government_office,ChIJB5m8NbzMj4ARfW96ZgFbIEs,San Jose Housing Department,"['local_government_office', 'point_of_interest', 'establishment']","200 East Santa Clara Street, San Jose",37.33809369999999,-121.8853892
9,"San Jose, California",local_government_office,ChIJTfdf-6zLj4ARAlch23HyUMQ,Santa Clara County Courthouse,"['courthouse', 'local_government_office', 'point_of_interest', 'establishment']","1095 Homestead Road, Santa Clara",37.3487998,-121.9452168
10,"San Jose, California",local_government_office,ChIJ50eMun_Lj4ARgphkN0il6TA,Santa Clara County Employee Services,"['local_government_office', 'point_of_interest', 'establishment']","70 West Hedding Street, San Jose",37.35266439999999,-121.9037419
11,"San Jose, California",local_government_office,ChIJB5m8NbzMj4ARPMLaPnFTSrc,San Jose Accounts Receivable,"['local_government_office', 'point_of_interest', 'establishment']","200 East Santa Clara Street, San Jose",37.33809369999999,-121.8853892
12,"San Jose, California",local_government_office,ChIJB5m8NbzMj4ARMfq1h32zcLM,San Jose Commercial Recycling,"['local_government_office', 'point_of_interest', 'establishment']","200 East Santa Clara Street, San Jose",37.33809369999999,-121.8853892
13,"San Jose, California",local_government_office,ChIJU6FNXOW6j4AR9AcIdZmk6Yc,Santa Clara County District Attorney,"['lawyer', 'local_government_office', 'point_of_interest', 'establishment']","West Wing, 70 West Hedding Street, San Jose",37.352297,-121.904665
14,"San Jose, California",local_government_office,ChIJB5m8NbzMj4ARC4oGjfkJ-t8,City of San Jose Human Resources Department,"['local_government_office', 'point_of_interest', 'establishment']","200 East Santa Clara Street, San Jose",37.3377099,-121.8859977
15,"San Jose, California",local_government_office,ChIJBagTsb3Mj4AR3ZWhU69L_sY,City of San Jose Bureau of Fire Prevention,"['local_government_office', 'point_of_interest', 'establishment']","200 East Santa Clara Street, San Jose",37.3382788,-121.8856297
16,"San Jose, California",local_government_office,ChIJ50eMun_Lj4ARRYn6sg--PCU,Santa Clara Clerk-Recorder's Office,"['local_government_office', 'point_of_interest', 'establishment']","1, 70 West Hedding Street, San Jose",37.35234060000001,-121.9039277
17,"San Jose, California",local_government_office,ChIJKX2XuyY1joARLuNWx-BMVBw,Campbell Adult Center,"['local_government_office', 'point_of_interest', 'establishment']","1 West Campbell Avenue # C33, Campbell",37.2877729,-121.952066
18,"San Jose, California",local_government_office,ChIJJ0M_-ZLLj4ARKCiCfG2f-eg,Peninsula Visa,"['local_government_office', 'point_of_interest', 'establishment']","100 Century Center Court #100, San Jose",37.367423,-121.916165
19,"San Jose, California",local_government_office,ChIJUyysaknKj4AR3vkK72VrFYY,Silicon Valley Power,"['local_government_office', 'point_of_interest', 'establishment']","1500 Warburton Avenue, Santa Clara",37.3551373,-121.954875
20,"San Jose, California",local_government_office,ChIJ50eMun_Lj4AR4Ky5M_N70v4,Santa Clara Tax Collector,"['accounting', 'local_government_office', 'finance', 'point_of_interest', 'establishment']","70 West Hedding Street, San Jose",37.35266439999999,-121.9037419
21,"San Jose, California",local_government_office,ChIJ3fKfxDM1joARl77GPuzoFXI,U.S. Social Security Administration,"['local_government_office', 'point_of_interest', 'establishment']","770 West Hamilton Avenue, Campbell",37.2936584,-121.9627471
22,"San Jose, California",local_government_office,ChIJ2UdRm3TMj4ARqs95Yc3fR9g,Santa Clara County Department of Environmental Health,"['local_government_office', 'point_of_interest', 'establishment']","1555 Berger Drive, San Jose",37.3747139,-121.8960566
23,"San Jose, California",local_government_office,ChIJ50eMun_Lj4ARBEhtTA8Oxb4,Santa Clara Employee Services Agncy,"['local_government_office', 'point_of_interest', 'establishment']","70 West Hedding Street, San Jose",37.35266439999999,-121.9037419
24,"San Jose, California",local_government_office,ChIJRZRPLX_Lj4AROeMv1zxpWJ0,Santa Clara Hall of Justice,"['courthouse', 'local_government_office', 'point_of_interest', 'establishment']","190 West Hedding Street, San Jose",37.3510323,-121.9072548
25,"San Jose, California",local_government_office,ChIJB5m8NbzMj4ARda0CS7iPAw8,San Jose Flood Zone Maps,"['local_government_office', 'point_of_interest', 'establishment']","200 East Santa Clara Street, San Jose",37.3380898,-121.8854168
26,"San Jose, California",local_government_office,ChIJnS9NJHQtjoARvpf--QIWl0s,Social Security Administration Office,"['local_government_office', 'point_of_interest', 'establishment']","2500 Fontaine Road, San Jose",37.317521,-121.8289307
27,"San Jose, California",local_government_office,ChIJ50eMun_Lj4AR1-XaOr_0F24,Santa Clara Building Inspctn,"['local_government_office', 'point_of_interest', 'establishment']","70 West Hedding Street, San Jose",37.35266439999999,-121.9037419
28,"San Jose, California",local_government_office,ChIJB5m8NbzMj4ARfW96ZgFbIEs,San Jose Housing Department,"['local_government_office', 'point_of_interest', 'establishment']","200 East Santa Clara Street, San Jose",37.33809369999999,-121.8853892
29,"San Jose, California",local_government_office,ChIJTfdf-6zLj4ARAlch23HyUMQ,Santa Clara County Courthouse,"['courthouse', 'local_government_office', 'point_of_interest', 'establishment']","1095 Homestead Road, Santa Clara",37.3487998,-121.9452168
30,"San Jose, California",local_government_office,ChIJ50eMun_Lj4ARgphkN0il6TA,Santa Clara County Employee Services,"['local_government_office', 'point_of_interest', 'establishment']","70 West Hedding Street, San Jose",37.35266439999999,-121.9037419
31,"San Jose, California",local_government_office,ChIJB5m8NbzMj4ARPMLaPnFTSrc,San Jose Accounts Receivable,"['local_government_office', 'point_of_interest', 'establishment']","200 East Santa Clara Street, San Jose",37.33809369999999,-121.8853892
32,"San Jose, California",local_government_office,ChIJB5m8NbzMj4ARMfq1h32zcLM,San Jose Commercial Recycling,"['local_government_office', 'point_of_interest', 'establishment']","200 East Santa Clara Street, San Jose",37.33809369999999,-121.8853892
33,"San Jose, California",local_government_office,ChIJU6FNXOW6j4AR9AcIdZmk6Yc,Santa Clara County District Attorney,"['lawyer', 'local_government_office', 'point_of_interest', 'establishment']","West Wing, 70 West Hedding Street, San Jose",37.352297,-121.904665
34,"San Jose, California",local_government_office,ChIJB5m8NbzMj4ARC4oGjfkJ-t8,City of San Jose Human Resources Department,"['local_government_office', 'point_of_interest', 'establishment']","200 East Santa Clara Street, San Jose",37.3377099,-121.8859977
35,"San Jose, California",local_government_office,ChIJBagTsb3Mj4AR3ZWhU69L_sY,City of San Jose Bureau of Fire Prevention,"['local_government_office', 'point_of_interest', 'establishment']","200 East Santa Clara Street, San Jose",37.3382788,-121.8856297
36,"San Jose, California",local_government_office,ChIJ50eMun_Lj4ARRYn6sg--PCU,Santa Clara Clerk-Recorder's Office,"['local_government_office', 'point_of_interest', 'establishment']","1, 70 West Hedding Street, San Jose",37.35234060000001,-121.9039277
37,"San Jose, California",local_government_office,ChIJKX2XuyY1joARLuNWx-BMVBw,Campbell Adult Center,"['local_government_office', 'point_of_interest', 'establishment']","1 West Campbell Avenue # C33, Campbell",37.2877729,-121.952066
38,"San Jose, California",local_government_office,ChIJJ0M_-ZLLj4ARKCiCfG2f-eg,Peninsula Visa,"['local_government_office', 'point_of_interest', 'establishment']","100 Century Center Court #100, San Jose",37.367423,-121.916165
39,"San Jose, California",local_government_office,ChIJUyysaknKj4AR3vkK72VrFYY,Silicon Valley Power,"['local_government_office', 'point_of_interest', 'establishment']","1500 Warburton Avenue, Santa Clara",37.3551373,-121.954875
40,"San Jose, California",local_government_office,ChIJ50eMun_Lj4AR4Ky5M_N70v4,Santa Clara Tax Collector,"['accounting', 'local_government_office', 'finance', 'point_of_interest', 'establishment']","70 West Hedding Street, San Jose",37.35266439999999,-121.9037419
41,"San Jose, California",local_government_office,ChIJ3fKfxDM1joARl77GPuzoFXI,U.S. Social Security Administration,"['local_government_office', 'point_of_interest', 'establishment']","770 West Hamilton Avenue, Campbell",37.2936584,-121.9627471
42,"San Jose, California",local_government_office,ChIJ2UdRm3TMj4ARqs95Yc3fR9g,Santa Clara County Department of Environmental Health,"['local_government_office', 'point_of_interest', 'establishment']","1555 Berger Drive, San Jose",37.3747139,-121.8960566
43,"San Jose, California",local_government_office,ChIJ50eMun_Lj4ARBEhtTA8Oxb4,Santa Clara Employee Services Agncy,"['local_government_office', 'point_of_interest', 'establishment']","70 West Hedding Street, San Jose",37.35266439999999,-121.9037419
44,"San Jose, California",local_government_office,ChIJRZRPLX_Lj4AROeMv1zxpWJ0,Santa Clara Hall of Justice,"['courthouse', 'local_government_office', 'point_of_interest', 'establishment']","190 West Hedding Street, San Jose",37.3510323,-121.9072548
45,"San Jose, California",local_government_office,ChIJB5m8NbzMj4ARda0CS7iPAw8,San Jose Flood Zone Maps,"['local_government_office', 'point_of_interest', 'establishment']","200 East Santa Clara Street, San Jose",37.3380898,-121.8854168
46,"San Jose, California",local_government_office,ChIJnS9NJHQtjoARvpf--QIWl0s,Social Security Administration Office,"['local_government_office', 'point_of_interest', 'establishment']","2500 Fontaine Road, San Jose",37.317521,-121.8289307
47,"San Jose, California",local_government_office,ChIJ50eMun_Lj4AR1-XaOr_0F24,Santa Clara Building Inspctn,"['local_government_office', 'point_of_interest', 'establishment']","70 West Hedding Street, San Jose",37.35266439999999,-121.9037419
48,"San Jose, California",local_government_office,ChIJB5m8NbzMj4ARfW96ZgFbIEs,San Jose Housing Department,"['local_government_office', 'point_of_interest', 'establishment']","200 East Santa Clara Street, San Jose",37.33809369999999,-121.8853892
49,"San Jose, California",local_government_office,ChIJTfdf-6zLj4ARAlch23HyUMQ,Santa Clara County Courthouse,"['courthouse', 'local_government_office', 'point_of_interest', 'establishment']","1095 Homestead Road, Santa Clara",37.3487998,-121.9452168
50,"San Jose, California",local_government_office,ChIJ50eMun_Lj4ARgphkN0il6TA,Santa Clara County Employee Services,"['local_government_office', 'point_of_interest', 'establishment']","70 West Hedding Street, San Jose",37.35266439999999,-121.9037419
51,"San Jose, California",local_government_office,ChIJB5m8NbzMj4ARPMLaPnFTSrc,San Jose Accounts Receivable,"['local_government_office', 'point_of_interest', 'establishment']","200 East Santa Clara Street, San Jose",37.33809369999999,-121.8853892
52,"San Jose, California",local_government_office,ChIJB5m8NbzMj4ARMfq1h32zcLM,San Jose Commercial Recycling,"['local_government_office', 'point_of_interest', 'establishment']","200 East Santa Clara Street, San Jose",37.33809369999999,-121.8853892
53,"San Jose, California",local_government_office,ChIJU6FNXOW6j4AR9AcIdZmk6Yc,Santa Clara County District Attorney,"['lawyer', 'local_government_office', 'point_of_interest', 'establishment']","West Wing, 70 West Hedding Street, San Jose",37.352297,-121.904665
54,"San Jose, California",local_government_office,ChIJB5m8NbzMj4ARC4oGjfkJ-t8,City of San Jose Human Resources Department,"['local_government_office', 'point_of_interest', 'establishment']","200 East Santa Clara Street, San Jose",37.3377099,-121.8859977
55,"San Jose, California",local_government_office,ChIJBagTsb3Mj4AR3ZWhU69L_sY,City of San Jose Bureau of Fire Prevention,"['local_government_office', 'point_of_interest', 'establishment']","200 East Santa Clara Street, San Jose",37.3382788,-121.8856297
56,"San Jose, California",local_government_office,ChIJ50eMun_Lj4ARRYn6sg--PCU,Santa Clara Clerk-Recorder's Office,"['local_government_office', 'point_of_interest', 'establishment']","1, 70 West Hedding Street, San Jose",37.35234060000001,-121.9039277
57,"San Jose, California",local_government_office,ChIJKX2XuyY1joARLuNWx-BMVBw,Campbell Adult Center,"['local_government_office', 'point_of_interest', 'establishment']","1 West Campbell Avenue # C33, Campbell",37.2877729,-121.952066
58,"San Jose, California",local_government_office,ChIJJ0M_-ZLLj4ARKCiCfG2f-eg,Peninsula Visa,"['local_government_office', 'point_of_interest', 'establishment']","100 Century Center Court #100, San Jose",37.367423,-121.916165
59,"San Jose, California",local_government_office,ChIJUyysaknKj4AR3vkK72VrFYY,Silicon Valley Power,"['local_government_office', 'point_of_interest', 'establishment']","1500 Warburton Avenue, Santa Clara",37.3551373,-121.954875
0,"Fremont, California",local_government_office,ChIJh2DqLXa_j4ARI3naWrdSXSo,California Department of Motor Vehicles,"['local_government_office', 'point_of_interest', 'establishment']","4287 Central Avenue, Fremont",37.5533249,-122.007181
1,"Fremont, California",local_government_office,ChIJqwGRyJrAj4ARktbQKZur_MU,Alameda County Veterans Services,"['local_government_office', 'point_of_interest', 'establishment']","39155 Liberty Street, Fremont",37.5507481,-121.9833012
2,"Fremont, California",local_government_office,ChIJqwGRyJrAj4ARhiogel9qrqo,Senator Ellen Corbett,"['local_government_office', 'point_of_interest', 'establishment']","39155 Liberty Street # F600, Fremont",37.5507843,-121.9832835
3,"Fremont, California",local_government_office,ChIJmWeYUYXAj4ARXf_21u8nl2c,Fremont Economic Development,"['local_government_office', 'point_of_interest', 'establishment']","3300 Capitol Avenue, Fremont",37.5525,-121.9820538
4,"Fremont, California",local_government_office,ChIJmWeYUYXAj4ARRKEI4vHi64w,Fremont Election Information,"['local_government_office', 'point_of_interest', 'establishment']","3300 Capitol Avenue # A, Fremont",37.5523902,-121.9821589
5,"Fremont, California",local_government_office,ChIJ8yUWlJPAj4ARcCYLXYY5Yzs,Assembly Member A Torrico,"['local_government_office', 'point_of_interest', 'establishment']","39510 Paseo Padre Parkway # 220, Fremont",37.5505192,-121.9740343
6,"Fremont, California",local_government_office,ChIJiZiTr4XAj4ARDpkSHCdjCY4,US Social Security Administration,"['local_government_office', 'point_of_interest', 'establishment']","3100 Mowry Avenue, Fremont",37.55419060000001,-121.9829858
7,"Fremont, California",local_government_office,ChIJqwGRyJrAj4ARt_0yUXZbhv4,Fremont Housing,"['local_government_office', 'point_of_interest', 'establishment']","39155 Liberty Street # D440, Fremont",37.5507843,-121.9832835
8,"Fremont, California",local_government_office,ChIJfwgHWeK_j4AR0jLSMlIsDTE,Union City Planning Department,"['local_government_office', 'point_of_interest', 'establishment']","34009 Alvarado-Niles Road, Union City",37.5873028,-122.0270932
9,"Fremont, California",local_government_office,ChIJaY9jnF3Gj4AR1Q3GCUzutCs,Green Peak Insurance Solutions,"['insurance_agency', 'local_government_office', 'point_of_interest', 'establishment']","38003 Mission Boulevard, Fremont",37.5760022,-121.9716282
10,"Fremont, California",local_government_office,ChIJd6Mb-xq_j4AReJ0caPVQ8Ho,Newark Mayor,"['local_government_office', 'point_of_interest', 'establishment']","37101 Newark Boulevard, Newark",37.5354208,-122.0292733
11,"Fremont, California",local_government_office,ChIJfwgHWeK_j4ARwvnKm38j6k0,Union City Transit,"['local_government_office', 'point_of_interest', 'establishment']","34650 7th Street, Union City",37.5903004,-122.0072769
12,"Fremont, California",local_government_office,ChIJd6Mb-xq_j4ARYuLNG5fhDx0,Newark City Council,"['local_government_office', 'police', 'point_of_interest', 'establishment']","37101 Newark Boulevard, Newark",37.5353472,-122.0292061
13,"Fremont, California",local_government_office,ChIJd6Mb-xq_j4ARoaHOoZ95644,Newark Planning Department,"['local_government_office', 'point_of_interest', 'establishment']","37101 Newark Boulevard, Newark",37.5354208,-122.0292733
14,"Fremont, California",local_government_office,ChIJd6Mb-xq_j4AR_MgxHEerEIs,Newark Engineering,"['local_government_office', 'point_of_interest', 'establishment']","37101 Newark Boulevard, Newark",37.5354208,-122.0292733
15,"Fremont, California",local_government_office,ChIJd6Mb-xq_j4ARsyNsuOhS27g,Newark Human Resources Department,"['local_government_office', 'point_of_interest', 'establishment']","37101 Newark Boulevard, Newark",37.5354208,-122.0292733
16,"Fremont, California",local_government_office,ChIJd6Mb-xq_j4ARb8aT-OrsjZA,Newark City Clerk,"['local_government_office', 'point_of_interest', 'establishment']","37101 Newark Boulevard, Newark",37.5354208,-122.0292733
17,"Fremont, California",local_government_office,ChIJU--7t1nHj4AREKEWumVyFY8,Fremont Recycling & Transfer,"['local_government_office', 'point_of_interest', 'establishment']","41149 Boyce Road, Fremont",37.5088599,-121.9899727
18,"Fremont, California",local_government_office,ChIJW4_zu2KVj4AR4D8ivxiX-50,Union City City Clerk Office,"['local_government_office', 'point_of_interest', 'establishment']","34009 Alvarado-Niles Road, Union City",37.5873028,-122.0270932
19,"Fremont, California",local_government_office,ChIJW4_zu2KVj4ARvxYBTBETaEs,Union City Animal Licensing,"['local_government_office', 'point_of_interest', 'establishment']","34009 Alvarado-Niles Road, Union City",37.5872491,-122.0270388
20,"Fremont, California",local_government_office,ChIJh2DqLXa_j4ARI3naWrdSXSo,California Department of Motor Vehicles,"['local_government_office', 'point_of_interest', 'establishment']","4287 Central Avenue, Fremont",37.5533249,-122.007181
21,"Fremont, California",local_government_office,ChIJqwGRyJrAj4ARktbQKZur_MU,Alameda County Veterans Services,"['local_government_office', 'point_of_interest', 'establishment']","39155 Liberty Street, Fremont",37.5507481,-121.9833012
22,"Fremont, California",local_government_office,ChIJqwGRyJrAj4ARhiogel9qrqo,Senator Ellen Corbett,"['local_government_office', 'point_of_interest', 'establishment']","39155 Liberty Street # F600, Fremont",37.5507843,-121.9832835
23,"Fremont, California",local_government_office,ChIJmWeYUYXAj4ARXf_21u8nl2c,Fremont Economic Development,"['local_government_office', 'point_of_interest', 'establishment']","3300 Capitol Avenue, Fremont",37.5525,-121.9820538
24,"Fremont, California",local_government_office,ChIJmWeYUYXAj4ARRKEI4vHi64w,Fremont Election Information,"['local_government_office', 'point_of_interest', 'establishment']","3300 Capitol Avenue # A, Fremont",37.5523902,-121.9821589
25,"Fremont, California",local_government_office,ChIJ8yUWlJPAj4ARcCYLXYY5Yzs,Assembly Member A Torrico,"['local_government_office', 'point_of_interest', 'establishment']","39510 Paseo Padre Parkway # 220, Fremont",37.5505192,-121.9740343
26,"Fremont, California",local_government_office,ChIJiZiTr4XAj4ARDpkSHCdjCY4,US Social Security Administration,"['local_government_office', 'point_of_interest', 'establishment']","3100 Mowry Avenue, Fremont",37.55419060000001,-121.9829858
27,"Fremont, California",local_government_office,ChIJqwGRyJrAj4ARt_0yUXZbhv4,Fremont Housing,"['local_government_office', 'point_of_interest', 'establishment']","39155 Liberty Street # D440, Fremont",37.5507843,-121.9832835
28,"Fremont, California",local_government_office,ChIJfwgHWeK_j4AR0jLSMlIsDTE,Union City Planning Department,"['local_government_office', 'point_of_interest', 'establishment']","34009 Alvarado-Niles Road, Union City",37.5873028,-122.0270932
29,"Fremont, California",local_government_office,ChIJaY9jnF3Gj4AR1Q3GCUzutCs,Green Peak Insurance Solutions,"['insurance_agency', 'local_government_office', 'point_of_interest', 'establishment']","38003 Mission Boulevard, Fremont",37.5760022,-121.9716282
30,"Fremont, California",local_government_office,ChIJd6Mb-xq_j4AReJ0caPVQ8Ho,Newark Mayor,"['local_government_office', 'point_of_interest', 'establishment']","37101 Newark Boulevard, Newark",37.5354208,-122.0292733
31,"Fremont, California",local_government_office,ChIJfwgHWeK_j4ARwvnKm38j6k0,Union City Transit,"['local_government_office', 'point_of_interest', 'establishment']","34650 7th Street, Union City",37.5903004,-122.0072769
32,"Fremont, California",local_government_office,ChIJd6Mb-xq_j4ARYuLNG5fhDx0,Newark City Council,"['local_government_office', 'police', 'point_of_interest', 'establishment']","37101 Newark Boulevard, Newark",37.5353472,-122.0292061
33,"Fremont, California",local_government_office,ChIJd6Mb-xq_j4ARoaHOoZ95644,Newark Planning Department,"['local_government_office', 'point_of_interest', 'establishment']","37101 Newark Boulevard, Newark",37.5354208,-122.0292733
34,"Fremont, California",local_government_office,ChIJd6Mb-xq_j4AR_MgxHEerEIs,Newark Engineering,"['local_government_office', 'point_of_interest', 'establishment']","37101 Newark Boulevard, Newark",37.5354208,-122.0292733
35,"Fremont, California",local_government_office,ChIJd6Mb-xq_j4ARsyNsuOhS27g,Newark Human Resources Department,"['local_government_office', 'point_of_interest', 'establishment']","37101 Newark Boulevard, Newark",37.5354208,-122.0292733
36,"Fremont, California",local_government_office,ChIJd6Mb-xq_j4ARb8aT-OrsjZA,Newark City Clerk,"['local_government_office', 'point_of_interest', 'establishment']","37101 Newark Boulevard, Newark",37.5354208,-122.0292733
37,"Fremont, California",local_government_office,ChIJU--7t1nHj4AREKEWumVyFY8,Fremont Recycling & Transfer,"['local_government_office', 'point_of_interest', 'establishment']","41149 Boyce Road, Fremont",37.5088599,-121.9899727
38,"Fremont, California",local_government_office,ChIJW4_zu2KVj4AR4D8ivxiX-50,Union City City Clerk Office,"['local_government_office', 'point_of_interest', 'establishment']","34009 Alvarado-Niles Road, Union City",37.5873028,-122.0270932
39,"Fremont, California",local_government_office,ChIJW4_zu2KVj4ARvxYBTBETaEs,Union City Animal Licensing,"['local_government_office', 'point_of_interest', 'establishment']","34009 Alvarado-Niles Road, Union City",37.5872491,-122.0270388
40,"Fremont, California",local_government_office,ChIJh2DqLXa_j4ARI3naWrdSXSo,California Department of Motor Vehicles,"['local_government_office', 'point_of_interest', 'establishment']","4287 Central Avenue, Fremont",37.5533249,-122.007181
41,"Fremont, California",local_government_office,ChIJqwGRyJrAj4ARktbQKZur_MU,Alameda County Veterans Services,"['local_government_office', 'point_of_interest', 'establishment']","39155 Liberty Street, Fremont",37.5507481,-121.9833012
42,"Fremont, California",local_government_office,ChIJqwGRyJrAj4ARhiogel9qrqo,Senator Ellen Corbett,"['local_government_office', 'point_of_interest', 'establishment']","39155 Liberty Street # F600, Fremont",37.5507843,-121.9832835
43,"Fremont, California",local_government_office,ChIJmWeYUYXAj4ARXf_21u8nl2c,Fremont Economic Development,"['local_government_office', 'point_of_interest', 'establishment']","3300 Capitol Avenue, Fremont",37.5525,-121.9820538
44,"Fremont, California",local_government_office,ChIJmWeYUYXAj4ARRKEI4vHi64w,Fremont Election Information,"['local_government_office', 'point_of_interest', 'establishment']","3300 Capitol Avenue # A, Fremont",37.5523902,-121.9821589
45,"Fremont, California",local_government_office,ChIJ8yUWlJPAj4ARcCYLXYY5Yzs,Assembly Member A Torrico,"['local_government_office', 'point_of_interest', 'establishment']","39510 Paseo Padre Parkway # 220, Fremont",37.5505192,-121.9740343
46,"Fremont, California",local_government_office,ChIJiZiTr4XAj4ARDpkSHCdjCY4,US Social Security Administration,"['local_government_office', 'point_of_interest', 'establishment']","3100 Mowry Avenue, Fremont",37.55419060000001,-121.9829858
47,"Fremont, California",local_government_office,ChIJqwGRyJrAj4ARt_0yUXZbhv4,Fremont Housing,"['local_government_office', 'point_of_interest', 'establishment']","39155 Liberty Street # D440, Fremont",37.5507843,-121.9832835
48,"Fremont, California",local_government_office,ChIJfwgHWeK_j4AR0jLSMlIsDTE,Union City Planning Department,"['local_government_office', 'point_of_interest', 'establishment']","34009 Alvarado-Niles Road, Union City",37.5873028,-122.0270932
49,"Fremont, California",local_government_office,ChIJaY9jnF3Gj4AR1Q3GCUzutCs,Green Peak Insurance Solutions,"['insurance_agency', 'local_government_office', 'point_of_interest', 'establishment']","38003 Mission Boulevard, Fremont",37.5760022,-121.9716282
50,"Fremont, California",local_government_office,ChIJd6Mb-xq_j4AReJ0caPVQ8Ho,Newark Mayor,"['local_government_office', 'point_of_interest', 'establishment']","37101 Newark Boulevard, Newark",37.5354208,-122.0292733
51,"Fremont, California",local_government_office,ChIJfwgHWeK_j4ARwvnKm38j6k0,Union City Transit,"['local_government_office', 'point_of_interest', 'establishment']","34650 7th Street, Union City",37.5903004,-122.0072769
52,"Fremont, California",local_government_office,ChIJd6Mb-xq_j4ARYuLNG5fhDx0,Newark City Council,"['local_government_office', 'police', 'point_of_interest', 'establishment']","37101 Newark Boulevard, Newark",37.5353472,-122.0292061
53,"Fremont, California",local_government_office,ChIJd6Mb-xq_j4ARoaHOoZ95644,Newark Planning Department,"['local_government_office', 'point_of_interest', 'establishment']","37101 Newark Boulevard, Newark",37.5354208,-122.0292733
54,"Fremont, California",local_government_office,ChIJd6Mb-xq_j4AR_MgxHEerEIs,Newark Engineering,"['local_government_office', 'point_of_interest', 'establishment']","37101 Newark Boulevard, Newark",37.5354208,-122.0292733
55,"Fremont, California",local_government_office,ChIJd6Mb-xq_j4ARsyNsuOhS27g,Newark Human Resources Department,"['local_government_office', 'point_of_interest', 'establishment']","37101 Newark Boulevard, Newark",37.5354208,-122.0292733
56,"Fremont, California",local_government_office,ChIJd6Mb-xq_j4ARb8aT-OrsjZA,Newark City Clerk,"['local_government_office', 'point_of_interest', 'establishment']","37101 Newark Boulevard, Newark",37.5354208,-122.0292733
57,"Fremont, California",local_government_office,ChIJU--7t1nHj4AREKEWumVyFY8,Fremont Recycling & Transfer,"['local_government_office', 'point_of_interest', 'establishment']","41149 Boyce Road, Fremont",37.5088599,-121.9899727
58,"Fremont, California",local_government_office,ChIJW4_zu2KVj4AR4D8ivxiX-50,Union City City Clerk Office,"['local_government_office', 'point_of_interest', 'establishment']","34009 Alvarado-Niles Road, Union City",37.5873028,-122.0270932
59,"Fremont, California",local_government_office,ChIJW4_zu2KVj4ARvxYBTBETaEs,Union City Animal Licensing,"['local_government_office', 'point_of_interest', 'establishment']","34009 Alvarado-Niles Road, Union City",37.5872491,-122.0270388
