,City,Type,Place ID,Name,Point of interests,Address,LatLng
0,"San Francisco, California",restaurant,ChIJ0SMraI-AhYAREeJAvm2_yGM,Hotel Fusion,"['night_club', 'lodging', 'restaurant', 'food', 'point_of_interest', 'establishment']","140 Ellis Street, San Francisco","37.785568, -122.408581"
1,"San Francisco, California",restaurant,ChIJN2S4EI2AhYAR9J4Qeh1U8Aw,Fairmont San Francisco,"['lodging', 'restaurant', 'food', 'point_of_interest', 'establishment']","950 Mason Street, San Francisco","37.7924187, -122.4106758"
2,"San Francisco, California",restaurant,ChIJURDKN2eAhYARN0AMzUEaiKo,La Mar Cebicheria Peruana,"['restaurant', 'food', 'point_of_interest', 'establishment']","pier 1 1/2 The Embarcadero, San Francisco","37.797387, -122.395196"
3,"San Francisco, California",restaurant,ChIJ18LA7PSAhYARZCNy_dme7v8,Comstock Saloon,"['bar', 'restaurant', 'food', 'point_of_interest', 'establishment']","155 Columbus Avenue, San Francisco","37.79692980000001, -122.4055622"
4,"San Francisco, California",restaurant,ChIJIbtvA4qAhYARdnwerOi-f4I,Credo,"['bar', 'restaurant', 'food', 'point_of_interest', 'establishment']","360 Pine Street, San Francisco","37.79214530000001, -122.4020407"
5,"San Francisco, California",restaurant,ChIJO8CPF2GAhYARBKYOHZoWGCo,Hornblower Cruises & Events,"['travel_agency', 'restaurant', 'food', 'point_of_interest', 'establishment']","Pier 3, Hornblower Landing, San Francisco","37.7979219, -122.395302"
6,"San Francisco, California",restaurant,ChIJzWMEoXuAhYARnGNx8NeVTpY,Local Kitchen & Wine Merchant,"['liquor_store', 'night_club', 'bar', 'store', 'restaurant', 'food', 'point_of_interest', 'establishment']","330 1st Street #1, San Francisco","37.786797, -122.394217"
7,"San Francisco, California",restaurant,ChIJP5PrLYSAhYARBcWhJXs55P4,54 Mint SF,"['bar', 'restaurant', 'food', 'point_of_interest', 'establishment']","16 Mint Plaza, San Francisco","37.7825768, -122.4079816"
8,"San Francisco, California",restaurant,ChIJiZyN7IeAhYARnCn-G6GH73Q,The Grove - Yerba Buena,"['restaurant', 'food', 'point_of_interest', 'establishment']","690 Mission Street, San Francisco","37.78654239999999, -122.4019862"
9,"San Francisco, California",restaurant,ChIJW52Si_OAhYAR-jAC1-iQh_c,The Stinking Rose,"['bar', 'restaurant', 'food', 'point_of_interest', 'establishment']","325 Columbus Avenue, San Francisco","37.798114, -122.40757"
10,"San Francisco, California",restaurant,ChIJSToWqn2AhYAR1CuH2iGMvuo,Benu,"['restaurant', 'food', 'point_of_interest', 'establishment']","22 Hawthorne Street, San Francisco","37.78545200000001, -122.399036"
11,"San Francisco, California",restaurant,ChIJF-zbSmSAhYARvOafjdCRszQ,Boulevard Restaurant,"['bar', 'restaurant', 'food', 'point_of_interest', 'establishment']","1 Mission Street, San Francisco","37.79332, -122.392761"
12,"San Francisco, California",restaurant,ChIJZduCKJGAhYARueNvSMvqsUI,Lers Ros,"['meal_delivery', 'restaurant', 'food', 'point_of_interest', 'establishment']","730 Larkin Street, San Francisco","37.784727, -122.4176594"
13,"San Francisco, California",restaurant,ChIJNRipBPGAhYAR1qLFGG_Tby4,Park Tavern,"['bar', 'restaurant', 'food', 'point_of_interest', 'establishment']","1652 Stockton Street, San Francisco","37.8010894, -122.409101"
14,"San Francisco, California",restaurant,ChIJ6zMe3oWAhYARaZ33Z1BAMRo,Westfield San Francisco Centre,"['shopping_mall', 'shoe_store', 'movie_theater', 'department_store', 'clothing_store', 'store', 'restaurant', 'food', 'point_of_interest', 'establishment']","865 Market Street, San Francisco","37.784142, -122.4068825"
15,"San Francisco, California",restaurant,ChIJf-NCNpeHhYARLeneHNw3WWs,Outerlands,"['bar', 'restaurant', 'food', 'point_of_interest', 'establishment']","4001 Judah Street, San Francisco","37.7602623, -122.5050272"
16,"San Francisco, California",restaurant,ChIJn5G9Fzp-j4ARRs66QTw4XAY,Southern Pacific Brewing,"['bar', 'restaurant', 'food', 'point_of_interest', 'establishment']","620 Treat Avenue, San Francisco","37.7601026, -122.4142258"
17,"San Francisco, California",restaurant,ChIJNy8VmmGAhYARQF84_9twEc4,Perbacco,"['bar', 'restaurant', 'food', 'point_of_interest', 'establishment']","230 California Street, San Francisco","37.7934429, -122.3993731"
18,"San Francisco, California",restaurant,ChIJl7zcHY-AhYAR4rDx9C6-N4s,Daily Grill,"['bar', 'restaurant', 'food', 'point_of_interest', 'establishment']","347 Geary Street, San Francisco","37.787139, -122.408884"
19,"San Francisco, California",restaurant,ChIJk2EFyIqAhYARXlKs2zO34Fg,Taverna Aventine,"['bar', 'restaurant', 'food', 'point_of_interest', 'establishment']","2929, 582 Washington Street, San Francisco","37.7956853, -122.402855"
20,"San Francisco, California",restaurant,ChIJ0SMraI-AhYAREeJAvm2_yGM,Hotel Fusion,"['night_club', 'lodging', 'restaurant', 'food', 'point_of_interest', 'establishment']","140 Ellis Street, San Francisco","37.785568, -122.408581"
21,"San Francisco, California",restaurant,ChIJN2S4EI2AhYAR9J4Qeh1U8Aw,Fairmont San Francisco,"['lodging', 'restaurant', 'food', 'point_of_interest', 'establishment']","950 Mason Street, San Francisco","37.7924187, -122.4106758"
22,"San Francisco, California",restaurant,ChIJURDKN2eAhYARN0AMzUEaiKo,La Mar Cebicheria Peruana,"['restaurant', 'food', 'point_of_interest', 'establishment']","pier 1 1/2 The Embarcadero, San Francisco","37.797387, -122.395196"
23,"San Francisco, California",restaurant,ChIJ18LA7PSAhYARZCNy_dme7v8,Comstock Saloon,"['bar', 'restaurant', 'food', 'point_of_interest', 'establishment']","155 Columbus Avenue, San Francisco","37.79692980000001, -122.4055622"
24,"San Francisco, California",restaurant,ChIJIbtvA4qAhYARdnwerOi-f4I,Credo,"['bar', 'restaurant', 'food', 'point_of_interest', 'establishment']","360 Pine Street, San Francisco","37.79214530000001, -122.4020407"
25,"San Francisco, California",restaurant,ChIJO8CPF2GAhYARBKYOHZoWGCo,Hornblower Cruises & Events,"['travel_agency', 'restaurant', 'food', 'point_of_interest', 'establishment']","Pier 3, Hornblower Landing, San Francisco","37.7979219, -122.395302"
26,"San Francisco, California",restaurant,ChIJzWMEoXuAhYARnGNx8NeVTpY,Local Kitchen & Wine Merchant,"['liquor_store', 'night_club', 'bar', 'store', 'restaurant', 'food', 'point_of_interest', 'establishment']","330 1st Street #1, San Francisco","37.786797, -122.394217"
27,"San Francisco, California",restaurant,ChIJP5PrLYSAhYARBcWhJXs55P4,54 Mint SF,"['bar', 'restaurant', 'food', 'point_of_interest', 'establishment']","16 Mint Plaza, San Francisco","37.7825768, -122.4079816"
28,"San Francisco, California",restaurant,ChIJiZyN7IeAhYARnCn-G6GH73Q,The Grove - Yerba Buena,"['restaurant', 'food', 'point_of_interest', 'establishment']","690 Mission Street, San Francisco","37.78654239999999, -122.4019862"
29,"San Francisco, California",restaurant,ChIJW52Si_OAhYAR-jAC1-iQh_c,The Stinking Rose,"['bar', 'restaurant', 'food', 'point_of_interest', 'establishment']","325 Columbus Avenue, San Francisco","37.798114, -122.40757"
30,"San Francisco, California",restaurant,ChIJSToWqn2AhYAR1CuH2iGMvuo,Benu,"['restaurant', 'food', 'point_of_interest', 'establishment']","22 Hawthorne Street, San Francisco","37.78545200000001, -122.399036"
31,"San Francisco, California",restaurant,ChIJF-zbSmSAhYARvOafjdCRszQ,Boulevard Restaurant,"['bar', 'restaurant', 'food', 'point_of_interest', 'establishment']","1 Mission Street, San Francisco","37.79332, -122.392761"
32,"San Francisco, California",restaurant,ChIJZduCKJGAhYARueNvSMvqsUI,Lers Ros,"['meal_delivery', 'restaurant', 'food', 'point_of_interest', 'establishment']","730 Larkin Street, San Francisco","37.784727, -122.4176594"
33,"San Francisco, California",restaurant,ChIJNRipBPGAhYAR1qLFGG_Tby4,Park Tavern,"['bar', 'restaurant', 'food', 'point_of_interest', 'establishment']","1652 Stockton Street, San Francisco","37.8010894, -122.409101"
34,"San Francisco, California",restaurant,ChIJ6zMe3oWAhYARaZ33Z1BAMRo,Westfield San Francisco Centre,"['shopping_mall', 'shoe_store', 'movie_theater', 'department_store', 'clothing_store', 'store', 'restaurant', 'food', 'point_of_interest', 'establishment']","865 Market Street, San Francisco","37.784142, -122.4068825"
35,"San Francisco, California",restaurant,ChIJf-NCNpeHhYARLeneHNw3WWs,Outerlands,"['bar', 'restaurant', 'food', 'point_of_interest', 'establishment']","4001 Judah Street, San Francisco","37.7602623, -122.5050272"
36,"San Francisco, California",restaurant,ChIJn5G9Fzp-j4ARRs66QTw4XAY,Southern Pacific Brewing,"['bar', 'restaurant', 'food', 'point_of_interest', 'establishment']","620 Treat Avenue, San Francisco","37.7601026, -122.4142258"
37,"San Francisco, California",restaurant,ChIJNy8VmmGAhYARQF84_9twEc4,Perbacco,"['bar', 'restaurant', 'food', 'point_of_interest', 'establishment']","230 California Street, San Francisco","37.7934429, -122.3993731"
38,"San Francisco, California",restaurant,ChIJl7zcHY-AhYAR4rDx9C6-N4s,Daily Grill,"['bar', 'restaurant', 'food', 'point_of_interest', 'establishment']","347 Geary Street, San Francisco","37.787139, -122.408884"
39,"San Francisco, California",restaurant,ChIJk2EFyIqAhYARXlKs2zO34Fg,Taverna Aventine,"['bar', 'restaurant', 'food', 'point_of_interest', 'establishment']","2929, 582 Washington Street, San Francisco","37.7956853, -122.402855"
40,"San Francisco, California",restaurant,ChIJ0SMraI-AhYAREeJAvm2_yGM,Hotel Fusion,"['night_club', 'lodging', 'restaurant', 'food', 'point_of_interest', 'establishment']","140 Ellis Street, San Francisco","37.785568, -122.408581"
41,"San Francisco, California",restaurant,ChIJN2S4EI2AhYAR9J4Qeh1U8Aw,Fairmont San Francisco,"['lodging', 'restaurant', 'food', 'point_of_interest', 'establishment']","950 Mason Street, San Francisco","37.7924187, -122.4106758"
42,"San Francisco, California",restaurant,ChIJURDKN2eAhYARN0AMzUEaiKo,La Mar Cebicheria Peruana,"['restaurant', 'food', 'point_of_interest', 'establishment']","pier 1 1/2 The Embarcadero, San Francisco","37.797387, -122.395196"
43,"San Francisco, California",restaurant,ChIJ18LA7PSAhYARZCNy_dme7v8,Comstock Saloon,"['bar', 'restaurant', 'food', 'point_of_interest', 'establishment']","155 Columbus Avenue, San Francisco","37.79692980000001, -122.4055622"
44,"San Francisco, California",restaurant,ChIJIbtvA4qAhYARdnwerOi-f4I,Credo,"['bar', 'restaurant', 'food', 'point_of_interest', 'establishment']","360 Pine Street, San Francisco","37.79214530000001, -122.4020407"
45,"San Francisco, California",restaurant,ChIJO8CPF2GAhYARBKYOHZoWGCo,Hornblower Cruises & Events,"['travel_agency', 'restaurant', 'food', 'point_of_interest', 'establishment']","Pier 3, Hornblower Landing, San Francisco","37.7979219, -122.395302"
46,"San Francisco, California",restaurant,ChIJzWMEoXuAhYARnGNx8NeVTpY,Local Kitchen & Wine Merchant,"['liquor_store', 'night_club', 'bar', 'store', 'restaurant', 'food', 'point_of_interest', 'establishment']","330 1st Street #1, San Francisco","37.786797, -122.394217"
47,"San Francisco, California",restaurant,ChIJP5PrLYSAhYARBcWhJXs55P4,54 Mint SF,"['bar', 'restaurant', 'food', 'point_of_interest', 'establishment']","16 Mint Plaza, San Francisco","37.7825768, -122.4079816"
48,"San Francisco, California",restaurant,ChIJiZyN7IeAhYARnCn-G6GH73Q,The Grove - Yerba Buena,"['restaurant', 'food', 'point_of_interest', 'establishment']","690 Mission Street, San Francisco","37.78654239999999, -122.4019862"
49,"San Francisco, California",restaurant,ChIJW52Si_OAhYAR-jAC1-iQh_c,The Stinking Rose,"['bar', 'restaurant', 'food', 'point_of_interest', 'establishment']","325 Columbus Avenue, San Francisco","37.798114, -122.40757"
50,"San Francisco, California",restaurant,ChIJSToWqn2AhYAR1CuH2iGMvuo,Benu,"['restaurant', 'food', 'point_of_interest', 'establishment']","22 Hawthorne Street, San Francisco","37.78545200000001, -122.399036"
51,"San Francisco, California",restaurant,ChIJF-zbSmSAhYARvOafjdCRszQ,Boulevard Restaurant,"['bar', 'restaurant', 'food', 'point_of_interest', 'establishment']","1 Mission Street, San Francisco","37.79332, -122.392761"
52,"San Francisco, California",restaurant,ChIJZduCKJGAhYARueNvSMvqsUI,Lers Ros,"['meal_delivery', 'restaurant', 'food', 'point_of_interest', 'establishment']","730 Larkin Street, San Francisco","37.784727, -122.4176594"
53,"San Francisco, California",restaurant,ChIJNRipBPGAhYAR1qLFGG_Tby4,Park Tavern,"['bar', 'restaurant', 'food', 'point_of_interest', 'establishment']","1652 Stockton Street, San Francisco","37.8010894, -122.409101"
54,"San Francisco, California",restaurant,ChIJ6zMe3oWAhYARaZ33Z1BAMRo,Westfield San Francisco Centre,"['shopping_mall', 'shoe_store', 'movie_theater', 'department_store', 'clothing_store', 'store', 'restaurant', 'food', 'point_of_interest', 'establishment']","865 Market Street, San Francisco","37.784142, -122.4068825"
55,"San Francisco, California",restaurant,ChIJf-NCNpeHhYARLeneHNw3WWs,Outerlands,"['bar', 'restaurant', 'food', 'point_of_interest', 'establishment']","4001 Judah Street, San Francisco","37.7602623, -122.5050272"
56,"San Francisco, California",restaurant,ChIJn5G9Fzp-j4ARRs66QTw4XAY,Southern Pacific Brewing,"['bar', 'restaurant', 'food', 'point_of_interest', 'establishment']","620 Treat Avenue, San Francisco","37.7601026, -122.4142258"
57,"San Francisco, California",restaurant,ChIJNy8VmmGAhYARQF84_9twEc4,Perbacco,"['bar', 'restaurant', 'food', 'point_of_interest', 'establishment']","230 California Street, San Francisco","37.7934429, -122.3993731"
58,"San Francisco, California",restaurant,ChIJl7zcHY-AhYAR4rDx9C6-N4s,Daily Grill,"['bar', 'restaurant', 'food', 'point_of_interest', 'establishment']","347 Geary Street, San Francisco","37.787139, -122.408884"
59,"San Francisco, California",restaurant,ChIJk2EFyIqAhYARXlKs2zO34Fg,Taverna Aventine,"['bar', 'restaurant', 'food', 'point_of_interest', 'establishment']","2929, 582 Washington Street, San Francisco","37.7956853, -122.402855"
0,"Redwood City, California",restaurant,ChIJ2wJOX6yjj4ARHXWap7-AdhM,Donato Enoteca,"['bar', 'restaurant', 'food', 'point_of_interest', 'establishment']","1041 Middlefield Road, Redwood City","37.484386, -122.226882"
1,"Redwood City, California",restaurant,ChIJ2VtDOzS7j4ARaKOgGvJXoJ4,Fleming’s Prime Steakhouse & Wine Bar,"['bar', 'restaurant', 'food', 'point_of_interest', 'establishment']","180 El Camino Real, Palo Alto","37.4445953, -122.1704183"
2,"Redwood City, California",restaurant,ChIJIe9vfzC7j4ARKMPewN6Czv4,Restaurant Soleil,"['restaurant', 'food', 'point_of_interest', 'establishment']","675 El Camino Real, Palo Alto","37.44056889999999, -122.1631209"
3,"Redwood City, California",restaurant,ChIJwWcdxzi7j4ARSPpV37nhr58,Tamarine Restaurant & Gallery,"['bar', 'restaurant', 'food', 'point_of_interest', 'establishment']","546 University Avenue, Palo Alto","37.44888899999999, -122.158481"
4,"Redwood City, California",restaurant,ChIJG1kW_BCkj4AR8ZZ326YvxPU,The Village Pub,"['bar', 'restaurant', 'food', 'point_of_interest', 'establishment']","2967 Woodside Road, Woodside","37.4288824, -122.2514888"
5,"Redwood City, California",restaurant,ChIJQ7QsMzq7j4ARidQmfZss-Wc,Coconuts,"['bar', 'restaurant', 'food', 'point_of_interest', 'establishment']","642 Ramona Street, Palo Alto","37.4439101, -122.1601889"
6,"Redwood City, California",restaurant,ChIJpf2l3zi7j4ARq9jTYIKdfb0,Il Fornaio,"['restaurant', 'food', 'point_of_interest', 'establishment']","520 Cowper Street, Palo Alto","37.4479051, -122.1588629"
7,"Redwood City, California",restaurant,ChIJdwmtjjm7j4ARuuLA95wq7wQ,Nola,"['night_club', 'bar', 'restaurant', 'food', 'point_of_interest', 'establishment']","535 Ramona Street, Palo Alto","37.44503270000001, -122.1613454"
8,"Redwood City, California",restaurant,ChIJ9RrLdDq7j4ARlnUomJYc3iw,Pampas,"['bar', 'restaurant', 'food', 'point_of_interest', 'establishment']","529 Alma Street, Palo Alto","37.44304899999999, -122.16286"
9,"Redwood City, California",restaurant,ChIJY0yKLzq7j4ARNNLYPbJMgN8,Reposado,"['bar', 'restaurant', 'food', 'point_of_interest', 'establishment']","236 Hamilton Avenue, Palo Alto","37.4442187, -122.1610581"
10,"Redwood City, California",restaurant,ChIJ5cmUATq7j4ARYSY3cHys344,Amber Dhara,"['bar', 'restaurant', 'food', 'point_of_interest', 'establishment']","150 University Avenue, Palo Alto","37.443997, -122.162979"
11,"Redwood City, California",restaurant,ChIJEQbMSzq7j4ARCIzIQRU45og,Buca di Beppo Italian Restaurant,"['restaurant', 'food', 'point_of_interest', 'establishment']","643 Emerson Street, Palo Alto","37.4435214, -122.1605738"
12,"Redwood City, California",restaurant,ChIJY5UIijm7j4ARPkLgY0DXJuI,Coupa Cafe - Ramona,"['cafe', 'store', 'restaurant', 'food', 'point_of_interest', 'establishment']","538 Ramona St, Palo Alto","37.44472349999999, -122.1614973"
13,"Redwood City, California",restaurant,ChIJWV4bIgOfj4AR8nlVhuFMcT4,Paul Martin's American Grill,"['restaurant', 'food', 'point_of_interest', 'establishment']","101 Hillsdale Shopping Ctr, San Mateo","37.5384001, -122.3007809"
14,"Redwood City, California",restaurant,ChIJEab-iDm7j4ARBeB5pIYXEE8,The Old Pro,"['bar', 'restaurant', 'food', 'point_of_interest', 'establishment']","541 Ramona Street, Palo Alto","37.4448897, -122.1612954"
15,"Redwood City, California",restaurant,ChIJiaDzRimfj4ARZaPvhTebG9k,Cooking Papa,"['restaurant', 'food', 'point_of_interest', 'establishment']","949A Edgewater Boulevard, Foster City","37.5446725, -122.2704225"
16,"Redwood City, California",restaurant,ChIJlc29db-jj4ARHEh1XjV_OYY,Little Caesars Pizza,"['meal_takeaway', 'restaurant', 'food', 'point_of_interest', 'establishment']","2193 Roosevelt Center, Redwood City","37.4658739, -122.2415974"
17,"Redwood City, California",restaurant,ChIJByU8Zze7j4ARtKef7nHMEks,Evvia Estiatorio,"['restaurant', 'food', 'point_of_interest', 'establishment']","420 Emerson Street, Palo Alto","37.4451287, -122.1637993"
18,"Redwood City, California",restaurant,ChIJDcNwchuij4ARneNiXjDR-jc,Spasso,"['restaurant', 'food', 'point_of_interest', 'establishment']","769 Laurel Street, San Carlos","37.5044033, -122.2584893"
19,"Redwood City, California",restaurant,ChIJiXr_Zze7j4ARgRtbgk7Len4,The Patio,"['night_club', 'bar', 'restaurant', 'food', 'point_of_interest', 'establishment']","412 Emerson Street, Palo Alto","37.4452193, -122.163868"
20,"Redwood City, California",restaurant,ChIJ2wJOX6yjj4ARHXWap7-AdhM,Donato Enoteca,"['bar', 'restaurant', 'food', 'point_of_interest', 'establishment']","1041 Middlefield Road, Redwood City","37.484386, -122.226882"
21,"Redwood City, California",restaurant,ChIJ2VtDOzS7j4ARaKOgGvJXoJ4,Fleming’s Prime Steakhouse & Wine Bar,"['bar', 'restaurant', 'food', 'point_of_interest', 'establishment']","180 El Camino Real, Palo Alto","37.4445953, -122.1704183"
22,"Redwood City, California",restaurant,ChIJIe9vfzC7j4ARKMPewN6Czv4,Restaurant Soleil,"['restaurant', 'food', 'point_of_interest', 'establishment']","675 El Camino Real, Palo Alto","37.44056889999999, -122.1631209"
23,"Redwood City, California",restaurant,ChIJwWcdxzi7j4ARSPpV37nhr58,Tamarine Restaurant & Gallery,"['bar', 'restaurant', 'food', 'point_of_interest', 'establishment']","546 University Avenue, Palo Alto","37.44888899999999, -122.158481"
24,"Redwood City, California",restaurant,ChIJG1kW_BCkj4AR8ZZ326YvxPU,The Village Pub,"['bar', 'restaurant', 'food', 'point_of_interest', 'establishment']","2967 Woodside Road, Woodside","37.4288824, -122.2514888"
25,"Redwood City, California",restaurant,ChIJQ7QsMzq7j4ARidQmfZss-Wc,Coconuts,"['bar', 'restaurant', 'food', 'point_of_interest', 'establishment']","642 Ramona Street, Palo Alto","37.4439101, -122.1601889"
26,"Redwood City, California",restaurant,ChIJpf2l3zi7j4ARq9jTYIKdfb0,Il Fornaio,"['restaurant', 'food', 'point_of_interest', 'establishment']","520 Cowper Street, Palo Alto","37.4479051, -122.1588629"
27,"Redwood City, California",restaurant,ChIJdwmtjjm7j4ARuuLA95wq7wQ,Nola,"['night_club', 'bar', 'restaurant', 'food', 'point_of_interest', 'establishment']","535 Ramona Street, Palo Alto","37.44503270000001, -122.1613454"
28,"Redwood City, California",restaurant,ChIJ9RrLdDq7j4ARlnUomJYc3iw,Pampas,"['bar', 'restaurant', 'food', 'point_of_interest', 'establishment']","529 Alma Street, Palo Alto","37.44304899999999, -122.16286"
29,"Redwood City, California",restaurant,ChIJY0yKLzq7j4ARNNLYPbJMgN8,Reposado,"['bar', 'restaurant', 'food', 'point_of_interest', 'establishment']","236 Hamilton Avenue, Palo Alto","37.4442187, -122.1610581"
30,"Redwood City, California",restaurant,ChIJ5cmUATq7j4ARYSY3cHys344,Amber Dhara,"['bar', 'restaurant', 'food', 'point_of_interest', 'establishment']","150 University Avenue, Palo Alto","37.443997, -122.162979"
31,"Redwood City, California",restaurant,ChIJEQbMSzq7j4ARCIzIQRU45og,Buca di Beppo Italian Restaurant,"['restaurant', 'food', 'point_of_interest', 'establishment']","643 Emerson Street, Palo Alto","37.4435214, -122.1605738"
32,"Redwood City, California",restaurant,ChIJY5UIijm7j4ARPkLgY0DXJuI,Coupa Cafe - Ramona,"['cafe', 'store', 'restaurant', 'food', 'point_of_interest', 'establishment']","538 Ramona St, Palo Alto","37.44472349999999, -122.1614973"
33,"Redwood City, California",restaurant,ChIJWV4bIgOfj4AR8nlVhuFMcT4,Paul Martin's American Grill,"['restaurant', 'food', 'point_of_interest', 'establishment']","101 Hillsdale Shopping Ctr, San Mateo","37.5384001, -122.3007809"
34,"Redwood City, California",restaurant,ChIJEab-iDm7j4ARBeB5pIYXEE8,The Old Pro,"['bar', 'restaurant', 'food', 'point_of_interest', 'establishment']","541 Ramona Street, Palo Alto","37.4448897, -122.1612954"
35,"Redwood City, California",restaurant,ChIJiaDzRimfj4ARZaPvhTebG9k,Cooking Papa,"['restaurant', 'food', 'point_of_interest', 'establishment']","949A Edgewater Boulevard, Foster City","37.5446725, -122.2704225"
36,"Redwood City, California",restaurant,ChIJlc29db-jj4ARHEh1XjV_OYY,Little Caesars Pizza,"['meal_takeaway', 'restaurant', 'food', 'point_of_interest', 'establishment']","2193 Roosevelt Center, Redwood City","37.4658739, -122.2415974"
37,"Redwood City, California",restaurant,ChIJByU8Zze7j4ARtKef7nHMEks,Evvia Estiatorio,"['restaurant', 'food', 'point_of_interest', 'establishment']","420 Emerson Street, Palo Alto","37.4451287, -122.1637993"
38,"Redwood City, California",restaurant,ChIJDcNwchuij4ARneNiXjDR-jc,Spasso,"['restaurant', 'food', 'point_of_interest', 'establishment']","769 Laurel Street, San Carlos","37.5044033, -122.2584893"
39,"Redwood City, California",restaurant,ChIJiXr_Zze7j4ARgRtbgk7Len4,The Patio,"['night_club', 'bar', 'restaurant', 'food', 'point_of_interest', 'establishment']","412 Emerson Street, Palo Alto","37.4452193, -122.163868"
40,"Redwood City, California",restaurant,ChIJ2wJOX6yjj4ARHXWap7-AdhM,Donato Enoteca,"['bar', 'restaurant', 'food', 'point_of_interest', 'establishment']","1041 Middlefield Road, Redwood City","37.484386, -122.226882"
41,"Redwood City, California",restaurant,ChIJ2VtDOzS7j4ARaKOgGvJXoJ4,Fleming’s Prime Steakhouse & Wine Bar,"['bar', 'restaurant', 'food', 'point_of_interest', 'establishment']","180 El Camino Real, Palo Alto","37.4445953, -122.1704183"
42,"Redwood City, California",restaurant,ChIJIe9vfzC7j4ARKMPewN6Czv4,Restaurant Soleil,"['restaurant', 'food', 'point_of_interest', 'establishment']","675 El Camino Real, Palo Alto","37.44056889999999, -122.1631209"
43,"Redwood City, California",restaurant,ChIJwWcdxzi7j4ARSPpV37nhr58,Tamarine Restaurant & Gallery,"['bar', 'restaurant', 'food', 'point_of_interest', 'establishment']","546 University Avenue, Palo Alto","37.44888899999999, -122.158481"
44,"Redwood City, California",restaurant,ChIJG1kW_BCkj4AR8ZZ326YvxPU,The Village Pub,"['bar', 'restaurant', 'food', 'point_of_interest', 'establishment']","2967 Woodside Road, Woodside","37.4288824, -122.2514888"
45,"Redwood City, California",restaurant,ChIJQ7QsMzq7j4ARidQmfZss-Wc,Coconuts,"['bar', 'restaurant', 'food', 'point_of_interest', 'establishment']","642 Ramona Street, Palo Alto","37.4439101, -122.1601889"
46,"Redwood City, California",restaurant,ChIJpf2l3zi7j4ARq9jTYIKdfb0,Il Fornaio,"['restaurant', 'food', 'point_of_interest', 'establishment']","520 Cowper Street, Palo Alto","37.4479051, -122.1588629"
47,"Redwood City, California",restaurant,ChIJdwmtjjm7j4ARuuLA95wq7wQ,Nola,"['night_club', 'bar', 'restaurant', 'food', 'point_of_interest', 'establishment']","535 Ramona Street, Palo Alto","37.44503270000001, -122.1613454"
48,"Redwood City, California",restaurant,ChIJ9RrLdDq7j4ARlnUomJYc3iw,Pampas,"['bar', 'restaurant', 'food', 'point_of_interest', 'establishment']","529 Alma Street, Palo Alto","37.44304899999999, -122.16286"
49,"Redwood City, California",restaurant,ChIJY0yKLzq7j4ARNNLYPbJMgN8,Reposado,"['bar', 'restaurant', 'food', 'point_of_interest', 'establishment']","236 Hamilton Avenue, Palo Alto","37.4442187, -122.1610581"
50,"Redwood City, California",restaurant,ChIJ5cmUATq7j4ARYSY3cHys344,Amber Dhara,"['bar', 'restaurant', 'food', 'point_of_interest', 'establishment']","150 University Avenue, Palo Alto","37.443997, -122.162979"
51,"Redwood City, California",restaurant,ChIJEQbMSzq7j4ARCIzIQRU45og,Buca di Beppo Italian Restaurant,"['restaurant', 'food', 'point_of_interest', 'establishment']","643 Emerson Street, Palo Alto","37.4435214, -122.1605738"
52,"Redwood City, California",restaurant,ChIJY5UIijm7j4ARPkLgY0DXJuI,Coupa Cafe - Ramona,"['cafe', 'store', 'restaurant', 'food', 'point_of_interest', 'establishment']","538 Ramona St, Palo Alto","37.44472349999999, -122.1614973"
53,"Redwood City, California",restaurant,ChIJWV4bIgOfj4AR8nlVhuFMcT4,Paul Martin's American Grill,"['restaurant', 'food', 'point_of_interest', 'establishment']","101 Hillsdale Shopping Ctr, San Mateo","37.5384001, -122.3007809"
54,"Redwood City, California",restaurant,ChIJEab-iDm7j4ARBeB5pIYXEE8,The Old Pro,"['bar', 'restaurant', 'food', 'point_of_interest', 'establishment']","541 Ramona Street, Palo Alto","37.4448897, -122.1612954"
55,"Redwood City, California",restaurant,ChIJiaDzRimfj4ARZaPvhTebG9k,Cooking Papa,"['restaurant', 'food', 'point_of_interest', 'establishment']","949A Edgewater Boulevard, Foster City","37.5446725, -122.2704225"
56,"Redwood City, California",restaurant,ChIJlc29db-jj4ARHEh1XjV_OYY,Little Caesars Pizza,"['meal_takeaway', 'restaurant', 'food', 'point_of_interest', 'establishment']","2193 Roosevelt Center, Redwood City","37.4658739, -122.2415974"
57,"Redwood City, California",restaurant,ChIJByU8Zze7j4ARtKef7nHMEks,Evvia Estiatorio,"['restaurant', 'food', 'point_of_interest', 'establishment']","420 Emerson Street, Palo Alto","37.4451287, -122.1637993"
58,"Redwood City, California",restaurant,ChIJDcNwchuij4ARneNiXjDR-jc,Spasso,"['restaurant', 'food', 'point_of_interest', 'establishment']","769 Laurel Street, San Carlos","37.5044033, -122.2584893"
59,"Redwood City, California",restaurant,ChIJiXr_Zze7j4ARgRtbgk7Len4,The Patio,"['night_club', 'bar', 'restaurant', 'food', 'point_of_interest', 'establishment']","412 Emerson Street, Palo Alto","37.4452193, -122.163868"
0,"Berkeley, California",restaurant,ChIJjd1RfCh8hYARphti9hFFTjU,Berkeley City Club,"['lodging', 'restaurant', 'food', 'point_of_interest', 'establishment']","2315 Durant Avenue, Berkeley","37.8674882, -122.2627593"
1,"Berkeley, California",restaurant,ChIJO1q-ry98hYARXdN27wXhtqg,Graduate Berkeley,"['lodging', 'restaurant', 'food', 'point_of_interest', 'establishment']","2600 Durant Avenue, Berkeley","37.867936, -122.2563213"
2,"Berkeley, California",restaurant,ChIJc5ERRVOHj4ARu2mIe7m3x-E,Mua Oakland,"['bar', 'restaurant', 'food', 'point_of_interest', 'establishment']","2442a Webster Street, Oakland","37.81408199999999, -122.264354"
3,"Berkeley, California",restaurant,ChIJw3k8iZ5-hYARJSkLTdSXbls,Comal,"['bar', 'restaurant', 'food', 'point_of_interest', 'establishment']","2020 Shattuck Avenue, Berkeley","37.87158069999999, -122.2686336"
4,"Berkeley, California",restaurant,ChIJJWghYeJ9hYARId9jSvP1Hrg,Aunt Mary's Cafe,"['restaurant', 'food', 'point_of_interest', 'establishment']","4640 Telegraph Avenue, Oakland","37.8341343, -122.2628894"
5,"Berkeley, California",restaurant,ChIJ9bZJbMN9hYARZ3JGwPCPnfc,Zachary's Chicago Pizza,"['restaurant', 'food', 'point_of_interest', 'establishment']","5801 College Avenue, Oakland","37.8462614, -122.2521318"
6,"Berkeley, California",restaurant,ChIJNwUiuJ1-hYARlmMobInl1SI,Jupiter,"['bar', 'restaurant', 'food', 'point_of_interest', 'establishment']","2181 Shattuck Avenue, Berkeley","37.8698102, -122.2675949"
7,"Berkeley, California",restaurant,ChIJcYtcJaF-hYAR-VzrwZpQY0E,Chez Panisse,"['cafe', 'restaurant', 'food', 'point_of_interest', 'establishment']","1517 Shattuck Avenue, Berkeley","37.879594, -122.268935"
8,"Berkeley, California",restaurant,ChIJxyGNjMeAj4ARPsZG3cEG1Jc,Yoshi's Oakland,"['night_club', 'bar', 'restaurant', 'food', 'point_of_interest', 'establishment']","510 Embarcadero West, Oakland","37.796237, -122.2785532"
9,"Berkeley, California",restaurant,ChIJ6XYD2ZGAhYARhDX0sVfc6Cc,Millennium,"['restaurant', 'food', 'point_of_interest', 'establishment']","5912 College Avenue, Oakland","37.8474938, -122.2518617"
10,"Berkeley, California",restaurant,ChIJjU9u7SN_hYARmRvUMMDgJXw,Skates on the Bay,"['bar', 'restaurant', 'food', 'point_of_interest', 'establishment']","100 Seawall Drive, Berkeley","37.8636377, -122.3180662"
11,"Berkeley, California",restaurant,ChIJaYHARDB8hYARRY9Kq7EU3q0,International House Cafe,"['cafe', 'store', 'restaurant', 'food', 'point_of_interest', 'establishment']","2299 Piedmont Avenue, Berkeley","37.8696799, -122.2520091"
12,"Berkeley, California",restaurant,ChIJk5SFZ0qHj4ARgHF_fZQLnIM,Lake Chalet | Seafood Bar & Grill,"['restaurant', 'food', 'point_of_interest', 'establishment']","1520 Lakeside Drive, Oakland","37.8022314, -122.2615837"
13,"Berkeley, California",restaurant,ChIJu948xPZ9hYARMOy-BUTq8pE,Fentons Creamery,"['store', 'restaurant', 'food', 'point_of_interest', 'establishment']","4226 Piedmont Avenue, Oakland","37.8280029, -122.2501279"
14,"Berkeley, California",restaurant,ChIJXdv0KzJ5hYAR8NOcfA4n49w,Little Star Pizza,"['restaurant', 'food', 'point_of_interest', 'establishment']","1181 Solano Avenue, Albany","37.89055609999999, -122.2968251"
15,"Berkeley, California",restaurant,ChIJucLtwJ1-hYAR7qhrXpzINOo,Ippuku,"['bar', 'restaurant', 'food', 'point_of_interest', 'establishment']","2130 Center Street, Berkeley","37.87029100000001, -122.267111"
16,"Berkeley, California",restaurant,ChIJqUoig51-hYARUnXjcqs8-sg,Gather,"['bar', 'restaurant', 'food', 'point_of_interest', 'establishment']","2200 Oxford Street, Berkeley","37.8695169, -122.2661288"
17,"Berkeley, California",restaurant,ChIJVTRIc7KAj4ARQMuaZiW2gjs,Duende,"['liquor_store', 'bar', 'store', 'restaurant', 'food', 'point_of_interest', 'establishment']","468 19th Street, Oakland","37.8081101, -122.2695472"
18,"Berkeley, California",restaurant,ChIJq_X1RE-Hj4ARVMeNS1IGW-8,Jong Ga House,"['restaurant', 'food', 'point_of_interest', 'establishment']","372 Grand Avenue, Oakland","37.809134, -122.2549504"
19,"Berkeley, California",restaurant,ChIJ_af28sJ9hYARSjYUdP5GYTY,Oliveto,"['bar', 'restaurant', 'food', 'point_of_interest', 'establishment']","5655 College Avenue, Oakland","37.8438624, -122.2518558"
20,"Berkeley, California",restaurant,ChIJjd1RfCh8hYARphti9hFFTjU,Berkeley City Club,"['lodging', 'restaurant', 'food', 'point_of_interest', 'establishment']","2315 Durant Avenue, Berkeley","37.8674882, -122.2627593"
21,"Berkeley, California",restaurant,ChIJO1q-ry98hYARXdN27wXhtqg,Graduate Berkeley,"['lodging', 'restaurant', 'food', 'point_of_interest', 'establishment']","2600 Durant Avenue, Berkeley","37.867936, -122.2563213"
22,"Berkeley, California",restaurant,ChIJc5ERRVOHj4ARu2mIe7m3x-E,Mua Oakland,"['bar', 'restaurant', 'food', 'point_of_interest', 'establishment']","2442a Webster Street, Oakland","37.81408199999999, -122.264354"
23,"Berkeley, California",restaurant,ChIJw3k8iZ5-hYARJSkLTdSXbls,Comal,"['bar', 'restaurant', 'food', 'point_of_interest', 'establishment']","2020 Shattuck Avenue, Berkeley","37.87158069999999, -122.2686336"
24,"Berkeley, California",restaurant,ChIJJWghYeJ9hYARId9jSvP1Hrg,Aunt Mary's Cafe,"['restaurant', 'food', 'point_of_interest', 'establishment']","4640 Telegraph Avenue, Oakland","37.8341343, -122.2628894"
25,"Berkeley, California",restaurant,ChIJ9bZJbMN9hYARZ3JGwPCPnfc,Zachary's Chicago Pizza,"['restaurant', 'food', 'point_of_interest', 'establishment']","5801 College Avenue, Oakland","37.8462614, -122.2521318"
26,"Berkeley, California",restaurant,ChIJNwUiuJ1-hYARlmMobInl1SI,Jupiter,"['bar', 'restaurant', 'food', 'point_of_interest', 'establishment']","2181 Shattuck Avenue, Berkeley","37.8698102, -122.2675949"
27,"Berkeley, California",restaurant,ChIJcYtcJaF-hYAR-VzrwZpQY0E,Chez Panisse,"['cafe', 'restaurant', 'food', 'point_of_interest', 'establishment']","1517 Shattuck Avenue, Berkeley","37.879594, -122.268935"
28,"Berkeley, California",restaurant,ChIJxyGNjMeAj4ARPsZG3cEG1Jc,Yoshi's Oakland,"['night_club', 'bar', 'restaurant', 'food', 'point_of_interest', 'establishment']","510 Embarcadero West, Oakland","37.796237, -122.2785532"
29,"Berkeley, California",restaurant,ChIJ6XYD2ZGAhYARhDX0sVfc6Cc,Millennium,"['restaurant', 'food', 'point_of_interest', 'establishment']","5912 College Avenue, Oakland","37.8474938, -122.2518617"
30,"Berkeley, California",restaurant,ChIJjU9u7SN_hYARmRvUMMDgJXw,Skates on the Bay,"['bar', 'restaurant', 'food', 'point_of_interest', 'establishment']","100 Seawall Drive, Berkeley","37.8636377, -122.3180662"
31,"Berkeley, California",restaurant,ChIJaYHARDB8hYARRY9Kq7EU3q0,International House Cafe,"['cafe', 'store', 'restaurant', 'food', 'point_of_interest', 'establishment']","2299 Piedmont Avenue, Berkeley","37.8696799, -122.2520091"
32,"Berkeley, California",restaurant,ChIJk5SFZ0qHj4ARgHF_fZQLnIM,Lake Chalet | Seafood Bar & Grill,"['restaurant', 'food', 'point_of_interest', 'establishment']","1520 Lakeside Drive, Oakland","37.8022314, -122.2615837"
33,"Berkeley, California",restaurant,ChIJu948xPZ9hYARMOy-BUTq8pE,Fentons Creamery,"['store', 'restaurant', 'food', 'point_of_interest', 'establishment']","4226 Piedmont Avenue, Oakland","37.8280029, -122.2501279"
34,"Berkeley, California",restaurant,ChIJXdv0KzJ5hYAR8NOcfA4n49w,Little Star Pizza,"['restaurant', 'food', 'point_of_interest', 'establishment']","1181 Solano Avenue, Albany","37.89055609999999, -122.2968251"
35,"Berkeley, California",restaurant,ChIJucLtwJ1-hYAR7qhrXpzINOo,Ippuku,"['bar', 'restaurant', 'food', 'point_of_interest', 'establishment']","2130 Center Street, Berkeley","37.87029100000001, -122.267111"
36,"Berkeley, California",restaurant,ChIJqUoig51-hYARUnXjcqs8-sg,Gather,"['bar', 'restaurant', 'food', 'point_of_interest', 'establishment']","2200 Oxford Street, Berkeley","37.8695169, -122.2661288"
37,"Berkeley, California",restaurant,ChIJVTRIc7KAj4ARQMuaZiW2gjs,Duende,"['liquor_store', 'bar', 'store', 'restaurant', 'food', 'point_of_interest', 'establishment']","468 19th Street, Oakland","37.8081101, -122.2695472"
38,"Berkeley, California",restaurant,ChIJq_X1RE-Hj4ARVMeNS1IGW-8,Jong Ga House,"['restaurant', 'food', 'point_of_interest', 'establishment']","372 Grand Avenue, Oakland","37.809134, -122.2549504"
39,"Berkeley, California",restaurant,ChIJ_af28sJ9hYARSjYUdP5GYTY,Oliveto,"['bar', 'restaurant', 'food', 'point_of_interest', 'establishment']","5655 College Avenue, Oakland","37.8438624, -122.2518558"
40,"Berkeley, California",restaurant,ChIJjd1RfCh8hYARphti9hFFTjU,Berkeley City Club,"['lodging', 'restaurant', 'food', 'point_of_interest', 'establishment']","2315 Durant Avenue, Berkeley","37.8674882, -122.2627593"
41,"Berkeley, California",restaurant,ChIJO1q-ry98hYARXdN27wXhtqg,Graduate Berkeley,"['lodging', 'restaurant', 'food', 'point_of_interest', 'establishment']","2600 Durant Avenue, Berkeley","37.867936, -122.2563213"
42,"Berkeley, California",restaurant,ChIJc5ERRVOHj4ARu2mIe7m3x-E,Mua Oakland,"['bar', 'restaurant', 'food', 'point_of_interest', 'establishment']","2442a Webster Street, Oakland","37.81408199999999, -122.264354"
43,"Berkeley, California",restaurant,ChIJw3k8iZ5-hYARJSkLTdSXbls,Comal,"['bar', 'restaurant', 'food', 'point_of_interest', 'establishment']","2020 Shattuck Avenue, Berkeley","37.87158069999999, -122.2686336"
44,"Berkeley, California",restaurant,ChIJJWghYeJ9hYARId9jSvP1Hrg,Aunt Mary's Cafe,"['restaurant', 'food', 'point_of_interest', 'establishment']","4640 Telegraph Avenue, Oakland","37.8341343, -122.2628894"
45,"Berkeley, California",restaurant,ChIJ9bZJbMN9hYARZ3JGwPCPnfc,Zachary's Chicago Pizza,"['restaurant', 'food', 'point_of_interest', 'establishment']","5801 College Avenue, Oakland","37.8462614, -122.2521318"
46,"Berkeley, California",restaurant,ChIJNwUiuJ1-hYARlmMobInl1SI,Jupiter,"['bar', 'restaurant', 'food', 'point_of_interest', 'establishment']","2181 Shattuck Avenue, Berkeley","37.8698102, -122.2675949"
47,"Berkeley, California",restaurant,ChIJcYtcJaF-hYAR-VzrwZpQY0E,Chez Panisse,"['cafe', 'restaurant', 'food', 'point_of_interest', 'establishment']","1517 Shattuck Avenue, Berkeley","37.879594, -122.268935"
48,"Berkeley, California",restaurant,ChIJxyGNjMeAj4ARPsZG3cEG1Jc,Yoshi's Oakland,"['night_club', 'bar', 'restaurant', 'food', 'point_of_interest', 'establishment']","510 Embarcadero West, Oakland","37.796237, -122.2785532"
49,"Berkeley, California",restaurant,ChIJ6XYD2ZGAhYARhDX0sVfc6Cc,Millennium,"['restaurant', 'food', 'point_of_interest', 'establishment']","5912 College Avenue, Oakland","37.8474938, -122.2518617"
50,"Berkeley, California",restaurant,ChIJjU9u7SN_hYARmRvUMMDgJXw,Skates on the Bay,"['bar', 'restaurant', 'food', 'point_of_interest', 'establishment']","100 Seawall Drive, Berkeley","37.8636377, -122.3180662"
51,"Berkeley, California",restaurant,ChIJaYHARDB8hYARRY9Kq7EU3q0,International House Cafe,"['cafe', 'store', 'restaurant', 'food', 'point_of_interest', 'establishment']","2299 Piedmont Avenue, Berkeley","37.8696799, -122.2520091"
52,"Berkeley, California",restaurant,ChIJk5SFZ0qHj4ARgHF_fZQLnIM,Lake Chalet | Seafood Bar & Grill,"['restaurant', 'food', 'point_of_interest', 'establishment']","1520 Lakeside Drive, Oakland","37.8022314, -122.2615837"
53,"Berkeley, California",restaurant,ChIJu948xPZ9hYARMOy-BUTq8pE,Fentons Creamery,"['store', 'restaurant', 'food', 'point_of_interest', 'establishment']","4226 Piedmont Avenue, Oakland","37.8280029, -122.2501279"
54,"Berkeley, California",restaurant,ChIJXdv0KzJ5hYAR8NOcfA4n49w,Little Star Pizza,"['restaurant', 'food', 'point_of_interest', 'establishment']","1181 Solano Avenue, Albany","37.89055609999999, -122.2968251"
55,"Berkeley, California",restaurant,ChIJucLtwJ1-hYAR7qhrXpzINOo,Ippuku,"['bar', 'restaurant', 'food', 'point_of_interest', 'establishment']","2130 Center Street, Berkeley","37.87029100000001, -122.267111"
56,"Berkeley, California",restaurant,ChIJqUoig51-hYARUnXjcqs8-sg,Gather,"['bar', 'restaurant', 'food', 'point_of_interest', 'establishment']","2200 Oxford Street, Berkeley","37.8695169, -122.2661288"
57,"Berkeley, California",restaurant,ChIJVTRIc7KAj4ARQMuaZiW2gjs,Duende,"['liquor_store', 'bar', 'store', 'restaurant', 'food', 'point_of_interest', 'establishment']","468 19th Street, Oakland","37.8081101, -122.2695472"
58,"Berkeley, California",restaurant,ChIJq_X1RE-Hj4ARVMeNS1IGW-8,Jong Ga House,"['restaurant', 'food', 'point_of_interest', 'establishment']","372 Grand Avenue, Oakland","37.809134, -122.2549504"
59,"Berkeley, California",restaurant,ChIJ_af28sJ9hYARSjYUdP5GYTY,Oliveto,"['bar', 'restaurant', 'food', 'point_of_interest', 'establishment']","5655 College Avenue, Oakland","37.8438624, -122.2518558"
0,"Palo Alto, California",restaurant,ChIJ2wJOX6yjj4ARHXWap7-AdhM,Donato Enoteca,"['bar', 'restaurant', 'food', 'point_of_interest', 'establishment']","1041 Middlefield Road, Redwood City","37.484386, -122.226882"
1,"Palo Alto, California",restaurant,ChIJIe9vfzC7j4ARKMPewN6Czv4,Restaurant Soleil,"['restaurant', 'food', 'point_of_interest', 'establishment']","675 El Camino Real, Palo Alto","37.44056889999999, -122.1631209"
2,"Palo Alto, California",restaurant,ChIJ2VtDOzS7j4ARaKOgGvJXoJ4,Fleming’s Prime Steakhouse & Wine Bar,"['bar', 'restaurant', 'food', 'point_of_interest', 'establishment']","180 El Camino Real, Palo Alto","37.4445953, -122.1704183"
3,"Palo Alto, California",restaurant,ChIJwWcdxzi7j4ARSPpV37nhr58,Tamarine Restaurant & Gallery,"['bar', 'restaurant', 'food', 'point_of_interest', 'establishment']","546 University Avenue, Palo Alto","37.44888899999999, -122.158481"
4,"Palo Alto, California",restaurant,ChIJQ7QsMzq7j4ARidQmfZss-Wc,Coconuts,"['bar', 'restaurant', 'food', 'point_of_interest', 'establishment']","642 Ramona Street, Palo Alto","37.4439101, -122.1601889"
5,"Palo Alto, California",restaurant,ChIJ5V-QXKiwj4ARv5e-BSB9fiA,In-N-Out Burger,"['restaurant', 'food', 'point_of_interest', 'establishment']","1159 North Rengstorff Avenue, Mountain View","37.4209559, -122.093343"
6,"Palo Alto, California",restaurant,ChIJpf2l3zi7j4ARq9jTYIKdfb0,Il Fornaio,"['restaurant', 'food', 'point_of_interest', 'establishment']","520 Cowper Street, Palo Alto","37.4479051, -122.1588629"
7,"Palo Alto, California",restaurant,ChIJtWFrFmO6j4ARbA4cFdc8mG0,So Gong Dong Tofu House,"['restaurant', 'food', 'point_of_interest', 'establishment']","4127 El Camino Real, Palo Alto","37.4137821, -122.125388"
8,"Palo Alto, California",restaurant,ChIJRbsp9uW6j4ARyUJHxK7xFX8,La Bodeguita Del Medio,"['restaurant', 'food', 'point_of_interest', 'establishment']","463 California Avenue, Palo Alto","37.4255204, -122.1452713"
9,"Palo Alto, California",restaurant,ChIJdwmtjjm7j4ARuuLA95wq7wQ,Nola,"['night_club', 'bar', 'restaurant', 'food', 'point_of_interest', 'establishment']","535 Ramona Street, Palo Alto","37.44503270000001, -122.1613454"
10,"Palo Alto, California",restaurant,ChIJY0yKLzq7j4ARNNLYPbJMgN8,Reposado,"['bar', 'restaurant', 'food', 'point_of_interest', 'establishment']","236 Hamilton Avenue, Palo Alto","37.4442187, -122.1610581"
11,"Palo Alto, California",restaurant,ChIJ9RrLdDq7j4ARlnUomJYc3iw,Pampas,"['bar', 'restaurant', 'food', 'point_of_interest', 'establishment']","529 Alma Street, Palo Alto","37.44304899999999, -122.16286"
12,"Palo Alto, California",restaurant,ChIJEQbMSzq7j4ARCIzIQRU45og,Buca di Beppo Italian Restaurant,"['restaurant', 'food', 'point_of_interest', 'establishment']","643 Emerson Street, Palo Alto","37.4435214, -122.1605738"
13,"Palo Alto, California",restaurant,ChIJw4w5aNS6j4AR9LgOtniCDno,The Treehouse,"['restaurant', 'food', 'point_of_interest', 'establishment']","459 Lagunita Drive, Stanford","37.4239716, -122.1710901"
14,"Palo Alto, California",restaurant,ChIJ5cmUATq7j4ARYSY3cHys344,Amber Dhara,"['bar', 'restaurant', 'food', 'point_of_interest', 'establishment']","150 University Avenue, Palo Alto","37.443997, -122.162979"
15,"Palo Alto, California",restaurant,ChIJY5UIijm7j4ARPkLgY0DXJuI,Coupa Cafe - Ramona,"['cafe', 'store', 'restaurant', 'food', 'point_of_interest', 'establishment']","538 Ramona St, Palo Alto","37.44472349999999, -122.1614973"
16,"Palo Alto, California",restaurant,ChIJEab-iDm7j4ARBeB5pIYXEE8,The Old Pro,"['bar', 'restaurant', 'food', 'point_of_interest', 'establishment']","541 Ramona Street, Palo Alto","37.4448897, -122.1612954"
17,"Palo Alto, California",restaurant,ChIJWUOqde-wj4ARvFRj5XeG0CY,Los Altos Grill,"['restaurant', 'food', 'point_of_interest', 'establishment']","233 3rd Street, Los Altos","37.378222, -122.114857"
18,"Palo Alto, California",restaurant,ChIJByU8Zze7j4ARtKef7nHMEks,Evvia Estiatorio,"['restaurant', 'food', 'point_of_interest', 'establishment']","420 Emerson Street, Palo Alto","37.4451287, -122.1637993"
19,"Palo Alto, California",restaurant,ChIJFwkVC72wj4ARgFhN7WeNqAY,Amber India,"['bar', 'restaurant', 'food', 'point_of_interest', 'establishment']","4926 El Camino Real, Los Altos","37.39716549999999, -122.1078403"
20,"Palo Alto, California",restaurant,ChIJ2wJOX6yjj4ARHXWap7-AdhM,Donato Enoteca,"['bar', 'restaurant', 'food', 'point_of_interest', 'establishment']","1041 Middlefield Road, Redwood City","37.484386, -122.226882"
21,"Palo Alto, California",restaurant,ChIJIe9vfzC7j4ARKMPewN6Czv4,Restaurant Soleil,"['restaurant', 'food', 'point_of_interest', 'establishment']","675 El Camino Real, Palo Alto","37.44056889999999, -122.1631209"
22,"Palo Alto, California",restaurant,ChIJ2VtDOzS7j4ARaKOgGvJXoJ4,Fleming’s Prime Steakhouse & Wine Bar,"['bar', 'restaurant', 'food', 'point_of_interest', 'establishment']","180 El Camino Real, Palo Alto","37.4445953, -122.1704183"
23,"Palo Alto, California",restaurant,ChIJwWcdxzi7j4ARSPpV37nhr58,Tamarine Restaurant & Gallery,"['bar', 'restaurant', 'food', 'point_of_interest', 'establishment']","546 University Avenue, Palo Alto","37.44888899999999, -122.158481"
24,"Palo Alto, California",restaurant,ChIJQ7QsMzq7j4ARidQmfZss-Wc,Coconuts,"['bar', 'restaurant', 'food', 'point_of_interest', 'establishment']","642 Ramona Street, Palo Alto","37.4439101, -122.1601889"
25,"Palo Alto, California",restaurant,ChIJ5V-QXKiwj4ARv5e-BSB9fiA,In-N-Out Burger,"['restaurant', 'food', 'point_of_interest', 'establishment']","1159 North Rengstorff Avenue, Mountain View","37.4209559, -122.093343"
26,"Palo Alto, California",restaurant,ChIJpf2l3zi7j4ARq9jTYIKdfb0,Il Fornaio,"['restaurant', 'food', 'point_of_interest', 'establishment']","520 Cowper Street, Palo Alto","37.4479051, -122.1588629"
27,"Palo Alto, California",restaurant,ChIJtWFrFmO6j4ARbA4cFdc8mG0,So Gong Dong Tofu House,"['restaurant', 'food', 'point_of_interest', 'establishment']","4127 El Camino Real, Palo Alto","37.4137821, -122.125388"
28,"Palo Alto, California",restaurant,ChIJRbsp9uW6j4ARyUJHxK7xFX8,La Bodeguita Del Medio,"['restaurant', 'food', 'point_of_interest', 'establishment']","463 California Avenue, Palo Alto","37.4255204, -122.1452713"
29,"Palo Alto, California",restaurant,ChIJdwmtjjm7j4ARuuLA95wq7wQ,Nola,"['night_club', 'bar', 'restaurant', 'food', 'point_of_interest', 'establishment']","535 Ramona Street, Palo Alto","37.44503270000001, -122.1613454"
30,"Palo Alto, California",restaurant,ChIJY0yKLzq7j4ARNNLYPbJMgN8,Reposado,"['bar', 'restaurant', 'food', 'point_of_interest', 'establishment']","236 Hamilton Avenue, Palo Alto","37.4442187, -122.1610581"
31,"Palo Alto, California",restaurant,ChIJ9RrLdDq7j4ARlnUomJYc3iw,Pampas,"['bar', 'restaurant', 'food', 'point_of_interest', 'establishment']","529 Alma Street, Palo Alto","37.44304899999999, -122.16286"
32,"Palo Alto, California",restaurant,ChIJEQbMSzq7j4ARCIzIQRU45og,Buca di Beppo Italian Restaurant,"['restaurant', 'food', 'point_of_interest', 'establishment']","643 Emerson Street, Palo Alto","37.4435214, -122.1605738"
33,"Palo Alto, California",restaurant,ChIJw4w5aNS6j4AR9LgOtniCDno,The Treehouse,"['restaurant', 'food', 'point_of_interest', 'establishment']","459 Lagunita Drive, Stanford","37.4239716, -122.1710901"
34,"Palo Alto, California",restaurant,ChIJ5cmUATq7j4ARYSY3cHys344,Amber Dhara,"['bar', 'restaurant', 'food', 'point_of_interest', 'establishment']","150 University Avenue, Palo Alto","37.443997, -122.162979"
35,"Palo Alto, California",restaurant,ChIJY5UIijm7j4ARPkLgY0DXJuI,Coupa Cafe - Ramona,"['cafe', 'store', 'restaurant', 'food', 'point_of_interest', 'establishment']","538 Ramona St, Palo Alto","37.44472349999999, -122.1614973"
36,"Palo Alto, California",restaurant,ChIJEab-iDm7j4ARBeB5pIYXEE8,The Old Pro,"['bar', 'restaurant', 'food', 'point_of_interest', 'establishment']","541 Ramona Street, Palo Alto","37.4448897, -122.1612954"
37,"Palo Alto, California",restaurant,ChIJWUOqde-wj4ARvFRj5XeG0CY,Los Altos Grill,"['restaurant', 'food', 'point_of_interest', 'establishment']","233 3rd Street, Los Altos","37.378222, -122.114857"
38,"Palo Alto, California",restaurant,ChIJByU8Zze7j4ARtKef7nHMEks,Evvia Estiatorio,"['restaurant', 'food', 'point_of_interest', 'establishment']","420 Emerson Street, Palo Alto","37.4451287, -122.1637993"
39,"Palo Alto, California",restaurant,ChIJFwkVC72wj4ARgFhN7WeNqAY,Amber India,"['bar', 'restaurant', 'food', 'point_of_interest', 'establishment']","4926 El Camino Real, Los Altos","37.39716549999999, -122.1078403"
40,"Palo Alto, California",restaurant,ChIJ2wJOX6yjj4ARHXWap7-AdhM,Donato Enoteca,"['bar', 'restaurant', 'food', 'point_of_interest', 'establishment']","1041 Middlefield Road, Redwood City","37.484386, -122.226882"
41,"Palo Alto, California",restaurant,ChIJIe9vfzC7j4ARKMPewN6Czv4,Restaurant Soleil,"['restaurant', 'food', 'point_of_interest', 'establishment']","675 El Camino Real, Palo Alto","37.44056889999999, -122.1631209"
42,"Palo Alto, California",restaurant,ChIJ2VtDOzS7j4ARaKOgGvJXoJ4,Fleming’s Prime Steakhouse & Wine Bar,"['bar', 'restaurant', 'food', 'point_of_interest', 'establishment']","180 El Camino Real, Palo Alto","37.4445953, -122.1704183"
43,"Palo Alto, California",restaurant,ChIJwWcdxzi7j4ARSPpV37nhr58,Tamarine Restaurant & Gallery,"['bar', 'restaurant', 'food', 'point_of_interest', 'establishment']","546 University Avenue, Palo Alto","37.44888899999999, -122.158481"
44,"Palo Alto, California",restaurant,ChIJQ7QsMzq7j4ARidQmfZss-Wc,Coconuts,"['bar', 'restaurant', 'food', 'point_of_interest', 'establishment']","642 Ramona Street, Palo Alto","37.4439101, -122.1601889"
45,"Palo Alto, California",restaurant,ChIJ5V-QXKiwj4ARv5e-BSB9fiA,In-N-Out Burger,"['restaurant', 'food', 'point_of_interest', 'establishment']","1159 North Rengstorff Avenue, Mountain View","37.4209559, -122.093343"
46,"Palo Alto, California",restaurant,ChIJpf2l3zi7j4ARq9jTYIKdfb0,Il Fornaio,"['restaurant', 'food', 'point_of_interest', 'establishment']","520 Cowper Street, Palo Alto","37.4479051, -122.1588629"
47,"Palo Alto, California",restaurant,ChIJtWFrFmO6j4ARbA4cFdc8mG0,So Gong Dong Tofu House,"['restaurant', 'food', 'point_of_interest', 'establishment']","4127 El Camino Real, Palo Alto","37.4137821, -122.125388"
48,"Palo Alto, California",restaurant,ChIJRbsp9uW6j4ARyUJHxK7xFX8,La Bodeguita Del Medio,"['restaurant', 'food', 'point_of_interest', 'establishment']","463 California Avenue, Palo Alto","37.4255204, -122.1452713"
49,"Palo Alto, California",restaurant,ChIJdwmtjjm7j4ARuuLA95wq7wQ,Nola,"['night_club', 'bar', 'restaurant', 'food', 'point_of_interest', 'establishment']","535 Ramona Street, Palo Alto","37.44503270000001, -122.1613454"
50,"Palo Alto, California",restaurant,ChIJY0yKLzq7j4ARNNLYPbJMgN8,Reposado,"['bar', 'restaurant', 'food', 'point_of_interest', 'establishment']","236 Hamilton Avenue, Palo Alto","37.4442187, -122.1610581"
51,"Palo Alto, California",restaurant,ChIJ9RrLdDq7j4ARlnUomJYc3iw,Pampas,"['bar', 'restaurant', 'food', 'point_of_interest', 'establishment']","529 Alma Street, Palo Alto","37.44304899999999, -122.16286"
52,"Palo Alto, California",restaurant,ChIJEQbMSzq7j4ARCIzIQRU45og,Buca di Beppo Italian Restaurant,"['restaurant', 'food', 'point_of_interest', 'establishment']","643 Emerson Street, Palo Alto","37.4435214, -122.1605738"
53,"Palo Alto, California",restaurant,ChIJw4w5aNS6j4AR9LgOtniCDno,The Treehouse,"['restaurant', 'food', 'point_of_interest', 'establishment']","459 Lagunita Drive, Stanford","37.4239716, -122.1710901"
54,"Palo Alto, California",restaurant,ChIJ5cmUATq7j4ARYSY3cHys344,Amber Dhara,"['bar', 'restaurant', 'food', 'point_of_interest', 'establishment']","150 University Avenue, Palo Alto","37.443997, -122.162979"
55,"Palo Alto, California",restaurant,ChIJY5UIijm7j4ARPkLgY0DXJuI,Coupa Cafe - Ramona,"['cafe', 'store', 'restaurant', 'food', 'point_of_interest', 'establishment']","538 Ramona St, Palo Alto","37.44472349999999, -122.1614973"
56,"Palo Alto, California",restaurant,ChIJEab-iDm7j4ARBeB5pIYXEE8,The Old Pro,"['bar', 'restaurant', 'food', 'point_of_interest', 'establishment']","541 Ramona Street, Palo Alto","37.4448897, -122.1612954"
57,"Palo Alto, California",restaurant,ChIJWUOqde-wj4ARvFRj5XeG0CY,Los Altos Grill,"['restaurant', 'food', 'point_of_interest', 'establishment']","233 3rd Street, Los Altos","37.378222, -122.114857"
58,"Palo Alto, California",restaurant,ChIJByU8Zze7j4ARtKef7nHMEks,Evvia Estiatorio,"['restaurant', 'food', 'point_of_interest', 'establishment']","420 Emerson Street, Palo Alto","37.4451287, -122.1637993"
59,"Palo Alto, California",restaurant,ChIJFwkVC72wj4ARgFhN7WeNqAY,Amber India,"['bar', 'restaurant', 'food', 'point_of_interest', 'establishment']","4926 El Camino Real, Los Altos","37.39716549999999, -122.1078403"
0,"Mountain View, California",restaurant,ChIJvaF_vOfJj4ARAr614TvZHHI,The Plaza Suites Hotel Silicon Valley,"['lodging', 'restaurant', 'food', 'point_of_interest', 'establishment']","3100 Lakeside Drive, Santa Clara","37.3866049, -121.9832137"
1,"Mountain View, California",restaurant,ChIJkQtw0AG3j4ARIXn997_1d7o,Subway Restaurants,"['restaurant', 'food', 'point_of_interest', 'establishment']","415 North Mary Avenue #105, Sunnyvale","37.3899251, -122.042305"
2,"Mountain View, California",restaurant,ChIJ5V-QXKiwj4ARv5e-BSB9fiA,In-N-Out Burger,"['restaurant', 'food', 'point_of_interest', 'establishment']","1159 North Rengstorff Avenue, Mountain View","37.4209559, -122.093343"
3,"Mountain View, California",restaurant,ChIJl6iCf4q2j4AR9bQRu7_0fHI,Chick-fil-A,"['restaurant', 'food', 'point_of_interest', 'establishment']","550 West El Camino Real, Sunnyvale","37.3691655, -122.038418"
4,"Mountain View, California",restaurant,ChIJtWFrFmO6j4ARbA4cFdc8mG0,So Gong Dong Tofu House,"['restaurant', 'food', 'point_of_interest', 'establishment']","4127 El Camino Real, Palo Alto","37.4137821, -122.125388"
5,"Mountain View, California",restaurant,ChIJnd9jPSi3j4AR5m7u0VrveB8,In-N-Out Burger,"['restaurant', 'food', 'point_of_interest', 'establishment']","53 West El Camino Real, Mountain View","37.3804071, -122.0740339"
6,"Mountain View, California",restaurant,ChIJS-AArV22j4AR1rJD3ENugCU,Dishdash,"['restaurant', 'food', 'point_of_interest', 'establishment']","190 South Murphy Avenue, Sunnyvale","37.376177, -122.030136"
7,"Mountain View, California",restaurant,ChIJM75zpLa1j4ARd8IiWxkW30g,BJ's Restaurant & Brewhouse,"['restaurant', 'bar', 'meal_takeaway', 'food', 'point_of_interest', 'establishment']","10690 North De Anza Boulevard, Cupertino","37.3313165, -122.0317375"
8,"Mountain View, California",restaurant,ChIJRbsp9uW6j4ARyUJHxK7xFX8,La Bodeguita Del Medio,"['restaurant', 'food', 'point_of_interest', 'establishment']","463 California Avenue, Palo Alto","37.4255204, -122.1452713"
9,"Mountain View, California",restaurant,ChIJMf-AUFy2j4ARBwnev5VPorM,Turmeric Restaurant,"['bar', 'restaurant', 'food', 'point_of_interest', 'establishment']","141 South Murphy Avenue, Sunnyvale","37.3769745, -122.0304338"
10,"Mountain View, California",restaurant,ChIJqXPxUB62j4AR2JlxNnV6JD8,Subway Restaurants,"['restaurant', 'food', 'point_of_interest', 'establishment']","500 Lawrence Expressway G, Sunnyvale","37.3819293, -121.9953658"
11,"Mountain View, California",restaurant,ChIJWUOqde-wj4ARvFRj5XeG0CY,Los Altos Grill,"['restaurant', 'food', 'point_of_interest', 'establishment']","233 3rd Street, Los Altos","37.378222, -122.114857"
12,"Mountain View, California",restaurant,ChIJ3RGpIJ22j4ARrZEBUTtqDXc,Saravanaa Bhavan,"['restaurant', 'food', 'point_of_interest', 'establishment']","1305 South Mary Avenue, Sunnyvale","37.3509003, -122.0508582"
13,"Mountain View, California",restaurant,ChIJUyIIXt-1j4ARFabxFSO25bA,Marie Callender's,"['bakery', 'meal_takeaway', 'store', 'restaurant', 'food', 'point_of_interest', 'establishment']","751 East El Camino Real, Sunnyvale","37.35814089999999, -122.0197053"
14,"Mountain View, California",restaurant,ChIJu5DJuWG2j4AR_rOKA_FQLs0,P.F. Chang's,"['restaurant', 'food', 'point_of_interest', 'establishment']","390 W El Camino Real, Sunnyvale","37.3686416, -122.0366398"
15,"Mountain View, California",restaurant,ChIJIe9vfzC7j4ARKMPewN6Czv4,Restaurant Soleil,"['restaurant', 'food', 'point_of_interest', 'establishment']","675 El Camino Real, Palo Alto","37.44056889999999, -122.1631209"
16,"Mountain View, California",restaurant,ChIJa32mXVy2j4ARe-MELZRc4og,Firehouse Grill & Brewery,"['bar', 'restaurant', 'food', 'point_of_interest', 'establishment']","111 South Murphy Avenue, Sunnyvale","37.37740660000001, -122.0302377"
17,"Mountain View, California",restaurant,ChIJlbIO1Oi2j4ARp17Uf24xkHk,Madras Café,"['cafe', 'store', 'restaurant', 'food', 'point_of_interest', 'establishment']","1177 West El Camino Real, Sunnyvale","37.3742998, -122.0549015"
18,"Mountain View, California",restaurant,ChIJy5ey6wK2j4AR1_k5tlm9mKI,Sweet Tomatoes,"['restaurant', 'food', 'point_of_interest', 'establishment']","1210 Kifer Road, Sunnyvale","37.373558, -121.994466"
19,"Mountain View, California",restaurant,ChIJvQFJjt_Jj4ARBdSOaKE_wGo,Faultline Brewing Company,"['bar', 'restaurant', 'food', 'point_of_interest', 'establishment']","1235 Oakmead Parkway, Sunnyvale","37.38764870000001, -121.9924739"
20,"Mountain View, California",restaurant,ChIJvaF_vOfJj4ARAr614TvZHHI,The Plaza Suites Hotel Silicon Valley,"['lodging', 'restaurant', 'food', 'point_of_interest', 'establishment']","3100 Lakeside Drive, Santa Clara","37.3866049, -121.9832137"
21,"Mountain View, California",restaurant,ChIJkQtw0AG3j4ARIXn997_1d7o,Subway Restaurants,"['restaurant', 'food', 'point_of_interest', 'establishment']","415 North Mary Avenue #105, Sunnyvale","37.3899251, -122.042305"
22,"Mountain View, California",restaurant,ChIJ5V-QXKiwj4ARv5e-BSB9fiA,In-N-Out Burger,"['restaurant', 'food', 'point_of_interest', 'establishment']","1159 North Rengstorff Avenue, Mountain View","37.4209559, -122.093343"
23,"Mountain View, California",restaurant,ChIJl6iCf4q2j4AR9bQRu7_0fHI,Chick-fil-A,"['restaurant', 'food', 'point_of_interest', 'establishment']","550 West El Camino Real, Sunnyvale","37.3691655, -122.038418"
24,"Mountain View, California",restaurant,ChIJtWFrFmO6j4ARbA4cFdc8mG0,So Gong Dong Tofu House,"['restaurant', 'food', 'point_of_interest', 'establishment']","4127 El Camino Real, Palo Alto","37.4137821, -122.125388"
25,"Mountain View, California",restaurant,ChIJnd9jPSi3j4AR5m7u0VrveB8,In-N-Out Burger,"['restaurant', 'food', 'point_of_interest', 'establishment']","53 West El Camino Real, Mountain View","37.3804071, -122.0740339"
26,"Mountain View, California",restaurant,ChIJS-AArV22j4AR1rJD3ENugCU,Dishdash,"['restaurant', 'food', 'point_of_interest', 'establishment']","190 South Murphy Avenue, Sunnyvale","37.376177, -122.030136"
27,"Mountain View, California",restaurant,ChIJM75zpLa1j4ARd8IiWxkW30g,BJ's Restaurant & Brewhouse,"['restaurant', 'bar', 'meal_takeaway', 'food', 'point_of_interest', 'establishment']","10690 North De Anza Boulevard, Cupertino","37.3313165, -122.0317375"
28,"Mountain View, California",restaurant,ChIJRbsp9uW6j4ARyUJHxK7xFX8,La Bodeguita Del Medio,"['restaurant', 'food', 'point_of_interest', 'establishment']","463 California Avenue, Palo Alto","37.4255204, -122.1452713"
29,"Mountain View, California",restaurant,ChIJMf-AUFy2j4ARBwnev5VPorM,Turmeric Restaurant,"['bar', 'restaurant', 'food', 'point_of_interest', 'establishment']","141 South Murphy Avenue, Sunnyvale","37.3769745, -122.0304338"
30,"Mountain View, California",restaurant,ChIJqXPxUB62j4AR2JlxNnV6JD8,Subway Restaurants,"['restaurant', 'food', 'point_of_interest', 'establishment']","500 Lawrence Expressway G, Sunnyvale","37.3819293, -121.9953658"
31,"Mountain View, California",restaurant,ChIJWUOqde-wj4ARvFRj5XeG0CY,Los Altos Grill,"['restaurant', 'food', 'point_of_interest', 'establishment']","233 3rd Street, Los Altos","37.378222, -122.114857"
32,"Mountain View, California",restaurant,ChIJ3RGpIJ22j4ARrZEBUTtqDXc,Saravanaa Bhavan,"['restaurant', 'food', 'point_of_interest', 'establishment']","1305 South Mary Avenue, Sunnyvale","37.3509003, -122.0508582"
33,"Mountain View, California",restaurant,ChIJUyIIXt-1j4ARFabxFSO25bA,Marie Callender's,"['bakery', 'meal_takeaway', 'store', 'restaurant', 'food', 'point_of_interest', 'establishment']","751 East El Camino Real, Sunnyvale","37.35814089999999, -122.0197053"
34,"Mountain View, California",restaurant,ChIJu5DJuWG2j4AR_rOKA_FQLs0,P.F. Chang's,"['restaurant', 'food', 'point_of_interest', 'establishment']","390 W El Camino Real, Sunnyvale","37.3686416, -122.0366398"
35,"Mountain View, California",restaurant,ChIJIe9vfzC7j4ARKMPewN6Czv4,Restaurant Soleil,"['restaurant', 'food', 'point_of_interest', 'establishment']","675 El Camino Real, Palo Alto","37.44056889999999, -122.1631209"
36,"Mountain View, California",restaurant,ChIJa32mXVy2j4ARe-MELZRc4og,Firehouse Grill & Brewery,"['bar', 'restaurant', 'food', 'point_of_interest', 'establishment']","111 South Murphy Avenue, Sunnyvale","37.37740660000001, -122.0302377"
37,"Mountain View, California",restaurant,ChIJlbIO1Oi2j4ARp17Uf24xkHk,Madras Café,"['cafe', 'store', 'restaurant', 'food', 'point_of_interest', 'establishment']","1177 West El Camino Real, Sunnyvale","37.3742998, -122.0549015"
38,"Mountain View, California",restaurant,ChIJy5ey6wK2j4AR1_k5tlm9mKI,Sweet Tomatoes,"['restaurant', 'food', 'point_of_interest', 'establishment']","1210 Kifer Road, Sunnyvale","37.373558, -121.994466"
39,"Mountain View, California",restaurant,ChIJvQFJjt_Jj4ARBdSOaKE_wGo,Faultline Brewing Company,"['bar', 'restaurant', 'food', 'point_of_interest', 'establishment']","1235 Oakmead Parkway, Sunnyvale","37.38764870000001, -121.9924739"
40,"Mountain View, California",restaurant,ChIJvaF_vOfJj4ARAr614TvZHHI,The Plaza Suites Hotel Silicon Valley,"['lodging', 'restaurant', 'food', 'point_of_interest', 'establishment']","3100 Lakeside Drive, Santa Clara","37.3866049, -121.9832137"
41,"Mountain View, California",restaurant,ChIJkQtw0AG3j4ARIXn997_1d7o,Subway Restaurants,"['restaurant', 'food', 'point_of_interest', 'establishment']","415 North Mary Avenue #105, Sunnyvale","37.3899251, -122.042305"
42,"Mountain View, California",restaurant,ChIJ5V-QXKiwj4ARv5e-BSB9fiA,In-N-Out Burger,"['restaurant', 'food', 'point_of_interest', 'establishment']","1159 North Rengstorff Avenue, Mountain View","37.4209559, -122.093343"
43,"Mountain View, California",restaurant,ChIJl6iCf4q2j4AR9bQRu7_0fHI,Chick-fil-A,"['restaurant', 'food', 'point_of_interest', 'establishment']","550 West El Camino Real, Sunnyvale","37.3691655, -122.038418"
44,"Mountain View, California",restaurant,ChIJtWFrFmO6j4ARbA4cFdc8mG0,So Gong Dong Tofu House,"['restaurant', 'food', 'point_of_interest', 'establishment']","4127 El Camino Real, Palo Alto","37.4137821, -122.125388"
45,"Mountain View, California",restaurant,ChIJnd9jPSi3j4AR5m7u0VrveB8,In-N-Out Burger,"['restaurant', 'food', 'point_of_interest', 'establishment']","53 West El Camino Real, Mountain View","37.3804071, -122.0740339"
46,"Mountain View, California",restaurant,ChIJS-AArV22j4AR1rJD3ENugCU,Dishdash,"['restaurant', 'food', 'point_of_interest', 'establishment']","190 South Murphy Avenue, Sunnyvale","37.376177, -122.030136"
47,"Mountain View, California",restaurant,ChIJM75zpLa1j4ARd8IiWxkW30g,BJ's Restaurant & Brewhouse,"['restaurant', 'bar', 'meal_takeaway', 'food', 'point_of_interest', 'establishment']","10690 North De Anza Boulevard, Cupertino","37.3313165, -122.0317375"
48,"Mountain View, California",restaurant,ChIJRbsp9uW6j4ARyUJHxK7xFX8,La Bodeguita Del Medio,"['restaurant', 'food', 'point_of_interest', 'establishment']","463 California Avenue, Palo Alto","37.4255204, -122.1452713"
49,"Mountain View, California",restaurant,ChIJMf-AUFy2j4ARBwnev5VPorM,Turmeric Restaurant,"['bar', 'restaurant', 'food', 'point_of_interest', 'establishment']","141 South Murphy Avenue, Sunnyvale","37.3769745, -122.0304338"
50,"Mountain View, California",restaurant,ChIJqXPxUB62j4AR2JlxNnV6JD8,Subway Restaurants,"['restaurant', 'food', 'point_of_interest', 'establishment']","500 Lawrence Expressway G, Sunnyvale","37.3819293, -121.9953658"
51,"Mountain View, California",restaurant,ChIJWUOqde-wj4ARvFRj5XeG0CY,Los Altos Grill,"['restaurant', 'food', 'point_of_interest', 'establishment']","233 3rd Street, Los Altos","37.378222, -122.114857"
52,"Mountain View, California",restaurant,ChIJ3RGpIJ22j4ARrZEBUTtqDXc,Saravanaa Bhavan,"['restaurant', 'food', 'point_of_interest', 'establishment']","1305 South Mary Avenue, Sunnyvale","37.3509003, -122.0508582"
53,"Mountain View, California",restaurant,ChIJUyIIXt-1j4ARFabxFSO25bA,Marie Callender's,"['bakery', 'meal_takeaway', 'store', 'restaurant', 'food', 'point_of_interest', 'establishment']","751 East El Camino Real, Sunnyvale","37.35814089999999, -122.0197053"
54,"Mountain View, California",restaurant,ChIJu5DJuWG2j4AR_rOKA_FQLs0,P.F. Chang's,"['restaurant', 'food', 'point_of_interest', 'establishment']","390 W El Camino Real, Sunnyvale","37.3686416, -122.0366398"
55,"Mountain View, California",restaurant,ChIJIe9vfzC7j4ARKMPewN6Czv4,Restaurant Soleil,"['restaurant', 'food', 'point_of_interest', 'establishment']","675 El Camino Real, Palo Alto","37.44056889999999, -122.1631209"
56,"Mountain View, California",restaurant,ChIJa32mXVy2j4ARe-MELZRc4og,Firehouse Grill & Brewery,"['bar', 'restaurant', 'food', 'point_of_interest', 'establishment']","111 South Murphy Avenue, Sunnyvale","37.37740660000001, -122.0302377"
57,"Mountain View, California",restaurant,ChIJlbIO1Oi2j4ARp17Uf24xkHk,Madras Café,"['cafe', 'store', 'restaurant', 'food', 'point_of_interest', 'establishment']","1177 West El Camino Real, Sunnyvale","37.3742998, -122.0549015"
58,"Mountain View, California",restaurant,ChIJy5ey6wK2j4AR1_k5tlm9mKI,Sweet Tomatoes,"['restaurant', 'food', 'point_of_interest', 'establishment']","1210 Kifer Road, Sunnyvale","37.373558, -121.994466"
59,"Mountain View, California",restaurant,ChIJvQFJjt_Jj4ARBdSOaKE_wGo,Faultline Brewing Company,"['bar', 'restaurant', 'food', 'point_of_interest', 'establishment']","1235 Oakmead Parkway, Sunnyvale","37.38764870000001, -121.9924739"
0,"Sunnyvale, California",restaurant,ChIJvaF_vOfJj4ARAr614TvZHHI,The Plaza Suites Hotel Silicon Valley,"['lodging', 'restaurant', 'food', 'point_of_interest', 'establishment']","3100 Lakeside Drive, Santa Clara","37.3866049, -121.9832137"
1,"Sunnyvale, California",restaurant,ChIJH7hSMCjKj4ARGFgaleOZsZc,Athena Grill & Catering,"['restaurant', 'food', 'point_of_interest', 'establishment']","1505 Space Park Drive, Santa Clara","37.37653840000001, -121.9564184"
2,"Sunnyvale, California",restaurant,ChIJX_7Uaoi1j4ARjlLl0tgTL20,Orenchi Ramen,"['restaurant', 'food', 'point_of_interest', 'establishment']","3540 Homestead Road, Santa Clara","37.336347, -121.994157"
3,"Sunnyvale, California",restaurant,ChIJkQtw0AG3j4ARIXn997_1d7o,Subway Restaurants,"['restaurant', 'food', 'point_of_interest', 'establishment']","415 North Mary Avenue #105, Sunnyvale","37.3899251, -122.042305"
4,"Sunnyvale, California",restaurant,ChIJvQ88PywYyUwR3Tcw8JMtTj4,Birk's,"['restaurant', 'food', 'point_of_interest', 'establishment']","3955 Freedom Circle, Santa Clara","37.38555119999999, -121.9729921"
5,"Sunnyvale, California",restaurant,ChIJy_jI65i1j4ARhkl5AjxRYU8,Benihana,"['restaurant', 'food', 'point_of_interest', 'establishment']","2074 Vallco Fashion Park, Cupertino","37.3276814, -122.0134591"
6,"Sunnyvale, California",restaurant,ChIJ5V-QXKiwj4ARv5e-BSB9fiA,In-N-Out Burger,"['restaurant', 'food', 'point_of_interest', 'establishment']","1159 North Rengstorff Avenue, Mountain View","37.4209559, -122.093343"
7,"Sunnyvale, California",restaurant,ChIJR-8-Fva1j4ARNOEp6OoFzKs,Jang Su Jang,"['restaurant', 'food', 'point_of_interest', 'establishment']","3561 El Camino Real #10, Santa Clara","37.3536423, -121.99487"
8,"Sunnyvale, California",restaurant,ChIJM75zpLa1j4ARd8IiWxkW30g,BJ's Restaurant & Brewhouse,"['restaurant', 'bar', 'meal_takeaway', 'food', 'point_of_interest', 'establishment']","10690 North De Anza Boulevard, Cupertino","37.3313165, -122.0317375"
9,"Sunnyvale, California",restaurant,ChIJl6iCf4q2j4AR9bQRu7_0fHI,Chick-fil-A,"['restaurant', 'food', 'point_of_interest', 'establishment']","550 West El Camino Real, Sunnyvale","37.3691655, -122.038418"
10,"Sunnyvale, California",restaurant,ChIJ38II9Ji1j4ARxUTIEfcTGx0,Alexander's Steakhouse,"['restaurant', 'food', 'point_of_interest', 'establishment']","19379 Stevens Creek Boulevard, Cupertino","37.32341210000001, -122.0098412"
11,"Sunnyvale, California",restaurant,ChIJqXPxUB62j4AR2JlxNnV6JD8,Subway Restaurants,"['restaurant', 'food', 'point_of_interest', 'establishment']","500 Lawrence Expressway G, Sunnyvale","37.3819293, -121.9953658"
12,"Sunnyvale, California",restaurant,ChIJnd9jPSi3j4AR5m7u0VrveB8,In-N-Out Burger,"['restaurant', 'food', 'point_of_interest', 'establishment']","53 West El Camino Real, Mountain View","37.3804071, -122.0740339"
13,"Sunnyvale, California",restaurant,ChIJnUjdK6m1j4ARgboPsu46fCc,Le Boulanger,"['bakery', 'store', 'restaurant', 'food', 'point_of_interest', 'establishment']","20488 Stevens Creek Boulevard, Cupertino","37.322578, -122.031267"
14,"Sunnyvale, California",restaurant,ChIJy5ey6wK2j4AR1_k5tlm9mKI,Sweet Tomatoes,"['restaurant', 'food', 'point_of_interest', 'establishment']","1210 Kifer Road, Sunnyvale","37.373558, -121.994466"
15,"Sunnyvale, California",restaurant,ChIJvQFJjt_Jj4ARBdSOaKE_wGo,Faultline Brewing Company,"['bar', 'restaurant', 'food', 'point_of_interest', 'establishment']","1235 Oakmead Parkway, Sunnyvale","37.38764870000001, -121.9924739"
16,"Sunnyvale, California",restaurant,ChIJS-AArV22j4AR1rJD3ENugCU,Dishdash,"['restaurant', 'food', 'point_of_interest', 'establishment']","190 South Murphy Avenue, Sunnyvale","37.376177, -122.030136"
17,"Sunnyvale, California",restaurant,ChIJUyIIXt-1j4ARFabxFSO25bA,Marie Callender's,"['bakery', 'meal_takeaway', 'store', 'restaurant', 'food', 'point_of_interest', 'establishment']","751 East El Camino Real, Sunnyvale","37.35814089999999, -122.0197053"
18,"Sunnyvale, California",restaurant,ChIJMf-AUFy2j4ARBwnev5VPorM,Turmeric Restaurant,"['bar', 'restaurant', 'food', 'point_of_interest', 'establishment']","141 South Murphy Avenue, Sunnyvale","37.3769745, -122.0304338"
19,"Sunnyvale, California",restaurant,ChIJk1D0qxTKj4ARbx5IBynnhxw,HomeTown Buffet,"['restaurant', 'food', 'point_of_interest', 'establishment']","2670 El Camino Real, Santa Clara","37.3511518, -121.9757817"
20,"Sunnyvale, California",restaurant,ChIJvaF_vOfJj4ARAr614TvZHHI,The Plaza Suites Hotel Silicon Valley,"['lodging', 'restaurant', 'food', 'point_of_interest', 'establishment']","3100 Lakeside Drive, Santa Clara","37.3866049, -121.9832137"
21,"Sunnyvale, California",restaurant,ChIJH7hSMCjKj4ARGFgaleOZsZc,Athena Grill & Catering,"['restaurant', 'food', 'point_of_interest', 'establishment']","1505 Space Park Drive, Santa Clara","37.37653840000001, -121.9564184"
22,"Sunnyvale, California",restaurant,ChIJX_7Uaoi1j4ARjlLl0tgTL20,Orenchi Ramen,"['restaurant', 'food', 'point_of_interest', 'establishment']","3540 Homestead Road, Santa Clara","37.336347, -121.994157"
23,"Sunnyvale, California",restaurant,ChIJkQtw0AG3j4ARIXn997_1d7o,Subway Restaurants,"['restaurant', 'food', 'point_of_interest', 'establishment']","415 North Mary Avenue #105, Sunnyvale","37.3899251, -122.042305"
24,"Sunnyvale, California",restaurant,ChIJvQ88PywYyUwR3Tcw8JMtTj4,Birk's,"['restaurant', 'food', 'point_of_interest', 'establishment']","3955 Freedom Circle, Santa Clara","37.38555119999999, -121.9729921"
25,"Sunnyvale, California",restaurant,ChIJy_jI65i1j4ARhkl5AjxRYU8,Benihana,"['restaurant', 'food', 'point_of_interest', 'establishment']","2074 Vallco Fashion Park, Cupertino","37.3276814, -122.0134591"
26,"Sunnyvale, California",restaurant,ChIJ5V-QXKiwj4ARv5e-BSB9fiA,In-N-Out Burger,"['restaurant', 'food', 'point_of_interest', 'establishment']","1159 North Rengstorff Avenue, Mountain View","37.4209559, -122.093343"
27,"Sunnyvale, California",restaurant,ChIJR-8-Fva1j4ARNOEp6OoFzKs,Jang Su Jang,"['restaurant', 'food', 'point_of_interest', 'establishment']","3561 El Camino Real #10, Santa Clara","37.3536423, -121.99487"
28,"Sunnyvale, California",restaurant,ChIJM75zpLa1j4ARd8IiWxkW30g,BJ's Restaurant & Brewhouse,"['restaurant', 'bar', 'meal_takeaway', 'food', 'point_of_interest', 'establishment']","10690 North De Anza Boulevard, Cupertino","37.3313165, -122.0317375"
29,"Sunnyvale, California",restaurant,ChIJl6iCf4q2j4AR9bQRu7_0fHI,Chick-fil-A,"['restaurant', 'food', 'point_of_interest', 'establishment']","550 West El Camino Real, Sunnyvale","37.3691655, -122.038418"
30,"Sunnyvale, California",restaurant,ChIJ38II9Ji1j4ARxUTIEfcTGx0,Alexander's Steakhouse,"['restaurant', 'food', 'point_of_interest', 'establishment']","19379 Stevens Creek Boulevard, Cupertino","37.32341210000001, -122.0098412"
31,"Sunnyvale, California",restaurant,ChIJqXPxUB62j4AR2JlxNnV6JD8,Subway Restaurants,"['restaurant', 'food', 'point_of_interest', 'establishment']","500 Lawrence Expressway G, Sunnyvale","37.3819293, -121.9953658"
32,"Sunnyvale, California",restaurant,ChIJnd9jPSi3j4AR5m7u0VrveB8,In-N-Out Burger,"['restaurant', 'food', 'point_of_interest', 'establishment']","53 West El Camino Real, Mountain View","37.3804071, -122.0740339"
33,"Sunnyvale, California",restaurant,ChIJnUjdK6m1j4ARgboPsu46fCc,Le Boulanger,"['bakery', 'store', 'restaurant', 'food', 'point_of_interest', 'establishment']","20488 Stevens Creek Boulevard, Cupertino","37.322578, -122.031267"
34,"Sunnyvale, California",restaurant,ChIJy5ey6wK2j4AR1_k5tlm9mKI,Sweet Tomatoes,"['restaurant', 'food', 'point_of_interest', 'establishment']","1210 Kifer Road, Sunnyvale","37.373558, -121.994466"
35,"Sunnyvale, California",restaurant,ChIJvQFJjt_Jj4ARBdSOaKE_wGo,Faultline Brewing Company,"['bar', 'restaurant', 'food', 'point_of_interest', 'establishment']","1235 Oakmead Parkway, Sunnyvale","37.38764870000001, -121.9924739"
36,"Sunnyvale, California",restaurant,ChIJS-AArV22j4AR1rJD3ENugCU,Dishdash,"['restaurant', 'food', 'point_of_interest', 'establishment']","190 South Murphy Avenue, Sunnyvale","37.376177, -122.030136"
37,"Sunnyvale, California",restaurant,ChIJUyIIXt-1j4ARFabxFSO25bA,Marie Callender's,"['bakery', 'meal_takeaway', 'store', 'restaurant', 'food', 'point_of_interest', 'establishment']","751 East El Camino Real, Sunnyvale","37.35814089999999, -122.0197053"
38,"Sunnyvale, California",restaurant,ChIJMf-AUFy2j4ARBwnev5VPorM,Turmeric Restaurant,"['bar', 'restaurant', 'food', 'point_of_interest', 'establishment']","141 South Murphy Avenue, Sunnyvale","37.3769745, -122.0304338"
39,"Sunnyvale, California",restaurant,ChIJk1D0qxTKj4ARbx5IBynnhxw,HomeTown Buffet,"['restaurant', 'food', 'point_of_interest', 'establishment']","2670 El Camino Real, Santa Clara","37.3511518, -121.9757817"
40,"Sunnyvale, California",restaurant,ChIJvaF_vOfJj4ARAr614TvZHHI,The Plaza Suites Hotel Silicon Valley,"['lodging', 'restaurant', 'food', 'point_of_interest', 'establishment']","3100 Lakeside Drive, Santa Clara","37.3866049, -121.9832137"
41,"Sunnyvale, California",restaurant,ChIJH7hSMCjKj4ARGFgaleOZsZc,Athena Grill & Catering,"['restaurant', 'food', 'point_of_interest', 'establishment']","1505 Space Park Drive, Santa Clara","37.37653840000001, -121.9564184"
42,"Sunnyvale, California",restaurant,ChIJX_7Uaoi1j4ARjlLl0tgTL20,Orenchi Ramen,"['restaurant', 'food', 'point_of_interest', 'establishment']","3540 Homestead Road, Santa Clara","37.336347, -121.994157"
43,"Sunnyvale, California",restaurant,ChIJkQtw0AG3j4ARIXn997_1d7o,Subway Restaurants,"['restaurant', 'food', 'point_of_interest', 'establishment']","415 North Mary Avenue #105, Sunnyvale","37.3899251, -122.042305"
44,"Sunnyvale, California",restaurant,ChIJvQ88PywYyUwR3Tcw8JMtTj4,Birk's,"['restaurant', 'food', 'point_of_interest', 'establishment']","3955 Freedom Circle, Santa Clara","37.38555119999999, -121.9729921"
45,"Sunnyvale, California",restaurant,ChIJy_jI65i1j4ARhkl5AjxRYU8,Benihana,"['restaurant', 'food', 'point_of_interest', 'establishment']","2074 Vallco Fashion Park, Cupertino","37.3276814, -122.0134591"
46,"Sunnyvale, California",restaurant,ChIJ5V-QXKiwj4ARv5e-BSB9fiA,In-N-Out Burger,"['restaurant', 'food', 'point_of_interest', 'establishment']","1159 North Rengstorff Avenue, Mountain View","37.4209559, -122.093343"
47,"Sunnyvale, California",restaurant,ChIJR-8-Fva1j4ARNOEp6OoFzKs,Jang Su Jang,"['restaurant', 'food', 'point_of_interest', 'establishment']","3561 El Camino Real #10, Santa Clara","37.3536423, -121.99487"
48,"Sunnyvale, California",restaurant,ChIJM75zpLa1j4ARd8IiWxkW30g,BJ's Restaurant & Brewhouse,"['restaurant', 'bar', 'meal_takeaway', 'food', 'point_of_interest', 'establishment']","10690 North De Anza Boulevard, Cupertino","37.3313165, -122.0317375"
49,"Sunnyvale, California",restaurant,ChIJl6iCf4q2j4AR9bQRu7_0fHI,Chick-fil-A,"['restaurant', 'food', 'point_of_interest', 'establishment']","550 West El Camino Real, Sunnyvale","37.3691655, -122.038418"
50,"Sunnyvale, California",restaurant,ChIJ38II9Ji1j4ARxUTIEfcTGx0,Alexander's Steakhouse,"['restaurant', 'food', 'point_of_interest', 'establishment']","19379 Stevens Creek Boulevard, Cupertino","37.32341210000001, -122.0098412"
51,"Sunnyvale, California",restaurant,ChIJqXPxUB62j4AR2JlxNnV6JD8,Subway Restaurants,"['restaurant', 'food', 'point_of_interest', 'establishment']","500 Lawrence Expressway G, Sunnyvale","37.3819293, -121.9953658"
52,"Sunnyvale, California",restaurant,ChIJnd9jPSi3j4AR5m7u0VrveB8,In-N-Out Burger,"['restaurant', 'food', 'point_of_interest', 'establishment']","53 West El Camino Real, Mountain View","37.3804071, -122.0740339"
53,"Sunnyvale, California",restaurant,ChIJnUjdK6m1j4ARgboPsu46fCc,Le Boulanger,"['bakery', 'store', 'restaurant', 'food', 'point_of_interest', 'establishment']","20488 Stevens Creek Boulevard, Cupertino","37.322578, -122.031267"
54,"Sunnyvale, California",restaurant,ChIJy5ey6wK2j4AR1_k5tlm9mKI,Sweet Tomatoes,"['restaurant', 'food', 'point_of_interest', 'establishment']","1210 Kifer Road, Sunnyvale","37.373558, -121.994466"
55,"Sunnyvale, California",restaurant,ChIJvQFJjt_Jj4ARBdSOaKE_wGo,Faultline Brewing Company,"['bar', 'restaurant', 'food', 'point_of_interest', 'establishment']","1235 Oakmead Parkway, Sunnyvale","37.38764870000001, -121.9924739"
56,"Sunnyvale, California",restaurant,ChIJS-AArV22j4AR1rJD3ENugCU,Dishdash,"['restaurant', 'food', 'point_of_interest', 'establishment']","190 South Murphy Avenue, Sunnyvale","37.376177, -122.030136"
57,"Sunnyvale, California",restaurant,ChIJUyIIXt-1j4ARFabxFSO25bA,Marie Callender's,"['bakery', 'meal_takeaway', 'store', 'restaurant', 'food', 'point_of_interest', 'establishment']","751 East El Camino Real, Sunnyvale","37.35814089999999, -122.0197053"
58,"Sunnyvale, California",restaurant,ChIJMf-AUFy2j4ARBwnev5VPorM,Turmeric Restaurant,"['bar', 'restaurant', 'food', 'point_of_interest', 'establishment']","141 South Murphy Avenue, Sunnyvale","37.3769745, -122.0304338"
59,"Sunnyvale, California",restaurant,ChIJk1D0qxTKj4ARbx5IBynnhxw,HomeTown Buffet,"['restaurant', 'food', 'point_of_interest', 'establishment']","2670 El Camino Real, Santa Clara","37.3511518, -121.9757817"
0,"Cupertino, California",restaurant,ChIJvaF_vOfJj4ARAr614TvZHHI,The Plaza Suites Hotel Silicon Valley,"['lodging', 'restaurant', 'food', 'point_of_interest', 'establishment']","3100 Lakeside Drive, Santa Clara","37.3866049, -121.9832137"
1,"Cupertino, California",restaurant,ChIJgexMlR_Lj4ARSvwSxukOgys,Westfield Valley Fair,"['shopping_mall', 'shoe_store', 'department_store', 'clothing_store', 'store', 'restaurant', 'food', 'point_of_interest', 'establishment']","2855 Stevens Creek Boulevard, Santa Clara","37.3257904, -121.9457041"
2,"Cupertino, California",restaurant,ChIJqcnd-9_Kj4ARKHm9BImvexk,LB Steak,"['restaurant', 'food', 'point_of_interest', 'establishment']","334 Santana Row #1000, San Jose","37.32252930000001, -121.9476646"
3,"Cupertino, California",restaurant,ChIJX_7Uaoi1j4ARjlLl0tgTL20,Orenchi Ramen,"['restaurant', 'food', 'point_of_interest', 'establishment']","3540 Homestead Road, Santa Clara","37.336347, -121.994157"
4,"Cupertino, California",restaurant,ChIJNUrKGODKj4ARL6j4poDhmic,Yard House,"['bar', 'restaurant', 'food', 'point_of_interest', 'establishment']","300 Santana Row #101, San Jose","37.3230858, -121.9475833"
5,"Cupertino, California",restaurant,ChIJy_jI65i1j4ARhkl5AjxRYU8,Benihana,"['restaurant', 'food', 'point_of_interest', 'establishment']","2074 Vallco Fashion Park, Cupertino","37.3276814, -122.0134591"
6,"Cupertino, California",restaurant,ChIJkQtw0AG3j4ARIXn997_1d7o,Subway Restaurants,"['restaurant', 'food', 'point_of_interest', 'establishment']","415 North Mary Avenue #105, Sunnyvale","37.3899251, -122.042305"
7,"Cupertino, California",restaurant,ChIJH7hSMCjKj4ARGFgaleOZsZc,Athena Grill & Catering,"['restaurant', 'food', 'point_of_interest', 'establishment']","1505 Space Park Drive, Santa Clara","37.37653840000001, -121.9564184"
8,"Cupertino, California",restaurant,ChIJR-8-Fva1j4ARNOEp6OoFzKs,Jang Su Jang,"['restaurant', 'food', 'point_of_interest', 'establishment']","3561 El Camino Real #10, Santa Clara","37.3536423, -121.99487"
9,"Cupertino, California",restaurant,ChIJ38II9Ji1j4ARxUTIEfcTGx0,Alexander's Steakhouse,"['restaurant', 'food', 'point_of_interest', 'establishment']","19379 Stevens Creek Boulevard, Cupertino","37.32341210000001, -122.0098412"
10,"Cupertino, California",restaurant,ChIJM75zpLa1j4ARd8IiWxkW30g,BJ's Restaurant & Brewhouse,"['restaurant', 'bar', 'meal_takeaway', 'food', 'point_of_interest', 'establishment']","10690 North De Anza Boulevard, Cupertino","37.3313165, -122.0317375"
11,"Cupertino, California",restaurant,ChIJl6iCf4q2j4AR9bQRu7_0fHI,Chick-fil-A,"['restaurant', 'food', 'point_of_interest', 'establishment']","550 West El Camino Real, Sunnyvale","37.3691655, -122.038418"
12,"Cupertino, California",restaurant,ChIJnUjdK6m1j4ARgboPsu46fCc,Le Boulanger,"['bakery', 'store', 'restaurant', 'food', 'point_of_interest', 'establishment']","20488 Stevens Creek Boulevard, Cupertino","37.322578, -122.031267"
13,"Cupertino, California",restaurant,ChIJqXPxUB62j4AR2JlxNnV6JD8,Subway Restaurants,"['restaurant', 'food', 'point_of_interest', 'establishment']","500 Lawrence Expressway G, Sunnyvale","37.3819293, -121.9953658"
14,"Cupertino, California",restaurant,ChIJzz5T0N_Kj4ARcGtZ8nXSYkA,Maggiano's Little Italy,"['restaurant', 'bar', 'food', 'point_of_interest', 'establishment']","3055 Olin Avenue Suite 1000, San Jose","37.320802, -121.9497097"
15,"Cupertino, California",restaurant,ChIJX76EBeDKj4ARDMTabmSeUR8,Straits Restaurant,"['bar', 'restaurant', 'food', 'point_of_interest', 'establishment']","333 Santana Row #1100, San Jose","37.32174919999999, -121.9482408"
16,"Cupertino, California",restaurant,ChIJy5ey6wK2j4AR1_k5tlm9mKI,Sweet Tomatoes,"['restaurant', 'food', 'point_of_interest', 'establishment']","1210 Kifer Road, Sunnyvale","37.373558, -121.994466"
17,"Cupertino, California",restaurant,ChIJS-AArV22j4AR1rJD3ENugCU,Dishdash,"['restaurant', 'food', 'point_of_interest', 'establishment']","190 South Murphy Avenue, Sunnyvale","37.376177, -122.030136"
18,"Cupertino, California",restaurant,ChIJM8WXzt_Kj4ARlAxHGNNuUuc,Left Bank French Brasseries,"['restaurant', 'food', 'point_of_interest', 'establishment']","377 Santana Row #1100, San Jose","37.3197376, -121.9482267"
19,"Cupertino, California",restaurant,ChIJUyIIXt-1j4ARFabxFSO25bA,Marie Callender's,"['bakery', 'meal_takeaway', 'store', 'restaurant', 'food', 'point_of_interest', 'establishment']","751 East El Camino Real, Sunnyvale","37.35814089999999, -122.0197053"
20,"Cupertino, California",restaurant,ChIJvaF_vOfJj4ARAr614TvZHHI,The Plaza Suites Hotel Silicon Valley,"['lodging', 'restaurant', 'food', 'point_of_interest', 'establishment']","3100 Lakeside Drive, Santa Clara","37.3866049, -121.9832137"
21,"Cupertino, California",restaurant,ChIJgexMlR_Lj4ARSvwSxukOgys,Westfield Valley Fair,"['shopping_mall', 'shoe_store', 'department_store', 'clothing_store', 'store', 'restaurant', 'food', 'point_of_interest', 'establishment']","2855 Stevens Creek Boulevard, Santa Clara","37.3257904, -121.9457041"
22,"Cupertino, California",restaurant,ChIJqcnd-9_Kj4ARKHm9BImvexk,LB Steak,"['restaurant', 'food', 'point_of_interest', 'establishment']","334 Santana Row #1000, San Jose","37.32252930000001, -121.9476646"
23,"Cupertino, California",restaurant,ChIJX_7Uaoi1j4ARjlLl0tgTL20,Orenchi Ramen,"['restaurant', 'food', 'point_of_interest', 'establishment']","3540 Homestead Road, Santa Clara","37.336347, -121.994157"
24,"Cupertino, California",restaurant,ChIJNUrKGODKj4ARL6j4poDhmic,Yard House,"['bar', 'restaurant', 'food', 'point_of_interest', 'establishment']","300 Santana Row #101, San Jose","37.3230858, -121.9475833"
25,"Cupertino, California",restaurant,ChIJy_jI65i1j4ARhkl5AjxRYU8,Benihana,"['restaurant', 'food', 'point_of_interest', 'establishment']","2074 Vallco Fashion Park, Cupertino","37.3276814, -122.0134591"
26,"Cupertino, California",restaurant,ChIJkQtw0AG3j4ARIXn997_1d7o,Subway Restaurants,"['restaurant', 'food', 'point_of_interest', 'establishment']","415 North Mary Avenue #105, Sunnyvale","37.3899251, -122.042305"
27,"Cupertino, California",restaurant,ChIJH7hSMCjKj4ARGFgaleOZsZc,Athena Grill & Catering,"['restaurant', 'food', 'point_of_interest', 'establishment']","1505 Space Park Drive, Santa Clara","37.37653840000001, -121.9564184"
28,"Cupertino, California",restaurant,ChIJR-8-Fva1j4ARNOEp6OoFzKs,Jang Su Jang,"['restaurant', 'food', 'point_of_interest', 'establishment']","3561 El Camino Real #10, Santa Clara","37.3536423, -121.99487"
29,"Cupertino, California",restaurant,ChIJ38II9Ji1j4ARxUTIEfcTGx0,Alexander's Steakhouse,"['restaurant', 'food', 'point_of_interest', 'establishment']","19379 Stevens Creek Boulevard, Cupertino","37.32341210000001, -122.0098412"
30,"Cupertino, California",restaurant,ChIJM75zpLa1j4ARd8IiWxkW30g,BJ's Restaurant & Brewhouse,"['restaurant', 'bar', 'meal_takeaway', 'food', 'point_of_interest', 'establishment']","10690 North De Anza Boulevard, Cupertino","37.3313165, -122.0317375"
31,"Cupertino, California",restaurant,ChIJl6iCf4q2j4AR9bQRu7_0fHI,Chick-fil-A,"['restaurant', 'food', 'point_of_interest', 'establishment']","550 West El Camino Real, Sunnyvale","37.3691655, -122.038418"
32,"Cupertino, California",restaurant,ChIJnUjdK6m1j4ARgboPsu46fCc,Le Boulanger,"['bakery', 'store', 'restaurant', 'food', 'point_of_interest', 'establishment']","20488 Stevens Creek Boulevard, Cupertino","37.322578, -122.031267"
33,"Cupertino, California",restaurant,ChIJqXPxUB62j4AR2JlxNnV6JD8,Subway Restaurants,"['restaurant', 'food', 'point_of_interest', 'establishment']","500 Lawrence Expressway G, Sunnyvale","37.3819293, -121.9953658"
34,"Cupertino, California",restaurant,ChIJzz5T0N_Kj4ARcGtZ8nXSYkA,Maggiano's Little Italy,"['restaurant', 'bar', 'food', 'point_of_interest', 'establishment']","3055 Olin Avenue Suite 1000, San Jose","37.320802, -121.9497097"
35,"Cupertino, California",restaurant,ChIJX76EBeDKj4ARDMTabmSeUR8,Straits Restaurant,"['bar', 'restaurant', 'food', 'point_of_interest', 'establishment']","333 Santana Row #1100, San Jose","37.32174919999999, -121.9482408"
36,"Cupertino, California",restaurant,ChIJy5ey6wK2j4AR1_k5tlm9mKI,Sweet Tomatoes,"['restaurant', 'food', 'point_of_interest', 'establishment']","1210 Kifer Road, Sunnyvale","37.373558, -121.994466"
37,"Cupertino, California",restaurant,ChIJS-AArV22j4AR1rJD3ENugCU,Dishdash,"['restaurant', 'food', 'point_of_interest', 'establishment']","190 South Murphy Avenue, Sunnyvale","37.376177, -122.030136"
38,"Cupertino, California",restaurant,ChIJM8WXzt_Kj4ARlAxHGNNuUuc,Left Bank French Brasseries,"['restaurant', 'food', 'point_of_interest', 'establishment']","377 Santana Row #1100, San Jose","37.3197376, -121.9482267"
39,"Cupertino, California",restaurant,ChIJUyIIXt-1j4ARFabxFSO25bA,Marie Callender's,"['bakery', 'meal_takeaway', 'store', 'restaurant', 'food', 'point_of_interest', 'establishment']","751 East El Camino Real, Sunnyvale","37.35814089999999, -122.0197053"
40,"Cupertino, California",restaurant,ChIJvaF_vOfJj4ARAr614TvZHHI,The Plaza Suites Hotel Silicon Valley,"['lodging', 'restaurant', 'food', 'point_of_interest', 'establishment']","3100 Lakeside Drive, Santa Clara","37.3866049, -121.9832137"
41,"Cupertino, California",restaurant,ChIJgexMlR_Lj4ARSvwSxukOgys,Westfield Valley Fair,"['shopping_mall', 'shoe_store', 'department_store', 'clothing_store', 'store', 'restaurant', 'food', 'point_of_interest', 'establishment']","2855 Stevens Creek Boulevard, Santa Clara","37.3257904, -121.9457041"
42,"Cupertino, California",restaurant,ChIJqcnd-9_Kj4ARKHm9BImvexk,LB Steak,"['restaurant', 'food', 'point_of_interest', 'establishment']","334 Santana Row #1000, San Jose","37.32252930000001, -121.9476646"
43,"Cupertino, California",restaurant,ChIJX_7Uaoi1j4ARjlLl0tgTL20,Orenchi Ramen,"['restaurant', 'food', 'point_of_interest', 'establishment']","3540 Homestead Road, Santa Clara","37.336347, -121.994157"
44,"Cupertino, California",restaurant,ChIJNUrKGODKj4ARL6j4poDhmic,Yard House,"['bar', 'restaurant', 'food', 'point_of_interest', 'establishment']","300 Santana Row #101, San Jose","37.3230858, -121.9475833"
45,"Cupertino, California",restaurant,ChIJy_jI65i1j4ARhkl5AjxRYU8,Benihana,"['restaurant', 'food', 'point_of_interest', 'establishment']","2074 Vallco Fashion Park, Cupertino","37.3276814, -122.0134591"
46,"Cupertino, California",restaurant,ChIJkQtw0AG3j4ARIXn997_1d7o,Subway Restaurants,"['restaurant', 'food', 'point_of_interest', 'establishment']","415 North Mary Avenue #105, Sunnyvale","37.3899251, -122.042305"
47,"Cupertino, California",restaurant,ChIJH7hSMCjKj4ARGFgaleOZsZc,Athena Grill & Catering,"['restaurant', 'food', 'point_of_interest', 'establishment']","1505 Space Park Drive, Santa Clara","37.37653840000001, -121.9564184"
48,"Cupertino, California",restaurant,ChIJR-8-Fva1j4ARNOEp6OoFzKs,Jang Su Jang,"['restaurant', 'food', 'point_of_interest', 'establishment']","3561 El Camino Real #10, Santa Clara","37.3536423, -121.99487"
49,"Cupertino, California",restaurant,ChIJ38II9Ji1j4ARxUTIEfcTGx0,Alexander's Steakhouse,"['restaurant', 'food', 'point_of_interest', 'establishment']","19379 Stevens Creek Boulevard, Cupertino","37.32341210000001, -122.0098412"
50,"Cupertino, California",restaurant,ChIJM75zpLa1j4ARd8IiWxkW30g,BJ's Restaurant & Brewhouse,"['restaurant', 'bar', 'meal_takeaway', 'food', 'point_of_interest', 'establishment']","10690 North De Anza Boulevard, Cupertino","37.3313165, -122.0317375"
51,"Cupertino, California",restaurant,ChIJl6iCf4q2j4AR9bQRu7_0fHI,Chick-fil-A,"['restaurant', 'food', 'point_of_interest', 'establishment']","550 West El Camino Real, Sunnyvale","37.3691655, -122.038418"
52,"Cupertino, California",restaurant,ChIJnUjdK6m1j4ARgboPsu46fCc,Le Boulanger,"['bakery', 'store', 'restaurant', 'food', 'point_of_interest', 'establishment']","20488 Stevens Creek Boulevard, Cupertino","37.322578, -122.031267"
53,"Cupertino, California",restaurant,ChIJqXPxUB62j4AR2JlxNnV6JD8,Subway Restaurants,"['restaurant', 'food', 'point_of_interest', 'establishment']","500 Lawrence Expressway G, Sunnyvale","37.3819293, -121.9953658"
54,"Cupertino, California",restaurant,ChIJzz5T0N_Kj4ARcGtZ8nXSYkA,Maggiano's Little Italy,"['restaurant', 'bar', 'food', 'point_of_interest', 'establishment']","3055 Olin Avenue Suite 1000, San Jose","37.320802, -121.9497097"
55,"Cupertino, California",restaurant,ChIJX76EBeDKj4ARDMTabmSeUR8,Straits Restaurant,"['bar', 'restaurant', 'food', 'point_of_interest', 'establishment']","333 Santana Row #1100, San Jose","37.32174919999999, -121.9482408"
56,"Cupertino, California",restaurant,ChIJy5ey6wK2j4AR1_k5tlm9mKI,Sweet Tomatoes,"['restaurant', 'food', 'point_of_interest', 'establishment']","1210 Kifer Road, Sunnyvale","37.373558, -121.994466"
57,"Cupertino, California",restaurant,ChIJS-AArV22j4AR1rJD3ENugCU,Dishdash,"['restaurant', 'food', 'point_of_interest', 'establishment']","190 South Murphy Avenue, Sunnyvale","37.376177, -122.030136"
58,"Cupertino, California",restaurant,ChIJM8WXzt_Kj4ARlAxHGNNuUuc,Left Bank French Brasseries,"['restaurant', 'food', 'point_of_interest', 'establishment']","377 Santana Row #1100, San Jose","37.3197376, -121.9482267"
59,"Cupertino, California",restaurant,ChIJUyIIXt-1j4ARFabxFSO25bA,Marie Callender's,"['bakery', 'meal_takeaway', 'store', 'restaurant', 'food', 'point_of_interest', 'establishment']","751 East El Camino Real, Sunnyvale","37.35814089999999, -122.0197053"
0,"Santa Clara, California",restaurant,ChIJvaF_vOfJj4ARAr614TvZHHI,The Plaza Suites Hotel Silicon Valley,"['lodging', 'restaurant', 'food', 'point_of_interest', 'establishment']","3100 Lakeside Drive, Santa Clara","37.3866049, -121.9832137"
1,"Santa Clara, California",restaurant,ChIJw3TfQ6LMj4ARpeP1KcTyh50,San Pedro Square Market Bar,"['bar', 'restaurant', 'food', 'point_of_interest', 'establishment']","87 North San Pedro Street, San Jose","37.3364966, -121.8943123"
2,"Santa Clara, California",restaurant,ChIJgexMlR_Lj4ARSvwSxukOgys,Westfield Valley Fair,"['shopping_mall', 'shoe_store', 'department_store', 'clothing_store', 'store', 'restaurant', 'food', 'point_of_interest', 'establishment']","2855 Stevens Creek Boulevard, Santa Clara","37.3257904, -121.9457041"
3,"Santa Clara, California",restaurant,ChIJH7hSMCjKj4ARGFgaleOZsZc,Athena Grill & Catering,"['restaurant', 'food', 'point_of_interest', 'establishment']","1505 Space Park Drive, Santa Clara","37.37653840000001, -121.9564184"
4,"Santa Clara, California",restaurant,ChIJcROz_crOj4ARUkCpDr8lR50,Jollibee,"['restaurant', 'food', 'point_of_interest', 'establishment']","447 Great Mall Drive, Milpitas","37.4160826, -121.8991876"
5,"Santa Clara, California",restaurant,ChIJqcnd-9_Kj4ARKHm9BImvexk,LB Steak,"['restaurant', 'food', 'point_of_interest', 'establishment']","334 Santana Row #1000, San Jose","37.32252930000001, -121.9476646"
6,"Santa Clara, California",restaurant,ChIJNUrKGODKj4ARL6j4poDhmic,Yard House,"['bar', 'restaurant', 'food', 'point_of_interest', 'establishment']","300 Santana Row #101, San Jose","37.3230858, -121.9475833"
7,"Santa Clara, California",restaurant,ChIJX_7Uaoi1j4ARjlLl0tgTL20,Orenchi Ramen,"['restaurant', 'food', 'point_of_interest', 'establishment']","3540 Homestead Road, Santa Clara","37.336347, -121.994157"
8,"Santa Clara, California",restaurant,ChIJJxVjI7vMj4ARKZ-5FG60XhU,McCormick & Schmick's Seafood & Steaks,"['restaurant', 'bar', 'food', 'point_of_interest', 'establishment']","170 South Market Street, San Jose","37.33227720000001, -121.8888679"
9,"Santa Clara, California",restaurant,ChIJvQ88PywYyUwR3Tcw8JMtTj4,Birk's,"['restaurant', 'food', 'point_of_interest', 'establishment']","3955 Freedom Circle, Santa Clara","37.38555119999999, -121.9729921"
10,"Santa Clara, California",restaurant,ChIJK0PeRurLj4ARCKnJAQf0P5Y,Spencer's for Steaks and Chops,"['bar', 'restaurant', 'food', 'point_of_interest', 'establishment']","2050 Gateway Place, San Jose","37.371785, -121.922917"
11,"Santa Clara, California",restaurant,ChIJjS5n_YLMj4ARlfgRtxtoW00,IHOP,"['restaurant', 'food', 'point_of_interest', 'establishment']","644 North 1st Street, San Jose","37.348125, -121.899092"
12,"Santa Clara, California",restaurant,ChIJy_jI65i1j4ARhkl5AjxRYU8,Benihana,"['restaurant', 'food', 'point_of_interest', 'establishment']","2074 Vallco Fashion Park, Cupertino","37.3276814, -122.0134591"
13,"Santa Clara, California",restaurant,ChIJR-8-Fva1j4ARNOEp6OoFzKs,Jang Su Jang,"['restaurant', 'food', 'point_of_interest', 'establishment']","3561 El Camino Real #10, Santa Clara","37.3536423, -121.99487"
14,"Santa Clara, California",restaurant,ChIJ38II9Ji1j4ARxUTIEfcTGx0,Alexander's Steakhouse,"['restaurant', 'food', 'point_of_interest', 'establishment']","19379 Stevens Creek Boulevard, Cupertino","37.32341210000001, -122.0098412"
15,"Santa Clara, California",restaurant,ChIJ06drj7rMj4AR4Y_OEpeT5LA,Il Fornaio,"['restaurant', 'food', 'point_of_interest', 'establishment']","302 South Market Street, San Jose","37.3309962, -121.8878112"
16,"Santa Clara, California",restaurant,ChIJX76EBeDKj4ARDMTabmSeUR8,Straits Restaurant,"['bar', 'restaurant', 'food', 'point_of_interest', 'establishment']","333 Santana Row #1100, San Jose","37.32174919999999, -121.9482408"
17,"Santa Clara, California",restaurant,ChIJqXPxUB62j4AR2JlxNnV6JD8,Subway Restaurants,"['restaurant', 'food', 'point_of_interest', 'establishment']","500 Lawrence Expressway G, Sunnyvale","37.3819293, -121.9953658"
18,"Santa Clara, California",restaurant,ChIJzz5T0N_Kj4ARcGtZ8nXSYkA,Maggiano's Little Italy,"['restaurant', 'bar', 'food', 'point_of_interest', 'establishment']","3055 Olin Avenue Suite 1000, San Jose","37.320802, -121.9497097"
19,"Santa Clara, California",restaurant,ChIJM8WXzt_Kj4ARlAxHGNNuUuc,Left Bank French Brasseries,"['restaurant', 'food', 'point_of_interest', 'establishment']","377 Santana Row #1100, San Jose","37.3197376, -121.9482267"
20,"Santa Clara, California",restaurant,ChIJvaF_vOfJj4ARAr614TvZHHI,The Plaza Suites Hotel Silicon Valley,"['lodging', 'restaurant', 'food', 'point_of_interest', 'establishment']","3100 Lakeside Drive, Santa Clara","37.3866049, -121.9832137"
21,"Santa Clara, California",restaurant,ChIJw3TfQ6LMj4ARpeP1KcTyh50,San Pedro Square Market Bar,"['bar', 'restaurant', 'food', 'point_of_interest', 'establishment']","87 North San Pedro Street, San Jose","37.3364966, -121.8943123"
22,"Santa Clara, California",restaurant,ChIJgexMlR_Lj4ARSvwSxukOgys,Westfield Valley Fair,"['shopping_mall', 'shoe_store', 'department_store', 'clothing_store', 'store', 'restaurant', 'food', 'point_of_interest', 'establishment']","2855 Stevens Creek Boulevard, Santa Clara","37.3257904, -121.9457041"
23,"Santa Clara, California",restaurant,ChIJH7hSMCjKj4ARGFgaleOZsZc,Athena Grill & Catering,"['restaurant', 'food', 'point_of_interest', 'establishment']","1505 Space Park Drive, Santa Clara","37.37653840000001, -121.9564184"
24,"Santa Clara, California",restaurant,ChIJcROz_crOj4ARUkCpDr8lR50,Jollibee,"['restaurant', 'food', 'point_of_interest', 'establishment']","447 Great Mall Drive, Milpitas","37.4160826, -121.8991876"
25,"Santa Clara, California",restaurant,ChIJqcnd-9_Kj4ARKHm9BImvexk,LB Steak,"['restaurant', 'food', 'point_of_interest', 'establishment']","334 Santana Row #1000, San Jose","37.32252930000001, -121.9476646"
26,"Santa Clara, California",restaurant,ChIJNUrKGODKj4ARL6j4poDhmic,Yard House,"['bar', 'restaurant', 'food', 'point_of_interest', 'establishment']","300 Santana Row #101, San Jose","37.3230858, -121.9475833"
27,"Santa Clara, California",restaurant,ChIJX_7Uaoi1j4ARjlLl0tgTL20,Orenchi Ramen,"['restaurant', 'food', 'point_of_interest', 'establishment']","3540 Homestead Road, Santa Clara","37.336347, -121.994157"
28,"Santa Clara, California",restaurant,ChIJJxVjI7vMj4ARKZ-5FG60XhU,McCormick & Schmick's Seafood & Steaks,"['restaurant', 'bar', 'food', 'point_of_interest', 'establishment']","170 South Market Street, San Jose","37.33227720000001, -121.8888679"
29,"Santa Clara, California",restaurant,ChIJvQ88PywYyUwR3Tcw8JMtTj4,Birk's,"['restaurant', 'food', 'point_of_interest', 'establishment']","3955 Freedom Circle, Santa Clara","37.38555119999999, -121.9729921"
30,"Santa Clara, California",restaurant,ChIJK0PeRurLj4ARCKnJAQf0P5Y,Spencer's for Steaks and Chops,"['bar', 'restaurant', 'food', 'point_of_interest', 'establishment']","2050 Gateway Place, San Jose","37.371785, -121.922917"
31,"Santa Clara, California",restaurant,ChIJjS5n_YLMj4ARlfgRtxtoW00,IHOP,"['restaurant', 'food', 'point_of_interest', 'establishment']","644 North 1st Street, San Jose","37.348125, -121.899092"
32,"Santa Clara, California",restaurant,ChIJy_jI65i1j4ARhkl5AjxRYU8,Benihana,"['restaurant', 'food', 'point_of_interest', 'establishment']","2074 Vallco Fashion Park, Cupertino","37.3276814, -122.0134591"
33,"Santa Clara, California",restaurant,ChIJR-8-Fva1j4ARNOEp6OoFzKs,Jang Su Jang,"['restaurant', 'food', 'point_of_interest', 'establishment']","3561 El Camino Real #10, Santa Clara","37.3536423, -121.99487"
34,"Santa Clara, California",restaurant,ChIJ38II9Ji1j4ARxUTIEfcTGx0,Alexander's Steakhouse,"['restaurant', 'food', 'point_of_interest', 'establishment']","19379 Stevens Creek Boulevard, Cupertino","37.32341210000001, -122.0098412"
35,"Santa Clara, California",restaurant,ChIJ06drj7rMj4AR4Y_OEpeT5LA,Il Fornaio,"['restaurant', 'food', 'point_of_interest', 'establishment']","302 South Market Street, San Jose","37.3309962, -121.8878112"
36,"Santa Clara, California",restaurant,ChIJX76EBeDKj4ARDMTabmSeUR8,Straits Restaurant,"['bar', 'restaurant', 'food', 'point_of_interest', 'establishment']","333 Santana Row #1100, San Jose","37.32174919999999, -121.9482408"
37,"Santa Clara, California",restaurant,ChIJqXPxUB62j4AR2JlxNnV6JD8,Subway Restaurants,"['restaurant', 'food', 'point_of_interest', 'establishment']","500 Lawrence Expressway G, Sunnyvale","37.3819293, -121.9953658"
38,"Santa Clara, California",restaurant,ChIJzz5T0N_Kj4ARcGtZ8nXSYkA,Maggiano's Little Italy,"['restaurant', 'bar', 'food', 'point_of_interest', 'establishment']","3055 Olin Avenue Suite 1000, San Jose","37.320802, -121.9497097"
39,"Santa Clara, California",restaurant,ChIJM8WXzt_Kj4ARlAxHGNNuUuc,Left Bank French Brasseries,"['restaurant', 'food', 'point_of_interest', 'establishment']","377 Santana Row #1100, San Jose","37.3197376, -121.9482267"
40,"Santa Clara, California",restaurant,ChIJvaF_vOfJj4ARAr614TvZHHI,The Plaza Suites Hotel Silicon Valley,"['lodging', 'restaurant', 'food', 'point_of_interest', 'establishment']","3100 Lakeside Drive, Santa Clara","37.3866049, -121.9832137"
41,"Santa Clara, California",restaurant,ChIJw3TfQ6LMj4ARpeP1KcTyh50,San Pedro Square Market Bar,"['bar', 'restaurant', 'food', 'point_of_interest', 'establishment']","87 North San Pedro Street, San Jose","37.3364966, -121.8943123"
42,"Santa Clara, California",restaurant,ChIJgexMlR_Lj4ARSvwSxukOgys,Westfield Valley Fair,"['shopping_mall', 'shoe_store', 'department_store', 'clothing_store', 'store', 'restaurant', 'food', 'point_of_interest', 'establishment']","2855 Stevens Creek Boulevard, Santa Clara","37.3257904, -121.9457041"
43,"Santa Clara, California",restaurant,ChIJH7hSMCjKj4ARGFgaleOZsZc,Athena Grill & Catering,"['restaurant', 'food', 'point_of_interest', 'establishment']","1505 Space Park Drive, Santa Clara","37.37653840000001, -121.9564184"
44,"Santa Clara, California",restaurant,ChIJcROz_crOj4ARUkCpDr8lR50,Jollibee,"['restaurant', 'food', 'point_of_interest', 'establishment']","447 Great Mall Drive, Milpitas","37.4160826, -121.8991876"
45,"Santa Clara, California",restaurant,ChIJqcnd-9_Kj4ARKHm9BImvexk,LB Steak,"['restaurant', 'food', 'point_of_interest', 'establishment']","334 Santana Row #1000, San Jose","37.32252930000001, -121.9476646"
46,"Santa Clara, California",restaurant,ChIJNUrKGODKj4ARL6j4poDhmic,Yard House,"['bar', 'restaurant', 'food', 'point_of_interest', 'establishment']","300 Santana Row #101, San Jose","37.3230858, -121.9475833"
47,"Santa Clara, California",restaurant,ChIJX_7Uaoi1j4ARjlLl0tgTL20,Orenchi Ramen,"['restaurant', 'food', 'point_of_interest', 'establishment']","3540 Homestead Road, Santa Clara","37.336347, -121.994157"
48,"Santa Clara, California",restaurant,ChIJJxVjI7vMj4ARKZ-5FG60XhU,McCormick & Schmick's Seafood & Steaks,"['restaurant', 'bar', 'food', 'point_of_interest', 'establishment']","170 South Market Street, San Jose","37.33227720000001, -121.8888679"
49,"Santa Clara, California",restaurant,ChIJvQ88PywYyUwR3Tcw8JMtTj4,Birk's,"['restaurant', 'food', 'point_of_interest', 'establishment']","3955 Freedom Circle, Santa Clara","37.38555119999999, -121.9729921"
50,"Santa Clara, California",restaurant,ChIJK0PeRurLj4ARCKnJAQf0P5Y,Spencer's for Steaks and Chops,"['bar', 'restaurant', 'food', 'point_of_interest', 'establishment']","2050 Gateway Place, San Jose","37.371785, -121.922917"
51,"Santa Clara, California",restaurant,ChIJjS5n_YLMj4ARlfgRtxtoW00,IHOP,"['restaurant', 'food', 'point_of_interest', 'establishment']","644 North 1st Street, San Jose","37.348125, -121.899092"
52,"Santa Clara, California",restaurant,ChIJy_jI65i1j4ARhkl5AjxRYU8,Benihana,"['restaurant', 'food', 'point_of_interest', 'establishment']","2074 Vallco Fashion Park, Cupertino","37.3276814, -122.0134591"
53,"Santa Clara, California",restaurant,ChIJR-8-Fva1j4ARNOEp6OoFzKs,Jang Su Jang,"['restaurant', 'food', 'point_of_interest', 'establishment']","3561 El Camino Real #10, Santa Clara","37.3536423, -121.99487"
54,"Santa Clara, California",restaurant,ChIJ38II9Ji1j4ARxUTIEfcTGx0,Alexander's Steakhouse,"['restaurant', 'food', 'point_of_interest', 'establishment']","19379 Stevens Creek Boulevard, Cupertino","37.32341210000001, -122.0098412"
55,"Santa Clara, California",restaurant,ChIJ06drj7rMj4AR4Y_OEpeT5LA,Il Fornaio,"['restaurant', 'food', 'point_of_interest', 'establishment']","302 South Market Street, San Jose","37.3309962, -121.8878112"
56,"Santa Clara, California",restaurant,ChIJX76EBeDKj4ARDMTabmSeUR8,Straits Restaurant,"['bar', 'restaurant', 'food', 'point_of_interest', 'establishment']","333 Santana Row #1100, San Jose","37.32174919999999, -121.9482408"
57,"Santa Clara, California",restaurant,ChIJqXPxUB62j4AR2JlxNnV6JD8,Subway Restaurants,"['restaurant', 'food', 'point_of_interest', 'establishment']","500 Lawrence Expressway G, Sunnyvale","37.3819293, -121.9953658"
58,"Santa Clara, California",restaurant,ChIJzz5T0N_Kj4ARcGtZ8nXSYkA,Maggiano's Little Italy,"['restaurant', 'bar', 'food', 'point_of_interest', 'establishment']","3055 Olin Avenue Suite 1000, San Jose","37.320802, -121.9497097"
59,"Santa Clara, California",restaurant,ChIJM8WXzt_Kj4ARlAxHGNNuUuc,Left Bank French Brasseries,"['restaurant', 'food', 'point_of_interest', 'establishment']","377 Santana Row #1100, San Jose","37.3197376, -121.9482267"
0,"San Jose, California",restaurant,ChIJw3TfQ6LMj4ARpeP1KcTyh50,San Pedro Square Market Bar,"['bar', 'restaurant', 'food', 'point_of_interest', 'establishment']","87 North San Pedro Street, San Jose","37.3364966, -121.8943123"
1,"San Jose, California",restaurant,ChIJgexMlR_Lj4ARSvwSxukOgys,Westfield Valley Fair,"['shopping_mall', 'shoe_store', 'department_store', 'clothing_store', 'store', 'restaurant', 'food', 'point_of_interest', 'establishment']","2855 Stevens Creek Boulevard, Santa Clara","37.3257904, -121.9457041"
2,"San Jose, California",restaurant,ChIJqcnd-9_Kj4ARKHm9BImvexk,LB Steak,"['restaurant', 'food', 'point_of_interest', 'establishment']","334 Santana Row #1000, San Jose","37.32252930000001, -121.9476646"
3,"San Jose, California",restaurant,ChIJH7hSMCjKj4ARGFgaleOZsZc,Athena Grill & Catering,"['restaurant', 'food', 'point_of_interest', 'establishment']","1505 Space Park Drive, Santa Clara","37.37653840000001, -121.9564184"
4,"San Jose, California",restaurant,ChIJcROz_crOj4ARUkCpDr8lR50,Jollibee,"['restaurant', 'food', 'point_of_interest', 'establishment']","447 Great Mall Drive, Milpitas","37.4160826, -121.8991876"
5,"San Jose, California",restaurant,ChIJJxVjI7vMj4ARKZ-5FG60XhU,McCormick & Schmick's Seafood & Steaks,"['restaurant', 'bar', 'food', 'point_of_interest', 'establishment']","170 South Market Street, San Jose","37.33227720000001, -121.8888679"
6,"San Jose, California",restaurant,ChIJNUrKGODKj4ARL6j4poDhmic,Yard House,"['bar', 'restaurant', 'food', 'point_of_interest', 'establishment']","300 Santana Row #101, San Jose","37.3230858, -121.9475833"
7,"San Jose, California",restaurant,ChIJK0PeRurLj4ARCKnJAQf0P5Y,Spencer's for Steaks and Chops,"['bar', 'restaurant', 'food', 'point_of_interest', 'establishment']","2050 Gateway Place, San Jose","37.371785, -121.922917"
8,"San Jose, California",restaurant,ChIJjS5n_YLMj4ARlfgRtxtoW00,IHOP,"['restaurant', 'food', 'point_of_interest', 'establishment']","644 North 1st Street, San Jose","37.348125, -121.899092"
9,"San Jose, California",restaurant,ChIJ06drj7rMj4AR4Y_OEpeT5LA,Il Fornaio,"['restaurant', 'food', 'point_of_interest', 'establishment']","302 South Market Street, San Jose","37.3309962, -121.8878112"
10,"San Jose, California",restaurant,ChIJmWZMuxszjoAR0fXhXB1XNV4,The Boiling Crab,"['restaurant', 'food', 'point_of_interest', 'establishment']","71 Curtner Avenue, San Jose","37.302628, -121.864201"
11,"San Jose, California",restaurant,ChIJX76EBeDKj4ARDMTabmSeUR8,Straits Restaurant,"['bar', 'restaurant', 'food', 'point_of_interest', 'establishment']","333 Santana Row #1100, San Jose","37.32174919999999, -121.9482408"
12,"San Jose, California",restaurant,ChIJzz5T0N_Kj4ARcGtZ8nXSYkA,Maggiano's Little Italy,"['restaurant', 'bar', 'food', 'point_of_interest', 'establishment']","3055 Olin Avenue Suite 1000, San Jose","37.320802, -121.9497097"
13,"San Jose, California",restaurant,ChIJkXmJt6HMj4AR_CU3a1r9eYg,Henry's World Famous Hi-Life,"['restaurant', 'food', 'point_of_interest', 'establishment']","301 West Saint John Street, San Jose","37.335486, -121.898197"
14,"San Jose, California",restaurant,ChIJM8WXzt_Kj4ARlAxHGNNuUuc,Left Bank French Brasseries,"['restaurant', 'food', 'point_of_interest', 'establishment']","377 Santana Row #1100, San Jose","37.3197376, -121.9482267"
15,"San Jose, California",restaurant,ChIJ0ZvBZ8I0joAR5-bl8LP0lG0,Patxi's Pizza Campbell,"['meal_delivery', 'bar', 'meal_takeaway', 'restaurant', 'food', 'point_of_interest', 'establishment']","1875 South Bascom Avenue #405, Campbell","37.2882845, -121.932881"
16,"San Jose, California",restaurant,ChIJ3ybmtJ_Lj4ARpqZ3dA8A6qc,In-N-Out Burger,"['restaurant', 'food', 'point_of_interest', 'establishment']","550 Newhall Drive, San Jose","37.350298, -121.921872"
17,"San Jose, California",restaurant,ChIJOwQIQxbLj4AROEenlE5vOso,Bill's Cafe,"['restaurant', 'food', 'point_of_interest', 'establishment']","302 North Bascom Avenue, San Jose","37.3283632, -121.9318303"
18,"San Jose, California",restaurant,ChIJKww9ZLrMj4ARb-KGDMCdo_I,San Jose Original Joe's,"['bar', 'restaurant', 'food', 'point_of_interest', 'establishment']","301 South 1st Street, San Jose","37.3313259, -121.8871524"
19,"San Jose, California",restaurant,ChIJbeGGEqfMj4ARLsEQKwQohWM,Poor House Bistro,"['restaurant', 'food', 'point_of_interest', 'establishment']","91 South Autumn Street, San Jose","37.3295778, -121.9003411"
20,"San Jose, California",restaurant,ChIJw3TfQ6LMj4ARpeP1KcTyh50,San Pedro Square Market Bar,"['bar', 'restaurant', 'food', 'point_of_interest', 'establishment']","87 North San Pedro Street, San Jose","37.3364966, -121.8943123"
21,"San Jose, California",restaurant,ChIJgexMlR_Lj4ARSvwSxukOgys,Westfield Valley Fair,"['shopping_mall', 'shoe_store', 'department_store', 'clothing_store', 'store', 'restaurant', 'food', 'point_of_interest', 'establishment']","2855 Stevens Creek Boulevard, Santa Clara","37.3257904, -121.9457041"
22,"San Jose, California",restaurant,ChIJqcnd-9_Kj4ARKHm9BImvexk,LB Steak,"['restaurant', 'food', 'point_of_interest', 'establishment']","334 Santana Row #1000, San Jose","37.32252930000001, -121.9476646"
23,"San Jose, California",restaurant,ChIJH7hSMCjKj4ARGFgaleOZsZc,Athena Grill & Catering,"['restaurant', 'food', 'point_of_interest', 'establishment']","1505 Space Park Drive, Santa Clara","37.37653840000001, -121.9564184"
24,"San Jose, California",restaurant,ChIJcROz_crOj4ARUkCpDr8lR50,Jollibee,"['restaurant', 'food', 'point_of_interest', 'establishment']","447 Great Mall Drive, Milpitas","37.4160826, -121.8991876"
25,"San Jose, California",restaurant,ChIJJxVjI7vMj4ARKZ-5FG60XhU,McCormick & Schmick's Seafood & Steaks,"['restaurant', 'bar', 'food', 'point_of_interest', 'establishment']","170 South Market Street, San Jose","37.33227720000001, -121.8888679"
26,"San Jose, California",restaurant,ChIJNUrKGODKj4ARL6j4poDhmic,Yard House,"['bar', 'restaurant', 'food', 'point_of_interest', 'establishment']","300 Santana Row #101, San Jose","37.3230858, -121.9475833"
27,"San Jose, California",restaurant,ChIJK0PeRurLj4ARCKnJAQf0P5Y,Spencer's for Steaks and Chops,"['bar', 'restaurant', 'food', 'point_of_interest', 'establishment']","2050 Gateway Place, San Jose","37.371785, -121.922917"
28,"San Jose, California",restaurant,ChIJjS5n_YLMj4ARlfgRtxtoW00,IHOP,"['restaurant', 'food', 'point_of_interest', 'establishment']","644 North 1st Street, San Jose","37.348125, -121.899092"
29,"San Jose, California",restaurant,ChIJ06drj7rMj4AR4Y_OEpeT5LA,Il Fornaio,"['restaurant', 'food', 'point_of_interest', 'establishment']","302 South Market Street, San Jose","37.3309962, -121.8878112"
30,"San Jose, California",restaurant,ChIJmWZMuxszjoAR0fXhXB1XNV4,The Boiling Crab,"['restaurant', 'food', 'point_of_interest', 'establishment']","71 Curtner Avenue, San Jose","37.302628, -121.864201"
31,"San Jose, California",restaurant,ChIJX76EBeDKj4ARDMTabmSeUR8,Straits Restaurant,"['bar', 'restaurant', 'food', 'point_of_interest', 'establishment']","333 Santana Row #1100, San Jose","37.32174919999999, -121.9482408"
32,"San Jose, California",restaurant,ChIJzz5T0N_Kj4ARcGtZ8nXSYkA,Maggiano's Little Italy,"['restaurant', 'bar', 'food', 'point_of_interest', 'establishment']","3055 Olin Avenue Suite 1000, San Jose","37.320802, -121.9497097"
33,"San Jose, California",restaurant,ChIJkXmJt6HMj4AR_CU3a1r9eYg,Henry's World Famous Hi-Life,"['restaurant', 'food', 'point_of_interest', 'establishment']","301 West Saint John Street, San Jose","37.335486, -121.898197"
34,"San Jose, California",restaurant,ChIJM8WXzt_Kj4ARlAxHGNNuUuc,Left Bank French Brasseries,"['restaurant', 'food', 'point_of_interest', 'establishment']","377 Santana Row #1100, San Jose","37.3197376, -121.9482267"
35,"San Jose, California",restaurant,ChIJ0ZvBZ8I0joAR5-bl8LP0lG0,Patxi's Pizza Campbell,"['meal_delivery', 'bar', 'meal_takeaway', 'restaurant', 'food', 'point_of_interest', 'establishment']","1875 South Bascom Avenue #405, Campbell","37.2882845, -121.932881"
36,"San Jose, California",restaurant,ChIJ3ybmtJ_Lj4ARpqZ3dA8A6qc,In-N-Out Burger,"['restaurant', 'food', 'point_of_interest', 'establishment']","550 Newhall Drive, San Jose","37.350298, -121.921872"
37,"San Jose, California",restaurant,ChIJOwQIQxbLj4AROEenlE5vOso,Bill's Cafe,"['restaurant', 'food', 'point_of_interest', 'establishment']","302 North Bascom Avenue, San Jose","37.3283632, -121.9318303"
38,"San Jose, California",restaurant,ChIJKww9ZLrMj4ARb-KGDMCdo_I,San Jose Original Joe's,"['bar', 'restaurant', 'food', 'point_of_interest', 'establishment']","301 South 1st Street, San Jose","37.3313259, -121.8871524"
39,"San Jose, California",restaurant,ChIJbeGGEqfMj4ARLsEQKwQohWM,Poor House Bistro,"['restaurant', 'food', 'point_of_interest', 'establishment']","91 South Autumn Street, San Jose","37.3295778, -121.9003411"
40,"San Jose, California",restaurant,ChIJw3TfQ6LMj4ARpeP1KcTyh50,San Pedro Square Market Bar,"['bar', 'restaurant', 'food', 'point_of_interest', 'establishment']","87 North San Pedro Street, San Jose","37.3364966, -121.8943123"
41,"San Jose, California",restaurant,ChIJgexMlR_Lj4ARSvwSxukOgys,Westfield Valley Fair,"['shopping_mall', 'shoe_store', 'department_store', 'clothing_store', 'store', 'restaurant', 'food', 'point_of_interest', 'establishment']","2855 Stevens Creek Boulevard, Santa Clara","37.3257904, -121.9457041"
42,"San Jose, California",restaurant,ChIJqcnd-9_Kj4ARKHm9BImvexk,LB Steak,"['restaurant', 'food', 'point_of_interest', 'establishment']","334 Santana Row #1000, San Jose","37.32252930000001, -121.9476646"
43,"San Jose, California",restaurant,ChIJH7hSMCjKj4ARGFgaleOZsZc,Athena Grill & Catering,"['restaurant', 'food', 'point_of_interest', 'establishment']","1505 Space Park Drive, Santa Clara","37.37653840000001, -121.9564184"
44,"San Jose, California",restaurant,ChIJcROz_crOj4ARUkCpDr8lR50,Jollibee,"['restaurant', 'food', 'point_of_interest', 'establishment']","447 Great Mall Drive, Milpitas","37.4160826, -121.8991876"
45,"San Jose, California",restaurant,ChIJJxVjI7vMj4ARKZ-5FG60XhU,McCormick & Schmick's Seafood & Steaks,"['restaurant', 'bar', 'food', 'point_of_interest', 'establishment']","170 South Market Street, San Jose","37.33227720000001, -121.8888679"
46,"San Jose, California",restaurant,ChIJNUrKGODKj4ARL6j4poDhmic,Yard House,"['bar', 'restaurant', 'food', 'point_of_interest', 'establishment']","300 Santana Row #101, San Jose","37.3230858, -121.9475833"
47,"San Jose, California",restaurant,ChIJK0PeRurLj4ARCKnJAQf0P5Y,Spencer's for Steaks and Chops,"['bar', 'restaurant', 'food', 'point_of_interest', 'establishment']","2050 Gateway Place, San Jose","37.371785, -121.922917"
48,"San Jose, California",restaurant,ChIJjS5n_YLMj4ARlfgRtxtoW00,IHOP,"['restaurant', 'food', 'point_of_interest', 'establishment']","644 North 1st Street, San Jose","37.348125, -121.899092"
49,"San Jose, California",restaurant,ChIJ06drj7rMj4AR4Y_OEpeT5LA,Il Fornaio,"['restaurant', 'food', 'point_of_interest', 'establishment']","302 South Market Street, San Jose","37.3309962, -121.8878112"
50,"San Jose, California",restaurant,ChIJmWZMuxszjoAR0fXhXB1XNV4,The Boiling Crab,"['restaurant', 'food', 'point_of_interest', 'establishment']","71 Curtner Avenue, San Jose","37.302628, -121.864201"
51,"San Jose, California",restaurant,ChIJX76EBeDKj4ARDMTabmSeUR8,Straits Restaurant,"['bar', 'restaurant', 'food', 'point_of_interest', 'establishment']","333 Santana Row #1100, San Jose","37.32174919999999, -121.9482408"
52,"San Jose, California",restaurant,ChIJzz5T0N_Kj4ARcGtZ8nXSYkA,Maggiano's Little Italy,"['restaurant', 'bar', 'food', 'point_of_interest', 'establishment']","3055 Olin Avenue Suite 1000, San Jose","37.320802, -121.9497097"
53,"San Jose, California",restaurant,ChIJkXmJt6HMj4AR_CU3a1r9eYg,Henry's World Famous Hi-Life,"['restaurant', 'food', 'point_of_interest', 'establishment']","301 West Saint John Street, San Jose","37.335486, -121.898197"
54,"San Jose, California",restaurant,ChIJM8WXzt_Kj4ARlAxHGNNuUuc,Left Bank French Brasseries,"['restaurant', 'food', 'point_of_interest', 'establishment']","377 Santana Row #1100, San Jose","37.3197376, -121.9482267"
55,"San Jose, California",restaurant,ChIJ0ZvBZ8I0joAR5-bl8LP0lG0,Patxi's Pizza Campbell,"['meal_delivery', 'bar', 'meal_takeaway', 'restaurant', 'food', 'point_of_interest', 'establishment']","1875 South Bascom Avenue #405, Campbell","37.2882845, -121.932881"
56,"San Jose, California",restaurant,ChIJ3ybmtJ_Lj4ARpqZ3dA8A6qc,In-N-Out Burger,"['restaurant', 'food', 'point_of_interest', 'establishment']","550 Newhall Drive, San Jose","37.350298, -121.921872"
57,"San Jose, California",restaurant,ChIJOwQIQxbLj4AROEenlE5vOso,Bill's Cafe,"['restaurant', 'food', 'point_of_interest', 'establishment']","302 North Bascom Avenue, San Jose","37.3283632, -121.9318303"
58,"San Jose, California",restaurant,ChIJKww9ZLrMj4ARb-KGDMCdo_I,San Jose Original Joe's,"['bar', 'restaurant', 'food', 'point_of_interest', 'establishment']","301 South 1st Street, San Jose","37.3313259, -121.8871524"
59,"San Jose, California",restaurant,ChIJbeGGEqfMj4ARLsEQKwQohWM,Poor House Bistro,"['restaurant', 'food', 'point_of_interest', 'establishment']","91 South Autumn Street, San Jose","37.3295778, -121.9003411"
0,"Fremont, California",restaurant,ChIJ-67yulzHj4ARs917lkd5kjs,The Saddle Rack,"['night_club', 'restaurant', 'food', 'point_of_interest', 'establishment']","42011 Boscell Road, Fremont","37.5080924, -121.981877"
1,"Fremont, California",restaurant,ChIJjUT_xZHAj4AR5XNFHM665Dk,Sweet Tomatoes- Fremont,"['restaurant', 'food', 'point_of_interest', 'establishment']","39370 Paseo Padre Parkway, Fremont","37.55252, -121.9778344"
2,"Fremont, California",restaurant,ChIJpcto4h7Hj4ARj_BMAb5HcG4,Campo di Bocce of Fremont,"['bar', 'restaurant', 'food', 'point_of_interest', 'establishment']","6362, 4020 Technology Place, Fremont","37.5105474, -121.9509482"
3,"Fremont, California",restaurant,ChIJy17_9Fy_j4ARboo4_yljPOY,Chaat Bhavan - Fremont,"['restaurant', 'food', 'point_of_interest', 'establishment']","5355 Mowry Avenue, Fremont","37.5327576, -122.0021126"
4,"Fremont, California",restaurant,ChIJBYDSuarAj4ARmgVRcrUygrs,Chandni Restaurant,"['restaurant', 'food', 'point_of_interest', 'establishment']","5748 Mowry School Road, Newark","37.5208056, -121.9915746"
5,"Fremont, California",restaurant,ChIJC4LlqpC_j4AR-YtYSlwFSUk,Satomi Sushi,"['restaurant', 'food', 'point_of_interest', 'establishment']","3655 Thornton Avenue, Fremont","37.5628728, -122.0104231"
6,"Fremont, California",restaurant,ChIJ41ntlMaVj4ARndbC_tyjSNc,Texas Roadhouse,"['bar', 'restaurant', 'food', 'point_of_interest', 'establishment']","32115 Union Landing Boulevard, Union City","37.601306, -122.067272"
7,"Fremont, California",restaurant,ChIJRd8gnhPHj4ARfTgzNXBAh1A,P.F. Chang's,"['restaurant', 'food', 'point_of_interest', 'establishment']","43316 Christy Street, Fremont","37.5053011, -121.9702698"
8,"Fremont, California",restaurant,ChIJPa0Okpy_j4ARLJXmX04Hitc,DeAfghanan Cuisine,"['restaurant', 'food', 'point_of_interest', 'establishment']","37395 Fremont Boulevard, Fremont","37.5576294, -122.0064733"
9,"Fremont, California",restaurant,ChIJ4QAv8US_j4ARNmBNiyXpF64,BJ's Restaurant & Brewhouse,"['restaurant', 'bar', 'meal_takeaway', 'food', 'point_of_interest', 'establishment']","5699 Mowry Avenue, Newark","37.5280769, -122.0057656"
10,"Fremont, California",restaurant,ChIJ73JHc2KVj4ARKyOaBwHVbs0,Mayflower Seafood Restaurant,"['restaurant', 'food', 'point_of_interest', 'establishment']","34348 Alvarado-Niles Road, Union City","37.58842319999999, -122.0231114"
11,"Fremont, California",restaurant,ChIJB711rZi_j4ARlXzFOlpnLKw,Little Caesars Pizza,"['meal_takeaway', 'restaurant', 'food', 'point_of_interest', 'establishment']","4376 Thornton Avenue, Fremont","37.556023, -122.0145246"
12,"Fremont, California",restaurant,ChIJ35izgpfAj4ARZfCyAnTJmQs,Little Caesars Pizza,"['meal_takeaway', 'restaurant', 'food', 'point_of_interest', 'establishment']","39490 Fremont Boulevard, Fremont","37.5456367, -121.9804132"
13,"Fremont, California",restaurant,ChIJR6xFQC7Hj4ARW-dri2UHkBg,Pizza & Curry,"['restaurant', 'food', 'point_of_interest', 'establishment']","42136 Blacow Road, Fremont","37.5242641, -121.9571091"
14,"Fremont, California",restaurant,ChIJ_eDeeNLAj4ARGeit-lvegp8,Mountain Mike's Pizza,"['meal_delivery', 'meal_takeaway', 'restaurant', 'food', 'point_of_interest', 'establishment']","3952 Washington Boulevard, Fremont","37.5319834, -121.9581982"
15,"Fremont, California",restaurant,ChIJTzD2cqrAj4ARoueogJtfuFo,Chuck E. Cheese's,"['restaurant', 'food', 'point_of_interest', 'establishment']","39839 Mowry School Road, Newark","37.5237384, -121.9920883"
16,"Fremont, California",restaurant,ChIJT_b6T2rHj4ARvws68qu_jtQ,Claim Jumper Restaurants,"['restaurant', 'bar', 'food', 'point_of_interest', 'establishment']","43330 Pacific Commons Boulevard, Fremont","37.5043661, -121.9730365"
17,"Fremont, California",restaurant,ChIJoWiG71u_j4ARlU8LVrh_kwo,Olive Garden Italian Restaurant,"['bar', 'meal_takeaway', 'restaurant', 'food', 'point_of_interest', 'establishment']","39145 Farwell Drive, Fremont","37.531322, -121.999356"
18,"Fremont, California",restaurant,ChIJI63XqoTAj4ARtW_a57xl0uM,Saravanaa Bhavan,"['restaurant', 'food', 'point_of_interest', 'establishment']","3720 Mowry Avenue, Fremont","37.55059769999999, -121.986177"
19,"Fremont, California",restaurant,ChIJxSyD2py_j4AR8bBSWIwCowM,Round Table Pizza,"['meal_delivery', 'meal_takeaway', 'restaurant', 'food', 'point_of_interest', 'establishment']","37480 Fremont Boulevard, Fremont","37.5573884, -122.0050341"
20,"Fremont, California",restaurant,ChIJ-67yulzHj4ARs917lkd5kjs,The Saddle Rack,"['night_club', 'restaurant', 'food', 'point_of_interest', 'establishment']","42011 Boscell Road, Fremont","37.5080924, -121.981877"
21,"Fremont, California",restaurant,ChIJjUT_xZHAj4AR5XNFHM665Dk,Sweet Tomatoes- Fremont,"['restaurant', 'food', 'point_of_interest', 'establishment']","39370 Paseo Padre Parkway, Fremont","37.55252, -121.9778344"
22,"Fremont, California",restaurant,ChIJpcto4h7Hj4ARj_BMAb5HcG4,Campo di Bocce of Fremont,"['bar', 'restaurant', 'food', 'point_of_interest', 'establishment']","6362, 4020 Technology Place, Fremont","37.5105474, -121.9509482"
23,"Fremont, California",restaurant,ChIJy17_9Fy_j4ARboo4_yljPOY,Chaat Bhavan - Fremont,"['restaurant', 'food', 'point_of_interest', 'establishment']","5355 Mowry Avenue, Fremont","37.5327576, -122.0021126"
24,"Fremont, California",restaurant,ChIJBYDSuarAj4ARmgVRcrUygrs,Chandni Restaurant,"['restaurant', 'food', 'point_of_interest', 'establishment']","5748 Mowry School Road, Newark","37.5208056, -121.9915746"
25,"Fremont, California",restaurant,ChIJC4LlqpC_j4AR-YtYSlwFSUk,Satomi Sushi,"['restaurant', 'food', 'point_of_interest', 'establishment']","3655 Thornton Avenue, Fremont","37.5628728, -122.0104231"
26,"Fremont, California",restaurant,ChIJ41ntlMaVj4ARndbC_tyjSNc,Texas Roadhouse,"['bar', 'restaurant', 'food', 'point_of_interest', 'establishment']","32115 Union Landing Boulevard, Union City","37.601306, -122.067272"
27,"Fremont, California",restaurant,ChIJRd8gnhPHj4ARfTgzNXBAh1A,P.F. Chang's,"['restaurant', 'food', 'point_of_interest', 'establishment']","43316 Christy Street, Fremont","37.5053011, -121.9702698"
28,"Fremont, California",restaurant,ChIJPa0Okpy_j4ARLJXmX04Hitc,DeAfghanan Cuisine,"['restaurant', 'food', 'point_of_interest', 'establishment']","37395 Fremont Boulevard, Fremont","37.5576294, -122.0064733"
29,"Fremont, California",restaurant,ChIJ4QAv8US_j4ARNmBNiyXpF64,BJ's Restaurant & Brewhouse,"['restaurant', 'bar', 'meal_takeaway', 'food', 'point_of_interest', 'establishment']","5699 Mowry Avenue, Newark","37.5280769, -122.0057656"
30,"Fremont, California",restaurant,ChIJ73JHc2KVj4ARKyOaBwHVbs0,Mayflower Seafood Restaurant,"['restaurant', 'food', 'point_of_interest', 'establishment']","34348 Alvarado-Niles Road, Union City","37.58842319999999, -122.0231114"
31,"Fremont, California",restaurant,ChIJB711rZi_j4ARlXzFOlpnLKw,Little Caesars Pizza,"['meal_takeaway', 'restaurant', 'food', 'point_of_interest', 'establishment']","4376 Thornton Avenue, Fremont","37.556023, -122.0145246"
32,"Fremont, California",restaurant,ChIJ35izgpfAj4ARZfCyAnTJmQs,Little Caesars Pizza,"['meal_takeaway', 'restaurant', 'food', 'point_of_interest', 'establishment']","39490 Fremont Boulevard, Fremont","37.5456367, -121.9804132"
33,"Fremont, California",restaurant,ChIJR6xFQC7Hj4ARW-dri2UHkBg,Pizza & Curry,"['restaurant', 'food', 'point_of_interest', 'establishment']","42136 Blacow Road, Fremont","37.5242641, -121.9571091"
34,"Fremont, California",restaurant,ChIJ_eDeeNLAj4ARGeit-lvegp8,Mountain Mike's Pizza,"['meal_delivery', 'meal_takeaway', 'restaurant', 'food', 'point_of_interest', 'establishment']","3952 Washington Boulevard, Fremont","37.5319834, -121.9581982"
35,"Fremont, California",restaurant,ChIJTzD2cqrAj4ARoueogJtfuFo,Chuck E. Cheese's,"['restaurant', 'food', 'point_of_interest', 'establishment']","39839 Mowry School Road, Newark","37.5237384, -121.9920883"
36,"Fremont, California",restaurant,ChIJT_b6T2rHj4ARvws68qu_jtQ,Claim Jumper Restaurants,"['restaurant', 'bar', 'food', 'point_of_interest', 'establishment']","43330 Pacific Commons Boulevard, Fremont","37.5043661, -121.9730365"
37,"Fremont, California",restaurant,ChIJoWiG71u_j4ARlU8LVrh_kwo,Olive Garden Italian Restaurant,"['bar', 'meal_takeaway', 'restaurant', 'food', 'point_of_interest', 'establishment']","39145 Farwell Drive, Fremont","37.531322, -121.999356"
38,"Fremont, California",restaurant,ChIJI63XqoTAj4ARtW_a57xl0uM,Saravanaa Bhavan,"['restaurant', 'food', 'point_of_interest', 'establishment']","3720 Mowry Avenue, Fremont","37.55059769999999, -121.986177"
39,"Fremont, California",restaurant,ChIJxSyD2py_j4AR8bBSWIwCowM,Round Table Pizza,"['meal_delivery', 'meal_takeaway', 'restaurant', 'food', 'point_of_interest', 'establishment']","37480 Fremont Boulevard, Fremont","37.5573884, -122.0050341"
40,"Fremont, California",restaurant,ChIJ-67yulzHj4ARs917lkd5kjs,The Saddle Rack,"['night_club', 'restaurant', 'food', 'point_of_interest', 'establishment']","42011 Boscell Road, Fremont","37.5080924, -121.981877"
41,"Fremont, California",restaurant,ChIJjUT_xZHAj4AR5XNFHM665Dk,Sweet Tomatoes- Fremont,"['restaurant', 'food', 'point_of_interest', 'establishment']","39370 Paseo Padre Parkway, Fremont","37.55252, -121.9778344"
42,"Fremont, California",restaurant,ChIJpcto4h7Hj4ARj_BMAb5HcG4,Campo di Bocce of Fremont,"['bar', 'restaurant', 'food', 'point_of_interest', 'establishment']","6362, 4020 Technology Place, Fremont","37.5105474, -121.9509482"
43,"Fremont, California",restaurant,ChIJy17_9Fy_j4ARboo4_yljPOY,Chaat Bhavan - Fremont,"['restaurant', 'food', 'point_of_interest', 'establishment']","5355 Mowry Avenue, Fremont","37.5327576, -122.0021126"
44,"Fremont, California",restaurant,ChIJBYDSuarAj4ARmgVRcrUygrs,Chandni Restaurant,"['restaurant', 'food', 'point_of_interest', 'establishment']","5748 Mowry School Road, Newark","37.5208056, -121.9915746"
45,"Fremont, California",restaurant,ChIJC4LlqpC_j4AR-YtYSlwFSUk,Satomi Sushi,"['restaurant', 'food', 'point_of_interest', 'establishment']","3655 Thornton Avenue, Fremont","37.5628728, -122.0104231"
46,"Fremont, California",restaurant,ChIJ41ntlMaVj4ARndbC_tyjSNc,Texas Roadhouse,"['bar', 'restaurant', 'food', 'point_of_interest', 'establishment']","32115 Union Landing Boulevard, Union City","37.601306, -122.067272"
47,"Fremont, California",restaurant,ChIJRd8gnhPHj4ARfTgzNXBAh1A,P.F. Chang's,"['restaurant', 'food', 'point_of_interest', 'establishment']","43316 Christy Street, Fremont","37.5053011, -121.9702698"
48,"Fremont, California",restaurant,ChIJPa0Okpy_j4ARLJXmX04Hitc,DeAfghanan Cuisine,"['restaurant', 'food', 'point_of_interest', 'establishment']","37395 Fremont Boulevard, Fremont","37.5576294, -122.0064733"
49,"Fremont, California",restaurant,ChIJ4QAv8US_j4ARNmBNiyXpF64,BJ's Restaurant & Brewhouse,"['restaurant', 'bar', 'meal_takeaway', 'food', 'point_of_interest', 'establishment']","5699 Mowry Avenue, Newark","37.5280769, -122.0057656"
50,"Fremont, California",restaurant,ChIJ73JHc2KVj4ARKyOaBwHVbs0,Mayflower Seafood Restaurant,"['restaurant', 'food', 'point_of_interest', 'establishment']","34348 Alvarado-Niles Road, Union City","37.58842319999999, -122.0231114"
51,"Fremont, California",restaurant,ChIJB711rZi_j4ARlXzFOlpnLKw,Little Caesars Pizza,"['meal_takeaway', 'restaurant', 'food', 'point_of_interest', 'establishment']","4376 Thornton Avenue, Fremont","37.556023, -122.0145246"
52,"Fremont, California",restaurant,ChIJ35izgpfAj4ARZfCyAnTJmQs,Little Caesars Pizza,"['meal_takeaway', 'restaurant', 'food', 'point_of_interest', 'establishment']","39490 Fremont Boulevard, Fremont","37.5456367, -121.9804132"
53,"Fremont, California",restaurant,ChIJR6xFQC7Hj4ARW-dri2UHkBg,Pizza & Curry,"['restaurant', 'food', 'point_of_interest', 'establishment']","42136 Blacow Road, Fremont","37.5242641, -121.9571091"
54,"Fremont, California",restaurant,ChIJ_eDeeNLAj4ARGeit-lvegp8,Mountain Mike's Pizza,"['meal_delivery', 'meal_takeaway', 'restaurant', 'food', 'point_of_interest', 'establishment']","3952 Washington Boulevard, Fremont","37.5319834, -121.9581982"
55,"Fremont, California",restaurant,ChIJTzD2cqrAj4ARoueogJtfuFo,Chuck E. Cheese's,"['restaurant', 'food', 'point_of_interest', 'establishment']","39839 Mowry School Road, Newark","37.5237384, -121.9920883"
56,"Fremont, California",restaurant,ChIJT_b6T2rHj4ARvws68qu_jtQ,Claim Jumper Restaurants,"['restaurant', 'bar', 'food', 'point_of_interest', 'establishment']","43330 Pacific Commons Boulevard, Fremont","37.5043661, -121.9730365"
57,"Fremont, California",restaurant,ChIJoWiG71u_j4ARlU8LVrh_kwo,Olive Garden Italian Restaurant,"['bar', 'meal_takeaway', 'restaurant', 'food', 'point_of_interest', 'establishment']","39145 Farwell Drive, Fremont","37.531322, -121.999356"
58,"Fremont, California",restaurant,ChIJI63XqoTAj4ARtW_a57xl0uM,Saravanaa Bhavan,"['restaurant', 'food', 'point_of_interest', 'establishment']","3720 Mowry Avenue, Fremont","37.55059769999999, -121.986177"
59,"Fremont, California",restaurant,ChIJxSyD2py_j4AR8bBSWIwCowM,Round Table Pizza,"['meal_delivery', 'meal_takeaway', 'restaurant', 'food', 'point_of_interest', 'establishment']","37480 Fremont Boulevard, Fremont","37.5573884, -122.0050341"
