,City,Type,Place ID,Name,Point of interests,Address,Lat,Lng
0,"San Francisco, California",storage,ChIJvV6W2y9-j4ARCoY3YlC1kJM,Attic Self Storage,"['storage', 'point_of_interest', 'establishment']","2440 16th Street, San Francisco",37.76632470000001,-122.4107375
1,"San Francisco, California",storage,ChIJawY1y7B5j4ART5dFpOyg6Gc,CA - NY Express cross country movers,"['moving_company', 'storage', 'point_of_interest', 'establishment']","2000 McKinnon Avenue, San Francisco",37.74067000000001,-122.397784
2,"San Francisco, California",storage,ChIJt85wllJ-j4AR30laCpq7qJU,Public Storage,"['storage', 'store', 'point_of_interest', 'establishment']","2587 Marin Street, San Francisco",37.747914,-122.4033731
3,"San Francisco, California",storage,ChIJebYv55-AhYAR6XaL83RvDOk,U-Haul Moving & Storage of Downtown San Francisco,"['moving_company', 'storage', 'store', 'point_of_interest', 'establishment']","1525 Bryant Street, San Francisco",37.7681356,-122.4101455
4,"San Francisco, California",storage,ChIJV9gnbeF5j4ARrDE4td625wQ,Route 66 Moving Company,"['moving_company', 'storage', 'point_of_interest', 'establishment']","801 Avenue H Unit A, San Francisco",37.8253595,-122.3703609
5,"San Francisco, California",storage,ChIJca9MBJ-AhYARFyqClZeXHMU,Security Public Storage,"['storage', 'store', 'point_of_interest', 'establishment']","43 Page Street, San Francisco",37.774037,-122.421414
6,"San Francisco, California",storage,ChIJsY023id-j4ARUqTmLJUtGLU,Extra Space Storage,"['moving_company', 'storage', 'store', 'point_of_interest', 'establishment']","1400 Folsom Street, San Francisco",37.772673,-122.413529
7,"San Francisco, California",storage,ChIJ7zMlMNR_j4ARUVnFIAvTehs,"One Stop Moving & Storage, Inc.","['moving_company', 'storage', 'point_of_interest', 'establishment']","350 Townsend Street, San Francisco",37.776291,-122.396525
8,"San Francisco, California",storage,ChIJBe21YdV_j4AR3csboPLfYA4,Dubbelju Motorcycle Rentals,"['travel_agency', 'storage', 'store', 'point_of_interest', 'establishment']","274 Shotwell Street, San Francisco",37.7641087,-122.4164981
9,"San Francisco, California",storage,ChIJKwC34J-AhYAR_Mg0I2imubs,U-Haul Downtown Box Store,"['moving_company', 'storage', 'store', 'point_of_interest', 'establishment']","100 Valencia Street, San Francisco",37.7713324,-122.4227085
10,"San Francisco, California",storage,ChIJz7V6Zp2AhYARG5zjnnqhSqA,Public Storage,"['storage', 'store', 'point_of_interest', 'establishment']","190 10th Street, San Francisco",37.77426629999999,-122.4149757
11,"San Francisco, California",storage,ChIJi8FDWU1-j4ARucixF5Dld8U,Extra Space Storage,"['moving_company', 'storage', 'store', 'point_of_interest', 'establishment']","2501 Cesar Chavez, San Francisco",37.748979,-122.402412
12,"San Francisco, California",storage,ChIJo_Vy-J2AhYARF_PEdOdh7lw,Public Storage,"['storage', 'store', 'point_of_interest', 'establishment']","99 South Van Ness Avenue, San Francisco",37.7724609,-122.4181614
13,"San Francisco, California",storage,ChIJ8y9cMqx_j4ARlbogAnw6-58,Restaurant Depot,"['storage', 'store', 'food', 'point_of_interest', 'establishment']","2045 Evans Avenue, San Francisco",37.7479908,-122.3971516
14,"San Francisco, California",storage,ChIJiWKDQXiAhYARTRCd9KGNHRs,Public Storage,"['storage', 'store', 'point_of_interest', 'establishment']","611 2nd Street, San Francisco",37.781871,-122.3919848
15,"San Francisco, California",storage,ChIJdbcQ9x1_j4ARTtzQoHZqF8g,Lynch & Sons Van & Storage Co,"['moving_company', 'storage', 'point_of_interest', 'establishment']","1485 Bayshore Boulevard # 52, San Francisco",37.72597429999999,-122.401198
16,"San Francisco, California",storage,ChIJt7luWMh_j4ARVfAVQgnN374,City Storage of San Francisco,"['moving_company', 'storage', 'store', 'point_of_interest', 'establishment']","500 Indiana Street, San Francisco",37.76376399999999,-122.392099
17,"San Francisco, California",storage,ChIJv_au0V-AhYARVYs9M3uFokk,Irish Times Moving & Storage,"['moving_company', 'storage', 'point_of_interest', 'establishment']","110 Pacific Avenue, San Francisco",37.79812059999999,-122.3987407
18,"San Francisco, California",storage,ChIJAQAAAOuAhYAR-NZIOUQX-Wg,Penske Truck Rental,"['moving_company', 'storage', 'store', 'point_of_interest', 'establishment']","630 Cesar Chavez, San Francisco",37.7507291,-122.3830739
19,"San Francisco, California",storage,ChIJp_rdGx5_j4ARi9h0VHeZo1s,U-Haul Moving & Storage at Candlestick,"['moving_company', 'storage', 'store', 'point_of_interest', 'establishment']","1575 Bayshore Boulevard, San Francisco",37.7243712,-122.4009859
20,"San Francisco, California",storage,ChIJvV6W2y9-j4ARCoY3YlC1kJM,Attic Self Storage,"['storage', 'point_of_interest', 'establishment']","2440 16th Street, San Francisco",37.76632470000001,-122.4107375
21,"San Francisco, California",storage,ChIJawY1y7B5j4ART5dFpOyg6Gc,CA - NY Express cross country movers,"['moving_company', 'storage', 'point_of_interest', 'establishment']","2000 McKinnon Avenue, San Francisco",37.74067000000001,-122.397784
22,"San Francisco, California",storage,ChIJt85wllJ-j4AR30laCpq7qJU,Public Storage,"['storage', 'store', 'point_of_interest', 'establishment']","2587 Marin Street, San Francisco",37.747914,-122.4033731
23,"San Francisco, California",storage,ChIJebYv55-AhYAR6XaL83RvDOk,U-Haul Moving & Storage of Downtown San Francisco,"['moving_company', 'storage', 'store', 'point_of_interest', 'establishment']","1525 Bryant Street, San Francisco",37.7681356,-122.4101455
24,"San Francisco, California",storage,ChIJV9gnbeF5j4ARrDE4td625wQ,Route 66 Moving Company,"['moving_company', 'storage', 'point_of_interest', 'establishment']","801 Avenue H Unit A, San Francisco",37.8253595,-122.3703609
25,"San Francisco, California",storage,ChIJca9MBJ-AhYARFyqClZeXHMU,Security Public Storage,"['storage', 'store', 'point_of_interest', 'establishment']","43 Page Street, San Francisco",37.774037,-122.421414
26,"San Francisco, California",storage,ChIJsY023id-j4ARUqTmLJUtGLU,Extra Space Storage,"['moving_company', 'storage', 'store', 'point_of_interest', 'establishment']","1400 Folsom Street, San Francisco",37.772673,-122.413529
27,"San Francisco, California",storage,ChIJ7zMlMNR_j4ARUVnFIAvTehs,"One Stop Moving & Storage, Inc.","['moving_company', 'storage', 'point_of_interest', 'establishment']","350 Townsend Street, San Francisco",37.776291,-122.396525
28,"San Francisco, California",storage,ChIJBe21YdV_j4AR3csboPLfYA4,Dubbelju Motorcycle Rentals,"['travel_agency', 'storage', 'store', 'point_of_interest', 'establishment']","274 Shotwell Street, San Francisco",37.7641087,-122.4164981
29,"San Francisco, California",storage,ChIJKwC34J-AhYAR_Mg0I2imubs,U-Haul Downtown Box Store,"['moving_company', 'storage', 'store', 'point_of_interest', 'establishment']","100 Valencia Street, San Francisco",37.7713324,-122.4227085
30,"San Francisco, California",storage,ChIJz7V6Zp2AhYARG5zjnnqhSqA,Public Storage,"['storage', 'store', 'point_of_interest', 'establishment']","190 10th Street, San Francisco",37.77426629999999,-122.4149757
31,"San Francisco, California",storage,ChIJi8FDWU1-j4ARucixF5Dld8U,Extra Space Storage,"['moving_company', 'storage', 'store', 'point_of_interest', 'establishment']","2501 Cesar Chavez, San Francisco",37.748979,-122.402412
32,"San Francisco, California",storage,ChIJo_Vy-J2AhYARF_PEdOdh7lw,Public Storage,"['storage', 'store', 'point_of_interest', 'establishment']","99 South Van Ness Avenue, San Francisco",37.7724609,-122.4181614
33,"San Francisco, California",storage,ChIJ8y9cMqx_j4ARlbogAnw6-58,Restaurant Depot,"['storage', 'store', 'food', 'point_of_interest', 'establishment']","2045 Evans Avenue, San Francisco",37.7479908,-122.3971516
34,"San Francisco, California",storage,ChIJiWKDQXiAhYARTRCd9KGNHRs,Public Storage,"['storage', 'store', 'point_of_interest', 'establishment']","611 2nd Street, San Francisco",37.781871,-122.3919848
35,"San Francisco, California",storage,ChIJdbcQ9x1_j4ARTtzQoHZqF8g,Lynch & Sons Van & Storage Co,"['moving_company', 'storage', 'point_of_interest', 'establishment']","1485 Bayshore Boulevard # 52, San Francisco",37.72597429999999,-122.401198
36,"San Francisco, California",storage,ChIJt7luWMh_j4ARVfAVQgnN374,City Storage of San Francisco,"['moving_company', 'storage', 'store', 'point_of_interest', 'establishment']","500 Indiana Street, San Francisco",37.76376399999999,-122.392099
37,"San Francisco, California",storage,ChIJv_au0V-AhYARVYs9M3uFokk,Irish Times Moving & Storage,"['moving_company', 'storage', 'point_of_interest', 'establishment']","110 Pacific Avenue, San Francisco",37.79812059999999,-122.3987407
38,"San Francisco, California",storage,ChIJAQAAAOuAhYAR-NZIOUQX-Wg,Penske Truck Rental,"['moving_company', 'storage', 'store', 'point_of_interest', 'establishment']","630 Cesar Chavez, San Francisco",37.7507291,-122.3830739
39,"San Francisco, California",storage,ChIJp_rdGx5_j4ARi9h0VHeZo1s,U-Haul Moving & Storage at Candlestick,"['moving_company', 'storage', 'store', 'point_of_interest', 'establishment']","1575 Bayshore Boulevard, San Francisco",37.7243712,-122.4009859
40,"San Francisco, California",storage,ChIJvV6W2y9-j4ARCoY3YlC1kJM,Attic Self Storage,"['storage', 'point_of_interest', 'establishment']","2440 16th Street, San Francisco",37.76632470000001,-122.4107375
41,"San Francisco, California",storage,ChIJawY1y7B5j4ART5dFpOyg6Gc,CA - NY Express cross country movers,"['moving_company', 'storage', 'point_of_interest', 'establishment']","2000 McKinnon Avenue, San Francisco",37.74067000000001,-122.397784
42,"San Francisco, California",storage,ChIJt85wllJ-j4AR30laCpq7qJU,Public Storage,"['storage', 'store', 'point_of_interest', 'establishment']","2587 Marin Street, San Francisco",37.747914,-122.4033731
43,"San Francisco, California",storage,ChIJebYv55-AhYAR6XaL83RvDOk,U-Haul Moving & Storage of Downtown San Francisco,"['moving_company', 'storage', 'store', 'point_of_interest', 'establishment']","1525 Bryant Street, San Francisco",37.7681356,-122.4101455
44,"San Francisco, California",storage,ChIJV9gnbeF5j4ARrDE4td625wQ,Route 66 Moving Company,"['moving_company', 'storage', 'point_of_interest', 'establishment']","801 Avenue H Unit A, San Francisco",37.8253595,-122.3703609
45,"San Francisco, California",storage,ChIJca9MBJ-AhYARFyqClZeXHMU,Security Public Storage,"['storage', 'store', 'point_of_interest', 'establishment']","43 Page Street, San Francisco",37.774037,-122.421414
46,"San Francisco, California",storage,ChIJsY023id-j4ARUqTmLJUtGLU,Extra Space Storage,"['moving_company', 'storage', 'store', 'point_of_interest', 'establishment']","1400 Folsom Street, San Francisco",37.772673,-122.413529
47,"San Francisco, California",storage,ChIJ7zMlMNR_j4ARUVnFIAvTehs,"One Stop Moving & Storage, Inc.","['moving_company', 'storage', 'point_of_interest', 'establishment']","350 Townsend Street, San Francisco",37.776291,-122.396525
48,"San Francisco, California",storage,ChIJBe21YdV_j4AR3csboPLfYA4,Dubbelju Motorcycle Rentals,"['travel_agency', 'storage', 'store', 'point_of_interest', 'establishment']","274 Shotwell Street, San Francisco",37.7641087,-122.4164981
49,"San Francisco, California",storage,ChIJKwC34J-AhYAR_Mg0I2imubs,U-Haul Downtown Box Store,"['moving_company', 'storage', 'store', 'point_of_interest', 'establishment']","100 Valencia Street, San Francisco",37.7713324,-122.4227085
50,"San Francisco, California",storage,ChIJz7V6Zp2AhYARG5zjnnqhSqA,Public Storage,"['storage', 'store', 'point_of_interest', 'establishment']","190 10th Street, San Francisco",37.77426629999999,-122.4149757
51,"San Francisco, California",storage,ChIJi8FDWU1-j4ARucixF5Dld8U,Extra Space Storage,"['moving_company', 'storage', 'store', 'point_of_interest', 'establishment']","2501 Cesar Chavez, San Francisco",37.748979,-122.402412
52,"San Francisco, California",storage,ChIJo_Vy-J2AhYARF_PEdOdh7lw,Public Storage,"['storage', 'store', 'point_of_interest', 'establishment']","99 South Van Ness Avenue, San Francisco",37.7724609,-122.4181614
53,"San Francisco, California",storage,ChIJ8y9cMqx_j4ARlbogAnw6-58,Restaurant Depot,"['storage', 'store', 'food', 'point_of_interest', 'establishment']","2045 Evans Avenue, San Francisco",37.7479908,-122.3971516
54,"San Francisco, California",storage,ChIJiWKDQXiAhYARTRCd9KGNHRs,Public Storage,"['storage', 'store', 'point_of_interest', 'establishment']","611 2nd Street, San Francisco",37.781871,-122.3919848
55,"San Francisco, California",storage,ChIJdbcQ9x1_j4ARTtzQoHZqF8g,Lynch & Sons Van & Storage Co,"['moving_company', 'storage', 'point_of_interest', 'establishment']","1485 Bayshore Boulevard # 52, San Francisco",37.72597429999999,-122.401198
56,"San Francisco, California",storage,ChIJt7luWMh_j4ARVfAVQgnN374,City Storage of San Francisco,"['moving_company', 'storage', 'store', 'point_of_interest', 'establishment']","500 Indiana Street, San Francisco",37.76376399999999,-122.392099
57,"San Francisco, California",storage,ChIJv_au0V-AhYARVYs9M3uFokk,Irish Times Moving & Storage,"['moving_company', 'storage', 'point_of_interest', 'establishment']","110 Pacific Avenue, San Francisco",37.79812059999999,-122.3987407
58,"San Francisco, California",storage,ChIJAQAAAOuAhYAR-NZIOUQX-Wg,Penske Truck Rental,"['moving_company', 'storage', 'store', 'point_of_interest', 'establishment']","630 Cesar Chavez, San Francisco",37.7507291,-122.3830739
59,"San Francisco, California",storage,ChIJp_rdGx5_j4ARi9h0VHeZo1s,U-Haul Moving & Storage at Candlestick,"['moving_company', 'storage', 'store', 'point_of_interest', 'establishment']","1575 Bayshore Boulevard, San Francisco",37.7243712,-122.4009859
0,"Redwood City, California",storage,ChIJbXREQqejj4AR2n2EiWy46ME,U-Haul Moving & Storage of Redwood City,"['moving_company', 'storage', 'store', 'point_of_interest', 'establishment']","2200 El Camino Real, Redwood City",37.4751401,-122.2210359
1,"Redwood City, California",storage,ChIJnaa0JnKjj4ARW3V00XUSc5o,K&L Wine Merchants,"['liquor_store', 'bar', 'storage', 'store', 'food', 'point_of_interest', 'establishment']","3005 El Camino Real, Redwood City",37.46848439999999,-122.210237
2,"Redwood City, California",storage,ChIJRwS62wijj4ARuryUXAQU3JI,Saf Keep Storage,"['storage', 'point_of_interest', 'establishment']","2480 Middlefield Road, Redwood City",37.47775099999999,-122.214903
3,"Redwood City, California",storage,ChIJz_6HfWGAhYARMvL93XssFzc,San Mateo Movers Bay Area San Francisco,"['moving_company', 'storage', 'store', 'point_of_interest', 'establishment']","951 Mariners Island Boulevard, San Mateo",37.559218,-122.286824
4,"Redwood City, California",storage,ChIJ8wS-wUafj4ARB2HG-PJjpB8,U-Haul Moving & Storage of Belmont,"['moving_company', 'storage', 'store', 'point_of_interest', 'establishment']","554 El Camino Real, Belmont",37.5243565,-122.2809348
5,"Redwood City, California",storage,ChIJu7gfwgejj4ARsXrvcmOVtSc,Bay Area Self Storage,"['moving_company', 'storage', 'store', 'point_of_interest', 'establishment']","338 Manzanita Street, Redwood City",37.4799956,-122.219231
6,"Redwood City, California",storage,ChIJWwHfhQeij4ARKtt0GeWjKxc,Public Storage,"['storage', 'store', 'point_of_interest', 'establishment']","375 Shoreway Road, San Carlos",37.5159019,-122.2570825
7,"Redwood City, California",storage,ChIJ0Wh47pu8j4ARc2FmHnkjPBM,UPS Customer Center Menlo park,"['storage', 'point_of_interest', 'establishment']","1355 Adams Court, Menlo Park",37.4791549,-122.14518
8,"Redwood City, California",storage,ChIJTTpWMEyfj4ARyzVglfdFbhw,Public Storage,"['moving_company', 'storage', 'point_of_interest', 'establishment']","1 Dairy Lane, Belmont",37.5243376,-122.2691992
9,"Redwood City, California",storage,ChIJifL-g02fj4ARDSH2yGxx5wE,Public Storage,"['storage', 'store', 'point_of_interest', 'establishment']","333 Oneill Avenue, Belmont",37.52255,-122.2686224
10,"Redwood City, California",storage,ChIJl7SEDvKij4ARAolaSTGx7pI,Port of Redwood City,"['local_government_office', 'storage', 'point_of_interest', 'establishment']","675 Seaport Boulevard, Redwood City",37.5076742,-122.2091466
11,"Redwood City, California",storage,ChIJnbGt5fuej4ARG4aeBjuNnXQ,Penske Truck Rental,"['moving_company', 'storage', 'store', 'point_of_interest', 'establishment']","1899 South Norfolk Street, San Mateo",37.5541341,-122.291117
12,"Redwood City, California",storage,ChIJs5eRoQajj4ARk7W-AQrdWtQ,Extra Space Storage,"['moving_company', 'storage', 'store', 'point_of_interest', 'establishment']","871 Willow Street, Redwood City",37.4849578,-122.2140933
13,"Redwood City, California",storage,ChIJDYjGHfqej4ARcteikw8Ms2Y,Public Storage,"['storage', 'store', 'point_of_interest', 'establishment']","2222 South Delaware Street, San Mateo",37.5487494,-122.3059019
14,"Redwood City, California",storage,ChIJbWewLAOjj4ARNF6f3ODujFA,J J's Storage,"['storage', 'point_of_interest', 'establishment']","1715 East Bayshore Road, Redwood City",37.4899419,-122.2087319
15,"Redwood City, California",storage,ChIJ4WGwrWC7j4ARg92iHMauVRw,Extra Space Storage,"['moving_company', 'storage', 'store', 'point_of_interest', 'establishment']","999 East Bayshore Road, East Palo Alto",37.46749,-122.151778
16,"Redwood City, California",storage,ChIJIV3iygmjj4ARLrej4fnKACg,Stor-All Storage,"['storage', 'point_of_interest', 'establishment']","136 Willow Street, Redwood City",37.477236,-122.218638
17,"Redwood City, California",storage,ChIJgY8zlP2ij4ARzGxiBRGvLQU,Seaport Storage Center,"['storage', 'point_of_interest', 'establishment']","1703 East Bayshore Road, Redwood City",37.49145849999999,-122.2117313
18,"Redwood City, California",storage,ChIJHaS0vfiij4ARfKZgMjNvRL8,Bair Island Aquatic Center - Rowing and Paddling Club,"['storage', 'school', 'point_of_interest', 'establishment']","1450 Maple Street, Redwood City",37.4953233,-122.2192297
19,"Redwood City, California",storage,ChIJ2YHhH8yej4ARlfreiGO3py4,Public Storage,"['storage', 'store', 'point_of_interest', 'establishment']","1121 Triton Drive, Foster City",37.5640806,-122.2716006
0,"Berkeley, California",storage,ChIJHe_TP1B-hYARBKbkiiopmEg,Devon Self Storage Holdings,"['storage', 'point_of_interest', 'establishment']","2000 Powell Street # 1240, Emeryville",37.8379279,-122.3007416
1,"Berkeley, California",storage,ChIJRY7b99l-hYARfhfUdaPtqoE,Extra Space Storage,"['moving_company', 'storage', 'store', 'point_of_interest', 'establishment']","601 Cedar Street, Berkeley",37.8735154,-122.3048056
2,"Berkeley, California",storage,ChIJDZYq8NR-hYARwKcyD5oDUzU,Public Storage,"['storage', 'store', 'point_of_interest', 'establishment']","1120 Second Street, Berkeley",37.8811087,-122.3067942
3,"Berkeley, California",storage,ChIJAapgjAaHj4AR5VWxXsT9yCU,Public Storage,"['storage', 'store', 'point_of_interest', 'establishment']","1551 MacArthur Boulevard, Oakland",37.8003483,-122.2241364
4,"Berkeley, California",storage,ChIJnSJF2Fh-hYARSkGokR42cb8,Public Storage,"['storage', 'store', 'point_of_interest', 'establishment']","6501 Shellmound Street, Emeryville",37.8467255,-122.295162
5,"Berkeley, California",storage,ChIJqauRRiB5hYARle_B3HO-Fg8,Public Storage,"['storage', 'store', 'point_of_interest', 'establishment']","3230 Pierce Street, Richmond",37.8999084,-122.3084469
6,"Berkeley, California",storage,ChIJTzyq5t94hYARC8roB30P1C0,Public Storage,"['storage', 'store', 'point_of_interest', 'establishment']","3235 Jacuzzi Street, Richmond",37.9001566,-122.3111015
7,"Berkeley, California",storage,ChIJk0ZtVW94hYARq2HZi1J9YI0,Dreisbach Cold Storage,"['storage', 'point_of_interest', 'establishment']","3151 Regatta Boulevard, Richmond",37.9209513,-122.3409142
8,"Berkeley, California",storage,ChIJa0WUC-t-hYARjYlxPAJACgg,Berkeley Self Storage,"['storage', 'point_of_interest', 'establishment']","2235 San Pablo Avenue, Berkeley",37.8654522,-122.2905859
9,"Berkeley, California",storage,ChIJmQ0dMVt-hYARTNqyx4NZycs,Zippy Shell ACS,"['storage', 'point_of_interest', 'establishment']","5801 Christie Avenue, Emeryville",37.83909870000001,-122.2958248
10,"Berkeley, California",storage,ChIJSefPIeJ9hYARRH1CWue5dKE,StorQuest Self Storage,"['moving_company', 'storage', 'store', 'point_of_interest', 'establishment']","4601 Shattuck Avenue, Oakland",37.833928,-122.263903
11,"Berkeley, California",storage,ChIJS0dzGM2Aj4ARkp3ahJyjgm0,Extra Space Storage,"['moving_company', 'storage', 'store', 'point_of_interest', 'establishment']","210 Fallon Street, Oakland",37.7922522,-122.2660588
12,"Berkeley, California",storage,ChIJO5DzGryAj4ARVtNoit2URp0,Extra Space Storage,"['moving_company', 'storage', 'store', 'point_of_interest', 'establishment']","300 Market Street, Oakland",37.800074,-122.283263
13,"Berkeley, California",storage,ChIJQyJVPR5-hYARDq17-Hoedc0,Sweet Maria's Coffee Warehouse,"['storage', 'point_of_interest', 'establishment']","2823 Adeline Street, Oakland",37.82075320000001,-122.282247
14,"Berkeley, California",storage,ChIJV9gnbeF5j4ARrDE4td625wQ,Route 66 Moving Company,"['moving_company', 'storage', 'point_of_interest', 'establishment']","801 Avenue H Unit A, San Francisco",37.8253595,-122.3703609
15,"Berkeley, California",storage,ChIJSclPzcR-hYAR3s5foMAkHWc,Golden Bear Storage,"['moving_company', 'storage', 'point_of_interest', 'establishment']","1650 Sixth Street, Berkeley",37.8724709,-122.2994226
16,"Berkeley, California",storage,ChIJTwJ7Qpd-hYARtgRcNfC00es,Ben's Moving & Trucking Berkeley House Exterior Painting,"['moving_company', 'painter', 'storage', 'point_of_interest', 'establishment']","2120 McGee Avenue, Berkeley",37.8692074,-122.2775824
17,"Berkeley, California",storage,ChIJ3aBThiJ-hYARxFV5wbeWc2E,StorageMart,"['storage', 'store', 'point_of_interest', 'establishment']","2450 Mandela Parkway, Oakland",37.81944999999999,-122.28863
18,"Berkeley, California",storage,ChIJ1T-P-O1-hYARHX5Fh-W6yvk,Flowtoys,"['storage', 'store', 'point_of_interest', 'establishment']","6315 Doyle Street, Emeryville",37.8447511,-122.2893811
19,"Berkeley, California",storage,ChIJkcqSILKAj4AR61KfYPxhyPQ,Oakland Shredding and Records Storage,"['storage', 'point_of_interest', 'establishment']","519 17th Street, Oakland",37.806709,-122.270972
20,"Berkeley, California",storage,ChIJHe_TP1B-hYARBKbkiiopmEg,Devon Self Storage Holdings,"['storage', 'point_of_interest', 'establishment']","2000 Powell Street # 1240, Emeryville",37.8379279,-122.3007416
21,"Berkeley, California",storage,ChIJRY7b99l-hYARfhfUdaPtqoE,Extra Space Storage,"['moving_company', 'storage', 'store', 'point_of_interest', 'establishment']","601 Cedar Street, Berkeley",37.8735154,-122.3048056
22,"Berkeley, California",storage,ChIJDZYq8NR-hYARwKcyD5oDUzU,Public Storage,"['storage', 'store', 'point_of_interest', 'establishment']","1120 Second Street, Berkeley",37.8811087,-122.3067942
23,"Berkeley, California",storage,ChIJAapgjAaHj4AR5VWxXsT9yCU,Public Storage,"['storage', 'store', 'point_of_interest', 'establishment']","1551 MacArthur Boulevard, Oakland",37.8003483,-122.2241364
24,"Berkeley, California",storage,ChIJnSJF2Fh-hYARSkGokR42cb8,Public Storage,"['storage', 'store', 'point_of_interest', 'establishment']","6501 Shellmound Street, Emeryville",37.8467255,-122.295162
25,"Berkeley, California",storage,ChIJqauRRiB5hYARle_B3HO-Fg8,Public Storage,"['storage', 'store', 'point_of_interest', 'establishment']","3230 Pierce Street, Richmond",37.8999084,-122.3084469
26,"Berkeley, California",storage,ChIJTzyq5t94hYARC8roB30P1C0,Public Storage,"['storage', 'store', 'point_of_interest', 'establishment']","3235 Jacuzzi Street, Richmond",37.9001566,-122.3111015
27,"Berkeley, California",storage,ChIJk0ZtVW94hYARq2HZi1J9YI0,Dreisbach Cold Storage,"['storage', 'point_of_interest', 'establishment']","3151 Regatta Boulevard, Richmond",37.9209513,-122.3409142
28,"Berkeley, California",storage,ChIJa0WUC-t-hYARjYlxPAJACgg,Berkeley Self Storage,"['storage', 'point_of_interest', 'establishment']","2235 San Pablo Avenue, Berkeley",37.8654522,-122.2905859
29,"Berkeley, California",storage,ChIJmQ0dMVt-hYARTNqyx4NZycs,Zippy Shell ACS,"['storage', 'point_of_interest', 'establishment']","5801 Christie Avenue, Emeryville",37.83909870000001,-122.2958248
30,"Berkeley, California",storage,ChIJSefPIeJ9hYARRH1CWue5dKE,StorQuest Self Storage,"['moving_company', 'storage', 'store', 'point_of_interest', 'establishment']","4601 Shattuck Avenue, Oakland",37.833928,-122.263903
31,"Berkeley, California",storage,ChIJS0dzGM2Aj4ARkp3ahJyjgm0,Extra Space Storage,"['moving_company', 'storage', 'store', 'point_of_interest', 'establishment']","210 Fallon Street, Oakland",37.7922522,-122.2660588
32,"Berkeley, California",storage,ChIJO5DzGryAj4ARVtNoit2URp0,Extra Space Storage,"['moving_company', 'storage', 'store', 'point_of_interest', 'establishment']","300 Market Street, Oakland",37.800074,-122.283263
33,"Berkeley, California",storage,ChIJQyJVPR5-hYARDq17-Hoedc0,Sweet Maria's Coffee Warehouse,"['storage', 'point_of_interest', 'establishment']","2823 Adeline Street, Oakland",37.82075320000001,-122.282247
34,"Berkeley, California",storage,ChIJV9gnbeF5j4ARrDE4td625wQ,Route 66 Moving Company,"['moving_company', 'storage', 'point_of_interest', 'establishment']","801 Avenue H Unit A, San Francisco",37.8253595,-122.3703609
35,"Berkeley, California",storage,ChIJSclPzcR-hYAR3s5foMAkHWc,Golden Bear Storage,"['moving_company', 'storage', 'point_of_interest', 'establishment']","1650 Sixth Street, Berkeley",37.8724709,-122.2994226
36,"Berkeley, California",storage,ChIJTwJ7Qpd-hYARtgRcNfC00es,Ben's Moving & Trucking Berkeley House Exterior Painting,"['moving_company', 'painter', 'storage', 'point_of_interest', 'establishment']","2120 McGee Avenue, Berkeley",37.8692074,-122.2775824
37,"Berkeley, California",storage,ChIJ3aBThiJ-hYARxFV5wbeWc2E,StorageMart,"['storage', 'store', 'point_of_interest', 'establishment']","2450 Mandela Parkway, Oakland",37.81944999999999,-122.28863
38,"Berkeley, California",storage,ChIJ1T-P-O1-hYARHX5Fh-W6yvk,Flowtoys,"['storage', 'store', 'point_of_interest', 'establishment']","6315 Doyle Street, Emeryville",37.8447511,-122.2893811
39,"Berkeley, California",storage,ChIJkcqSILKAj4AR61KfYPxhyPQ,Oakland Shredding and Records Storage,"['storage', 'point_of_interest', 'establishment']","519 17th Street, Oakland",37.806709,-122.270972
40,"Berkeley, California",storage,ChIJHe_TP1B-hYARBKbkiiopmEg,Devon Self Storage Holdings,"['storage', 'point_of_interest', 'establishment']","2000 Powell Street # 1240, Emeryville",37.8379279,-122.3007416
41,"Berkeley, California",storage,ChIJRY7b99l-hYARfhfUdaPtqoE,Extra Space Storage,"['moving_company', 'storage', 'store', 'point_of_interest', 'establishment']","601 Cedar Street, Berkeley",37.8735154,-122.3048056
42,"Berkeley, California",storage,ChIJDZYq8NR-hYARwKcyD5oDUzU,Public Storage,"['storage', 'store', 'point_of_interest', 'establishment']","1120 Second Street, Berkeley",37.8811087,-122.3067942
43,"Berkeley, California",storage,ChIJAapgjAaHj4AR5VWxXsT9yCU,Public Storage,"['storage', 'store', 'point_of_interest', 'establishment']","1551 MacArthur Boulevard, Oakland",37.8003483,-122.2241364
44,"Berkeley, California",storage,ChIJnSJF2Fh-hYARSkGokR42cb8,Public Storage,"['storage', 'store', 'point_of_interest', 'establishment']","6501 Shellmound Street, Emeryville",37.8467255,-122.295162
45,"Berkeley, California",storage,ChIJqauRRiB5hYARle_B3HO-Fg8,Public Storage,"['storage', 'store', 'point_of_interest', 'establishment']","3230 Pierce Street, Richmond",37.8999084,-122.3084469
46,"Berkeley, California",storage,ChIJTzyq5t94hYARC8roB30P1C0,Public Storage,"['storage', 'store', 'point_of_interest', 'establishment']","3235 Jacuzzi Street, Richmond",37.9001566,-122.3111015
47,"Berkeley, California",storage,ChIJk0ZtVW94hYARq2HZi1J9YI0,Dreisbach Cold Storage,"['storage', 'point_of_interest', 'establishment']","3151 Regatta Boulevard, Richmond",37.9209513,-122.3409142
48,"Berkeley, California",storage,ChIJa0WUC-t-hYARjYlxPAJACgg,Berkeley Self Storage,"['storage', 'point_of_interest', 'establishment']","2235 San Pablo Avenue, Berkeley",37.8654522,-122.2905859
49,"Berkeley, California",storage,ChIJmQ0dMVt-hYARTNqyx4NZycs,Zippy Shell ACS,"['storage', 'point_of_interest', 'establishment']","5801 Christie Avenue, Emeryville",37.83909870000001,-122.2958248
50,"Berkeley, California",storage,ChIJSefPIeJ9hYARRH1CWue5dKE,StorQuest Self Storage,"['moving_company', 'storage', 'store', 'point_of_interest', 'establishment']","4601 Shattuck Avenue, Oakland",37.833928,-122.263903
51,"Berkeley, California",storage,ChIJS0dzGM2Aj4ARkp3ahJyjgm0,Extra Space Storage,"['moving_company', 'storage', 'store', 'point_of_interest', 'establishment']","210 Fallon Street, Oakland",37.7922522,-122.2660588
52,"Berkeley, California",storage,ChIJO5DzGryAj4ARVtNoit2URp0,Extra Space Storage,"['moving_company', 'storage', 'store', 'point_of_interest', 'establishment']","300 Market Street, Oakland",37.800074,-122.283263
53,"Berkeley, California",storage,ChIJQyJVPR5-hYARDq17-Hoedc0,Sweet Maria's Coffee Warehouse,"['storage', 'point_of_interest', 'establishment']","2823 Adeline Street, Oakland",37.82075320000001,-122.282247
54,"Berkeley, California",storage,ChIJV9gnbeF5j4ARrDE4td625wQ,Route 66 Moving Company,"['moving_company', 'storage', 'point_of_interest', 'establishment']","801 Avenue H Unit A, San Francisco",37.8253595,-122.3703609
55,"Berkeley, California",storage,ChIJSclPzcR-hYAR3s5foMAkHWc,Golden Bear Storage,"['moving_company', 'storage', 'point_of_interest', 'establishment']","1650 Sixth Street, Berkeley",37.8724709,-122.2994226
56,"Berkeley, California",storage,ChIJTwJ7Qpd-hYARtgRcNfC00es,Ben's Moving & Trucking Berkeley House Exterior Painting,"['moving_company', 'painter', 'storage', 'point_of_interest', 'establishment']","2120 McGee Avenue, Berkeley",37.8692074,-122.2775824
57,"Berkeley, California",storage,ChIJ3aBThiJ-hYARxFV5wbeWc2E,StorageMart,"['storage', 'store', 'point_of_interest', 'establishment']","2450 Mandela Parkway, Oakland",37.81944999999999,-122.28863
58,"Berkeley, California",storage,ChIJ1T-P-O1-hYARHX5Fh-W6yvk,Flowtoys,"['storage', 'store', 'point_of_interest', 'establishment']","6315 Doyle Street, Emeryville",37.8447511,-122.2893811
59,"Berkeley, California",storage,ChIJkcqSILKAj4AR61KfYPxhyPQ,Oakland Shredding and Records Storage,"['storage', 'point_of_interest', 'establishment']","519 17th Street, Oakland",37.806709,-122.270972
0,"Palo Alto, California",storage,ChIJ0Ut7Eyi3j4ARyIiuPRK3itk,U-Haul of Mountain View,"['moving_company', 'storage', 'store', 'point_of_interest', 'establishment']","62 W El Camino Real, Mountain View",37.3810775,-122.0740101
1,"Palo Alto, California",storage,ChIJ0ylFQdS6j4ARM1vUaZwdGmw,A2 Global Shipping,"['storage', 'point_of_interest', 'establishment']","2047 East Bayshore Road #200, Palo Alto",37.4526681,-122.1261201
2,"Palo Alto, California",storage,ChIJbXREQqejj4AR2n2EiWy46ME,U-Haul Moving & Storage of Redwood City,"['moving_company', 'storage', 'store', 'point_of_interest', 'establishment']","2200 El Camino Real, Redwood City",37.4751401,-122.2210359
3,"Palo Alto, California",storage,ChIJnaa0JnKjj4ARW3V00XUSc5o,K&L Wine Merchants,"['liquor_store', 'bar', 'storage', 'store', 'food', 'point_of_interest', 'establishment']","3005 El Camino Real, Redwood City",37.46848439999999,-122.210237
4,"Palo Alto, California",storage,ChIJRwS62wijj4ARuryUXAQU3JI,Saf Keep Storage,"['storage', 'point_of_interest', 'establishment']","2480 Middlefield Road, Redwood City",37.47775099999999,-122.214903
5,"Palo Alto, California",storage,ChIJVxhP30-3j4ARwM3iq5LDMGU,Public Storage,"['storage', 'store', 'point_of_interest', 'establishment']","1040 Terra Bella Avenue, Mountain View",37.40934729999999,-122.0741628
6,"Palo Alto, California",storage,ChIJjb5QSQa6j4ARZdXSNlsjAGc,Public Storage,"['storage', 'store', 'point_of_interest', 'establishment']","830 North Rengstorff Avenue, Mountain View",37.4154104,-122.093077
7,"Palo Alto, California",storage,ChIJ0Wh47pu8j4ARc2FmHnkjPBM,UPS Customer Center Menlo park,"['storage', 'point_of_interest', 'establishment']","1355 Adams Court, Menlo Park",37.4791549,-122.14518
8,"Palo Alto, California",storage,ChIJG2Tecaqwj4ARHAL2MXrI1bo,Public Storage,"['storage', 'store', 'point_of_interest', 'establishment']","1909 Old Middlefield Way, Mountain View",37.413504,-122.0875896
9,"Palo Alto, California",storage,ChIJu7gfwgejj4ARsXrvcmOVtSc,Bay Area Self Storage,"['moving_company', 'storage', 'store', 'point_of_interest', 'establishment']","338 Manzanita Street, Redwood City",37.4799956,-122.219231
10,"Palo Alto, California",storage,ChIJ4WGwrWC7j4ARg92iHMauVRw,Extra Space Storage,"['moving_company', 'storage', 'store', 'point_of_interest', 'establishment']","999 East Bayshore Road, East Palo Alto",37.46749,-122.151778
11,"Palo Alto, California",storage,ChIJs5eRoQajj4ARk7W-AQrdWtQ,Extra Space Storage,"['moving_company', 'storage', 'store', 'point_of_interest', 'establishment']","871 Willow Street, Redwood City",37.4849578,-122.2140933
12,"Palo Alto, California",storage,ChIJbWewLAOjj4ARNF6f3ODujFA,J J's Storage,"['storage', 'point_of_interest', 'establishment']","1715 East Bayshore Road, Redwood City",37.4899419,-122.2087319
13,"Palo Alto, California",storage,ChIJIV3iygmjj4ARLrej4fnKACg,Stor-All Storage,"['storage', 'point_of_interest', 'establishment']","136 Willow Street, Redwood City",37.477236,-122.218638
14,"Palo Alto, California",storage,ChIJZTf8Og-6j4ARz266k3dYqtE,Independence Storage,"['storage', 'point_of_interest', 'establishment']","877 Independence Avenue, Mountain View",37.4169208,-122.0967166
15,"Palo Alto, California",storage,ChIJc9kJlFe3j4ARwEIQIkFmkcw,Deanza Storage,"['storage', 'point_of_interest', 'establishment']","1075 Space Park Way, Mountain View",37.4174038,-122.0712255
16,"Palo Alto, California",storage,ChIJGdX1GTu7j4ARZdEMzjgxo5M,Safe,"['storage', 'point_of_interest', 'establishment']","791 High Street, Palo Alto",37.4420763,-122.1598339
17,"Palo Alto, California",storage,ChIJgY8zlP2ij4ARzGxiBRGvLQU,Seaport Storage Center,"['storage', 'point_of_interest', 'establishment']","1703 East Bayshore Road, Redwood City",37.49145849999999,-122.2117313
18,"Palo Alto, California",storage,ChIJl7SEDvKij4ARAolaSTGx7pI,Port of Redwood City,"['local_government_office', 'storage', 'point_of_interest', 'establishment']","675 Seaport Boulevard, Redwood City",37.5076742,-122.2091466
19,"Palo Alto, California",storage,ChIJWUBorw-6j4ARmpZMV_YEXqo,Peninsula Storage Center,"['storage', 'store', 'point_of_interest', 'establishment']","2409 Leghorn Street, Mountain View",37.4189915,-122.097695
0,"Mountain View, California",storage,ChIJ0Ut7Eyi3j4ARyIiuPRK3itk,U-Haul of Mountain View,"['moving_company', 'storage', 'store', 'point_of_interest', 'establishment']","62 W El Camino Real, Mountain View",37.3810775,-122.0740101
1,"Mountain View, California",storage,ChIJwfv-Xua1j4ARLm9cQh3a4CA,U-Haul of Sunnyvale,"['moving_company', 'storage', 'store', 'point_of_interest', 'establishment']","939 E El Camino Real, Sunnyvale",37.3524865,-122.0112912
2,"Mountain View, California",storage,ChIJx0rMKD-2j4ARWhR1IONw3Ms,Fixstars Solutions Inc.,"['storage', 'point_of_interest', 'establishment']","440 North Wolfe Road, Sunnyvale",37.383565,-122.0130042
3,"Mountain View, California",storage,ChIJ0ylFQdS6j4ARM1vUaZwdGmw,A2 Global Shipping,"['storage', 'point_of_interest', 'establishment']","2047 East Bayshore Road #200, Palo Alto",37.4526681,-122.1261201
4,"Mountain View, California",storage,ChIJk3bU9V-2j4ARx2tNJ6RfrSg,Neobits Inc,"['storage', 'point_of_interest', 'establishment']","3350 Scott Boulevard #4601, Santa Clara",37.3781837,-121.9859235
5,"Mountain View, California",storage,ChIJVxhP30-3j4ARwM3iq5LDMGU,Public Storage,"['storage', 'store', 'point_of_interest', 'establishment']","1040 Terra Bella Avenue, Mountain View",37.40934729999999,-122.0741628
6,"Mountain View, California",storage,ChIJjb5QSQa6j4ARZdXSNlsjAGc,Public Storage,"['storage', 'store', 'point_of_interest', 'establishment']","830 North Rengstorff Avenue, Mountain View",37.4154104,-122.093077
7,"Mountain View, California",storage,ChIJLzT570C2j4AR8ZWBXcZ0btQ,Public Storage,"['storage', 'store', 'point_of_interest', 'establishment']","620 East Arques Avenue, Sunnyvale",37.38127,-122.01738
8,"Mountain View, California",storage,ChIJbem0b8u3j4ARlDs0zE3S-80,Public Storage,"['storage', 'store', 'point_of_interest', 'establishment']","1096 North Fair Oaks Avenue, Sunnyvale",37.4006597,-122.0107809
9,"Mountain View, California",storage,ChIJG2Tecaqwj4ARHAL2MXrI1bo,Public Storage,"['storage', 'store', 'point_of_interest', 'establishment']","1909 Old Middlefield Way, Mountain View",37.413504,-122.0875896
10,"Mountain View, California",storage,ChIJ17wmgrW1j4ARYj3VZP3mdFI,Public Storage,"['storage', 'store', 'point_of_interest', 'establishment']","20565 Valley Green Drive, Cupertino",37.3335868,-122.0338298
11,"Mountain View, California",storage,ChIJ24vz7LS3j4ARlq5dVBRT_7w,Public Storage,"['storage', 'store', 'point_of_interest', 'establishment']","317 East Weddell Drive, Sunnyvale",37.39804399999999,-122.0196573
12,"Mountain View, California",storage,ChIJo_sHMwK2j4ARN3kQ6qKPK1w,Extra Space Storage,"['moving_company', 'storage', 'store', 'point_of_interest', 'establishment']","106 Lawrence Station Road, Sunnyvale",37.3708387,-121.9915667
13,"Mountain View, California",storage,ChIJb1Yeo_m2j4ARdH7KUoakjxY,Starlite Storage,"['moving_company', 'storage', 'point_of_interest', 'establishment']","922 West Evelyn Avenue, Sunnyvale",37.3818223,-122.042383
14,"Mountain View, California",storage,ChIJc9kJlFe3j4ARwEIQIkFmkcw,Deanza Storage,"['storage', 'point_of_interest', 'establishment']","1075 Space Park Way, Mountain View",37.4174038,-122.0712255
15,"Mountain View, California",storage,ChIJZTf8Og-6j4ARz266k3dYqtE,Independence Storage,"['storage', 'point_of_interest', 'establishment']","877 Independence Avenue, Mountain View",37.4169208,-122.0967166
16,"Mountain View, California",storage,ChIJr_vMW7m1j4ARmx_ch4pKBEk,IN Self Storage - Cupertino,"['storage', 'point_of_interest', 'establishment']","6008, 10730 North Blaney Avenue, Cupertino",37.33358799999999,-122.0219664
17,"Mountain View, California",storage,ChIJWUBorw-6j4ARmpZMV_YEXqo,Peninsula Storage Center,"['storage', 'store', 'point_of_interest', 'establishment']","2409 Leghorn Street, Mountain View",37.4189915,-122.097695
18,"Mountain View, California",storage,ChIJeYV5GyK2j4AR_bqDr3vXlv4,Public Storage,"['storage', 'store', 'point_of_interest', 'establishment']","1060 Stewart Drive, Sunnyvale",37.3840337,-121.9974848
0,"Sunnyvale, California",storage,ChIJ0Ut7Eyi3j4ARyIiuPRK3itk,U-Haul of Mountain View,"['moving_company', 'storage', 'store', 'point_of_interest', 'establishment']","62 W El Camino Real, Mountain View",37.3810775,-122.0740101
1,"Sunnyvale, California",storage,ChIJwfv-Xua1j4ARLm9cQh3a4CA,U-Haul of Sunnyvale,"['moving_company', 'storage', 'store', 'point_of_interest', 'establishment']","939 E El Camino Real, Sunnyvale",37.3524865,-122.0112912
2,"Sunnyvale, California",storage,ChIJx0rMKD-2j4ARWhR1IONw3Ms,Fixstars Solutions Inc.,"['storage', 'point_of_interest', 'establishment']","440 North Wolfe Road, Sunnyvale",37.383565,-122.0130042
3,"Sunnyvale, California",storage,ChIJJ_n1VI_Jj4ARVzUbQgLgVNk,Extra Space Storage,"['moving_company', 'storage', 'store', 'point_of_interest', 'establishment']","1775 Laurelwood Road, Santa Clara",37.3810607,-121.9586109
4,"Sunnyvale, California",storage,ChIJk3bU9V-2j4ARx2tNJ6RfrSg,Neobits Inc,"['storage', 'point_of_interest', 'establishment']","3350 Scott Boulevard #4601, Santa Clara",37.3781837,-121.9859235
5,"Sunnyvale, California",storage,ChIJKd0GTbXLj4AR1ssxRKaEvbE,Public Storage,"['storage', 'store', 'point_of_interest', 'establishment']","1955 Lafayette Street, Santa Clara",37.3597978,-121.9468735
6,"Sunnyvale, California",storage,ChIJ5UTZmLbLj4ARZvZ1223W63A,Extra Space Storage,"['moving_company', 'storage', 'store', 'point_of_interest', 'establishment']","1700 De La Cruz Boulevard, Santa Clara",37.358231,-121.941857
7,"Sunnyvale, California",storage,ChIJVxhP30-3j4ARwM3iq5LDMGU,Public Storage,"['storage', 'store', 'point_of_interest', 'establishment']","1040 Terra Bella Avenue, Mountain View",37.40934729999999,-122.0741628
8,"Sunnyvale, California",storage,ChIJjb5QSQa6j4ARZdXSNlsjAGc,Public Storage,"['storage', 'store', 'point_of_interest', 'establishment']","830 North Rengstorff Avenue, Mountain View",37.4154104,-122.093077
9,"Sunnyvale, California",storage,ChIJLzT570C2j4AR8ZWBXcZ0btQ,Public Storage,"['storage', 'store', 'point_of_interest', 'establishment']","620 East Arques Avenue, Sunnyvale",37.38127,-122.01738
10,"Sunnyvale, California",storage,ChIJbem0b8u3j4ARlDs0zE3S-80,Public Storage,"['storage', 'store', 'point_of_interest', 'establishment']","1096 North Fair Oaks Avenue, Sunnyvale",37.4006597,-122.0107809
11,"Sunnyvale, California",storage,ChIJo_sHMwK2j4ARN3kQ6qKPK1w,Extra Space Storage,"['moving_company', 'storage', 'store', 'point_of_interest', 'establishment']","106 Lawrence Station Road, Sunnyvale",37.3708387,-121.9915667
12,"Sunnyvale, California",storage,ChIJ17wmgrW1j4ARYj3VZP3mdFI,Public Storage,"['storage', 'store', 'point_of_interest', 'establishment']","20565 Valley Green Drive, Cupertino",37.3335868,-122.0338298
13,"Sunnyvale, California",storage,ChIJG2Tecaqwj4ARHAL2MXrI1bo,Public Storage,"['storage', 'store', 'point_of_interest', 'establishment']","1909 Old Middlefield Way, Mountain View",37.413504,-122.0875896
14,"Sunnyvale, California",storage,ChIJ24vz7LS3j4ARlq5dVBRT_7w,Public Storage,"['storage', 'store', 'point_of_interest', 'establishment']","317 East Weddell Drive, Sunnyvale",37.39804399999999,-122.0196573
15,"Sunnyvale, California",storage,ChIJaQ_7aCXKj4ARSNf9BLRf_oU,Extra Space Storage,"['moving_company', 'storage', 'store', 'point_of_interest', 'establishment']","2576 Scott Boulevard, Santa Clara",37.36768199999999,-121.96073
16,"Sunnyvale, California",storage,ChIJ19DQs6e_goARUZgAH77Xu0o,Penske Truck Rental,"['moving_company', 'storage', 'store', 'point_of_interest', 'establishment']","2380 Lafayette Street, Santa Clara",37.3641355,-121.9504113
17,"Sunnyvale, California",storage,ChIJISHlTy_Kj4ARTPhUuPuWRW8,Extra Storage-Santa Clara,"['moving_company', 'storage', 'store', 'point_of_interest', 'establishment']","2797 Scott Boulevard, Santa Clara",37.3711002,-121.9591755
18,"Sunnyvale, California",storage,ChIJ_UkPUZrJj4ARpv1z83awdbU,Detail Addict,"['car_wash', 'car_repair', 'storage', 'point_of_interest', 'establishment']","1675 Walsh Avenue #4, Santa Clara",37.37049100000001,-121.957193
0,"Cupertino, California",storage,ChIJ0Ut7Eyi3j4ARyIiuPRK3itk,U-Haul of Mountain View,"['moving_company', 'storage', 'store', 'point_of_interest', 'establishment']","62 W El Camino Real, Mountain View",37.3810775,-122.0740101
1,"Cupertino, California",storage,ChIJwfv-Xua1j4ARLm9cQh3a4CA,U-Haul of Sunnyvale,"['moving_company', 'storage', 'store', 'point_of_interest', 'establishment']","939 E El Camino Real, Sunnyvale",37.3524865,-122.0112912
2,"Cupertino, California",storage,ChIJx0rMKD-2j4ARWhR1IONw3Ms,Fixstars Solutions Inc.,"['storage', 'point_of_interest', 'establishment']","440 North Wolfe Road, Sunnyvale",37.383565,-122.0130042
3,"Cupertino, California",storage,ChIJJ_n1VI_Jj4ARVzUbQgLgVNk,Extra Space Storage,"['moving_company', 'storage', 'store', 'point_of_interest', 'establishment']","1775 Laurelwood Road, Santa Clara",37.3810607,-121.9586109
4,"Cupertino, California",storage,ChIJk3bU9V-2j4ARx2tNJ6RfrSg,Neobits Inc,"['storage', 'point_of_interest', 'establishment']","3350 Scott Boulevard #4601, Santa Clara",37.3781837,-121.9859235
5,"Cupertino, California",storage,ChIJKd0GTbXLj4AR1ssxRKaEvbE,Public Storage,"['storage', 'store', 'point_of_interest', 'establishment']","1955 Lafayette Street, Santa Clara",37.3597978,-121.9468735
6,"Cupertino, California",storage,ChIJ5UTZmLbLj4ARZvZ1223W63A,Extra Space Storage,"['moving_company', 'storage', 'store', 'point_of_interest', 'establishment']","1700 De La Cruz Boulevard, Santa Clara",37.358231,-121.941857
7,"Cupertino, California",storage,ChIJITWorhw1joAR81CJz_hOZ88,Extra Space Storage,"['moving_company', 'storage', 'store', 'point_of_interest', 'establishment']","187 East Sunnyoaks Avenue, Campbell",37.272646,-121.952539
8,"Cupertino, California",storage,ChIJE3NlusI0joARNrxHbyADwSU,Groovy Moving,"['moving_company', 'storage', 'point_of_interest', 'establishment']","1999 South Bascom Avenue, Campbell",37.2878586,-121.9352672
9,"Cupertino, California",storage,ChIJ17wmgrW1j4ARYj3VZP3mdFI,Public Storage,"['storage', 'store', 'point_of_interest', 'establishment']","20565 Valley Green Drive, Cupertino",37.3335868,-122.0338298
10,"Cupertino, California",storage,ChIJLzT570C2j4AR8ZWBXcZ0btQ,Public Storage,"['storage', 'store', 'point_of_interest', 'establishment']","620 East Arques Avenue, Sunnyvale",37.38127,-122.01738
11,"Cupertino, California",storage,ChIJo_sHMwK2j4ARN3kQ6qKPK1w,Extra Space Storage,"['moving_company', 'storage', 'store', 'point_of_interest', 'establishment']","106 Lawrence Station Road, Sunnyvale",37.3708387,-121.9915667
12,"Cupertino, California",storage,ChIJQUm7gNbKj4AR0fnYdgeNdu4,Twinlode Corporation In California,"['storage', 'point_of_interest', 'establishment']","1101 South Winchester Boulevard # J220, San Jose",37.3061073,-121.9512217
13,"Cupertino, California",storage,ChIJbem0b8u3j4ARlDs0zE3S-80,Public Storage,"['storage', 'store', 'point_of_interest', 'establishment']","1096 North Fair Oaks Avenue, Sunnyvale",37.4006597,-122.0107809
14,"Cupertino, California",storage,ChIJ24vz7LS3j4ARlq5dVBRT_7w,Public Storage,"['storage', 'store', 'point_of_interest', 'establishment']","317 East Weddell Drive, Sunnyvale",37.39804399999999,-122.0196573
15,"Cupertino, California",storage,ChIJaQ_7aCXKj4ARSNf9BLRf_oU,Extra Space Storage,"['moving_company', 'storage', 'store', 'point_of_interest', 'establishment']","2576 Scott Boulevard, Santa Clara",37.36768199999999,-121.96073
16,"Cupertino, California",storage,ChIJ19DQs6e_goARUZgAH77Xu0o,Penske Truck Rental,"['moving_company', 'storage', 'store', 'point_of_interest', 'establishment']","2380 Lafayette Street, Santa Clara",37.3641355,-121.9504113
17,"Cupertino, California",storage,ChIJvSTK5i7Lj4ARj7UCHiIQQOY,Extra Space Storage,"['moving_company', 'storage', 'store', 'point_of_interest', 'establishment']","895 Thornton Way, San Jose",37.3107072,-121.9398998
18,"Cupertino, California",storage,ChIJoyf8RwM1joAR9dL_0TmGRzk,Public Storage,"['storage', 'store', 'point_of_interest', 'establishment']","155 East Sunnyoaks Avenue, Campbell",37.27210060000001,-121.9516918
0,"Santa Clara, California",storage,ChIJwfv-Xua1j4ARLm9cQh3a4CA,U-Haul of Sunnyvale,"['moving_company', 'storage', 'store', 'point_of_interest', 'establishment']","939 E El Camino Real, Sunnyvale",37.3524865,-122.0112912
1,"Santa Clara, California",storage,ChIJJ_n1VI_Jj4ARVzUbQgLgVNk,Extra Space Storage,"['moving_company', 'storage', 'store', 'point_of_interest', 'establishment']","1775 Laurelwood Road, Santa Clara",37.3810607,-121.9586109
2,"Santa Clara, California",storage,ChIJoa6uFU3Jj4ARdfuM6OHbJVc,U-Haul of Milpitas,"['moving_company', 'storage', 'store', 'point_of_interest', 'establishment']","2395 Oakland Road, San Jose",37.404008,-121.903293
3,"Santa Clara, California",storage,ChIJx0rMKD-2j4ARWhR1IONw3Ms,Fixstars Solutions Inc.,"['storage', 'point_of_interest', 'establishment']","440 North Wolfe Road, Sunnyvale",37.383565,-122.0130042
4,"Santa Clara, California",storage,ChIJt5wZCl_Mj4ARgj9ZRLSUMPk,Public Storage,"['storage', 'store', 'point_of_interest', 'establishment']","1395 Mabury Road, San Jose",37.3634581,-121.8756479
5,"Santa Clara, California",storage,ChIJa3UOjHrMj4ARn6wLoltzLbE,Extra Space Storage,"['moving_company', 'storage', 'store', 'point_of_interest', 'establishment']","1265 Oakland Road, San Jose",37.36626999999999,-121.892865
6,"Santa Clara, California",storage,ChIJKd0GTbXLj4AR1ssxRKaEvbE,Public Storage,"['storage', 'store', 'point_of_interest', 'establishment']","1955 Lafayette Street, Santa Clara",37.3597978,-121.9468735
7,"Santa Clara, California",storage,ChIJ5UTZmLbLj4ARZvZ1223W63A,Extra Space Storage,"['moving_company', 'storage', 'store', 'point_of_interest', 'establishment']","1700 De La Cruz Boulevard, Santa Clara",37.358231,-121.941857
8,"Santa Clara, California",storage,ChIJk3bU9V-2j4ARx2tNJ6RfrSg,Neobits Inc,"['storage', 'point_of_interest', 'establishment']","3350 Scott Boulevard #4601, Santa Clara",37.3781837,-121.9859235
9,"Santa Clara, California",storage,ChIJE3NlusI0joARNrxHbyADwSU,Groovy Moving,"['moving_company', 'storage', 'point_of_interest', 'establishment']","1999 South Bascom Avenue, Campbell",37.2878586,-121.9352672
10,"Santa Clara, California",storage,ChIJITWorhw1joAR81CJz_hOZ88,Extra Space Storage,"['moving_company', 'storage', 'store', 'point_of_interest', 'establishment']","187 East Sunnyoaks Avenue, Campbell",37.272646,-121.952539
11,"Santa Clara, California",storage,ChIJ42h_WYHLj4ARi8pc8LWfe7c,Bosco Digital,"['storage', 'point_of_interest', 'establishment']","1155 North 1st Street #100, San Jose",37.357377,-121.907146
12,"Santa Clara, California",storage,ChIJB8hhHobMj4ARO3ZW8ZMywA4,Extra Space Storage,"['moving_company', 'storage', 'store', 'point_of_interest', 'establishment']","720 North 10th Street, San Jose",37.3544502,-121.8905869
13,"Santa Clara, California",storage,ChIJmfLt0nIzjoARFVLtKuOzNoY,U-Haul at Curtner Ave,"['moving_company', 'storage', 'store', 'point_of_interest', 'establishment']","705 Curtner Avenue, San Jose",37.2930012,-121.8757822
14,"Santa Clara, California",storage,ChIJo_sHMwK2j4ARN3kQ6qKPK1w,Extra Space Storage,"['moving_company', 'storage', 'store', 'point_of_interest', 'establishment']","106 Lawrence Station Road, Sunnyvale",37.3708387,-121.9915667
15,"Santa Clara, California",storage,ChIJLzT570C2j4AR8ZWBXcZ0btQ,Public Storage,"['storage', 'store', 'point_of_interest', 'establishment']","620 East Arques Avenue, Sunnyvale",37.38127,-122.01738
16,"Santa Clara, California",storage,ChIJbem0b8u3j4ARlDs0zE3S-80,Public Storage,"['storage', 'store', 'point_of_interest', 'establishment']","1096 North Fair Oaks Avenue, Sunnyvale",37.4006597,-122.0107809
17,"Santa Clara, California",storage,ChIJ0Uyh0VbJj4ARp1VoWYvMCKM,Lock It Up Self Storage,"['storage', 'point_of_interest', 'establishment']","2170 O'Toole Avenue, San Jose",37.395408,-121.909779
18,"Santa Clara, California",storage,ChIJ17wmgrW1j4ARYj3VZP3mdFI,Public Storage,"['storage', 'store', 'point_of_interest', 'establishment']","20565 Valley Green Drive, Cupertino",37.3335868,-122.0338298
0,"San Jose, California",storage,ChIJoa6uFU3Jj4ARdfuM6OHbJVc,U-Haul of Milpitas,"['moving_company', 'storage', 'store', 'point_of_interest', 'establishment']","2395 Oakland Road, San Jose",37.404008,-121.903293
1,"San Jose, California",storage,ChIJmfLt0nIzjoARFVLtKuOzNoY,U-Haul at Curtner Ave,"['moving_company', 'storage', 'store', 'point_of_interest', 'establishment']","705 Curtner Avenue, San Jose",37.2930012,-121.8757822
2,"San Jose, California",storage,ChIJJ_n1VI_Jj4ARVzUbQgLgVNk,Extra Space Storage,"['moving_company', 'storage', 'store', 'point_of_interest', 'establishment']","1775 Laurelwood Road, Santa Clara",37.3810607,-121.9586109
3,"San Jose, California",storage,ChIJt5wZCl_Mj4ARgj9ZRLSUMPk,Public Storage,"['storage', 'store', 'point_of_interest', 'establishment']","1395 Mabury Road, San Jose",37.3634581,-121.8756479
4,"San Jose, California",storage,ChIJa3UOjHrMj4ARn6wLoltzLbE,Extra Space Storage,"['moving_company', 'storage', 'store', 'point_of_interest', 'establishment']","1265 Oakland Road, San Jose",37.36626999999999,-121.892865
5,"San Jose, California",storage,ChIJU7NFLOQyjoARRcZZvhq41J0,U-Haul at Tully Rd,"['moving_company', 'storage', 'store', 'point_of_interest', 'establishment']","2395 Senter Road, San Jose",37.3080218,-121.8482107
6,"San Jose, California",storage,ChIJKd0GTbXLj4AR1ssxRKaEvbE,Public Storage,"['storage', 'store', 'point_of_interest', 'establishment']","1955 Lafayette Street, Santa Clara",37.3597978,-121.9468735
7,"San Jose, California",storage,ChIJ5UTZmLbLj4ARZvZ1223W63A,Extra Space Storage,"['moving_company', 'storage', 'store', 'point_of_interest', 'establishment']","1700 De La Cruz Boulevard, Santa Clara",37.358231,-121.941857
8,"San Jose, California",storage,ChIJE3NlusI0joARNrxHbyADwSU,Groovy Moving,"['moving_company', 'storage', 'point_of_interest', 'establishment']","1999 South Bascom Avenue, Campbell",37.2878586,-121.9352672
9,"San Jose, California",storage,ChIJ42h_WYHLj4ARi8pc8LWfe7c,Bosco Digital,"['storage', 'point_of_interest', 'establishment']","1155 North 1st Street #100, San Jose",37.357377,-121.907146
10,"San Jose, California",storage,ChIJB8hhHobMj4ARO3ZW8ZMywA4,Extra Space Storage,"['moving_company', 'storage', 'store', 'point_of_interest', 'establishment']","720 North 10th Street, San Jose",37.3544502,-121.8905869
11,"San Jose, California",storage,ChIJv-nITmAtjoAROKamYsSjXhw,Public Storage,"['storage', 'store', 'point_of_interest', 'establishment']","2255 Tully Road, San Jose",37.3280763,-121.8181956
12,"San Jose, California",storage,ChIJITWorhw1joAR81CJz_hOZ88,Extra Space Storage,"['moving_company', 'storage', 'store', 'point_of_interest', 'establishment']","187 East Sunnyoaks Avenue, Campbell",37.272646,-121.952539
13,"San Jose, California",storage,ChIJ0Uyh0VbJj4ARp1VoWYvMCKM,Lock It Up Self Storage,"['storage', 'point_of_interest', 'establishment']","2170 O'Toole Avenue, San Jose",37.395408,-121.909779
14,"San Jose, California",storage,ChIJk4QKcuQyjoAR_7mj9sjURT8,Public Storage,"['storage', 'store', 'point_of_interest', 'establishment']","475 Tully Road, San Jose",37.3064483,-121.8505494
15,"San Jose, California",storage,ChIJQUm7gNbKj4AR0fnYdgeNdu4,Twinlode Corporation In California,"['storage', 'point_of_interest', 'establishment']","1101 South Winchester Boulevard # J220, San Jose",37.3061073,-121.9512217
16,"San Jose, California",storage,ChIJ19DQs6e_goARUZgAH77Xu0o,Penske Truck Rental,"['moving_company', 'storage', 'store', 'point_of_interest', 'establishment']","2380 Lafayette Street, Santa Clara",37.3641355,-121.9504113
17,"San Jose, California",storage,ChIJP8oi-VfJj4ARDhUYD4qxnbo,American Tire Distributors Inc,"['storage', 'point_of_interest', 'establishment']","645 Dado Street, San Jose",37.3900478,-121.9133055
18,"San Jose, California",storage,ChIJvSTK5i7Lj4ARj7UCHiIQQOY,Extra Space Storage,"['moving_company', 'storage', 'store', 'point_of_interest', 'establishment']","895 Thornton Way, San Jose",37.3107072,-121.9398998
0,"Fremont, California",storage,ChIJ-Xf-hHW_j4ARMy5BBF7MkCU,Public Storage,"['storage', 'store', 'point_of_interest', 'establishment']","4555 Peralta Boulevard, Fremont",37.5515914,-122.0122626
1,"Fremont, California",storage,ChIJEVBOZRK_j4ARqNTgbv49gp4,Public Storage,"['storage', 'store', 'point_of_interest', 'establishment']","37444 Cedar Boulevard, Newark",37.539231,-122.0200811
2,"Fremont, California",storage,ChIJ6x7QdhDHj4AR5wywHrL4Fvg,Public Storage,"['storage', 'store', 'point_of_interest', 'establishment']","4444 Enterprise Street, Fremont",37.50275999999999,-121.95955
3,"Fremont, California",storage,ChIJc4UekkbHj4ARN5NtqbxhZJ4,Public Storage,"['storage', 'store', 'point_of_interest', 'establishment']","42101 Albrae Street, Fremont",37.51174580000001,-121.9744181
4,"Fremont, California",storage,ChIJyT5NKHiVj4AR3-dybF4t3lo,Public Storage,"['storage', 'store', 'point_of_interest', 'establishment']","33476 Alvarado-Niles Road, Union City",37.59244229999999,-122.0361435
5,"Fremont, California",storage,ChIJgT6WHFjHj4ARub1V6PRE2C8,Moishe's Mobile Storage,"['moving_company', 'storage', 'point_of_interest', 'establishment']","41099 Boyce Road, Fremont",37.5101061,-121.9917687
6,"Fremont, California",storage,ChIJl5Yji1u-j4ARux2xFyCYlqM,Public Storage,"['storage', 'store', 'point_of_interest', 'establishment']","6800 Overlake Place, Newark",37.5450937,-122.0564078
7,"Fremont, California",storage,ChIJ6yMJFbeVj4AR36sgdcgQZ9o,Ceva Logistics,"['storage', 'point_of_interest', 'establishment']","31353 Huntwood Avenue, Hayward",37.60702099999999,-122.056876
8,"Fremont, California",storage,ChIJIVhtFKWVj4AR-677JMSRpNQ,Public Storage,"['storage', 'store', 'point_of_interest', 'establishment']","1639 Whipple Road, Hayward",37.6063601,-122.0478658
9,"Fremont, California",storage,ChIJPWmbsKC_j4ARgQJD-7KaQW4,U-Haul Moving & Storage of Thornton,"['moving_company', 'storage', 'store', 'point_of_interest', 'establishment']","4833 Thornton Avenue, Fremont",37.5505082,-122.0203095
10,"Fremont, California",storage,ChIJEVBOZRK_j4ARixI-9xf3Ldw,Public Storage,"['storage', 'store', 'point_of_interest', 'establishment']","38290 Cedar Boulevard, Newark",37.5341159,-122.0118993
11,"Fremont, California",storage,ChIJo2KNUUDGj4ARgiyiTE5hP0M,Public Storage,"['storage', 'store', 'point_of_interest', 'establishment']","47209 Warm Springs Boulevard, Fremont",37.4840796,-121.9267743
12,"Fremont, California",storage,ChIJM5O12eDGj4ARg1WXlaHcVeg,Auto Mall Parkway Self Storage,"['storage', 'point_of_interest', 'establishment']","43941 Osgood Road, Fremont",37.512809,-121.943086
13,"Fremont, California",storage,ChIJFXVNmHLsj4ARa77hJwcbNUA,eRecordsUSA - Document & Book Scanning Services,"['storage', 'point_of_interest', 'establishment']","46520 Fremont Boulevard STE 602, Fremont",37.4846305,-121.9451684
14,"Fremont, California",storage,ChIJFXVNmHLsj4ARQvG63Etspzg,Data Entry / OCR Services - SFBayDataEntry,"['storage', 'point_of_interest', 'establishment']","46520 Fremont Boulevard, Fremont",37.48450699999999,-121.9448758
15,"Fremont, California",storage,ChIJ-0IEGyjHj4ARA9N88T7g8HI,CubeSmart Self Storage,"['moving_company', 'storage', 'store', 'point_of_interest', 'establishment']","42816 Osgood Road, Fremont",37.5240445,-121.9481915
16,"Fremont, California",storage,ChIJd3tibRzHj4ARmIm-b4YZhro,Decorative Plumbing Distributors,"['storage', 'point_of_interest', 'establishment']","4200 Business Center Drive, Fremont",37.5063888,-121.9523457
17,"Fremont, California",storage,ChIJGQMJfUHHj4ARKZcTgx_peY8,Anju Technology,"['storage', 'point_of_interest', 'establishment']","42808 Christy Street # 116, Fremont",37.5087888,-121.9755108
18,"Fremont, California",storage,ChIJycO4twTHj4ARv5AwMxXh02s,U-Haul Moving & Storage of Fremont,"['moving_company', 'storage', 'store', 'point_of_interest', 'establishment']","44511 South Grimmer Boulevard, Fremont",37.5017033,-121.9542064
