,City,Type,Place ID,Name,Point of interests,Address,Lat,Lng
0,"San Francisco, California",supermarket,ChIJhYcNTH6AhYARLCy6SOK5mbo,Whole Foods Market,"['grocery_or_supermarket', 'supermarket', 'store', 'health', 'food', 'point_of_interest', 'establishment']","399 4th Street, San Francisco",37.7812218,-122.3999131
1,"San Francisco, California",supermarket,ChIJC55dsuqAhYARQApjF1OPPWU,Whole Foods Market,"['grocery_or_supermarket', 'supermarket', 'store', 'health', 'food', 'point_of_interest', 'establishment']","1765 California Street, San Francisco",37.7899512,-122.4231006
2,"San Francisco, California",supermarket,ChIJi9oZRJOAhYARghWHny7nWBA,Trader Joe's,"['grocery_or_supermarket', 'florist', 'supermarket', 'liquor_store', 'store', 'health', 'food', 'point_of_interest', 'establishment']","1095 Hyde Street, San Francisco",37.7907726,-122.4180046
3,"San Francisco, California",supermarket,ChIJBWRDUyl-j4ARbqKZH9F4ezA,Trader Joe's,"['grocery_or_supermarket', 'florist', 'supermarket', 'liquor_store', 'store', 'health', 'food', 'point_of_interest', 'establishment']","555 9th Street, San Francisco",37.77102600000001,-122.407843
4,"San Francisco, California",supermarket,ChIJ0XsfYyZ-j4ARNE4pMC-q7UI,Rainbow Grocery,"['grocery_or_supermarket', 'supermarket', 'store', 'health', 'food', 'point_of_interest', 'establishment']","1745 Folsom Street, San Francisco",37.7692662,-122.415454
5,"San Francisco, California",supermarket,ChIJGeeuRjWHhYARh6JurlcBi5Y,Trader Joe's,"['grocery_or_supermarket', 'florist', 'supermarket', 'liquor_store', 'store', 'health', 'food', 'point_of_interest', 'establishment']","3 Masonic Avenue, San Francisco",37.7833965,-122.4478414
6,"San Francisco, California",supermarket,ChIJU7KLkFGHhYARM2eYQ9u3yJE,Whole Foods Market,"['grocery_or_supermarket', 'supermarket', 'store', 'health', 'food', 'point_of_interest', 'establishment']","690 Stanyan Street, San Francisco",37.7695526,-122.4528209
7,"San Francisco, California",supermarket,ChIJpaZAnhN-j4ARC-HGxxzejQ8,Whole Foods Market,"['grocery_or_supermarket', 'supermarket', 'store', 'health', 'food', 'point_of_interest', 'establishment']","3950 24th Street, San Francisco",37.751965,-122.430905
8,"San Francisco, California",supermarket,ChIJBU6MxOSAhYARYAZiSw44REU,Trader Joe's,"['grocery_or_supermarket', 'florist', 'supermarket', 'liquor_store', 'store', 'health', 'food', 'point_of_interest', 'establishment']","401 Bay Street, San Francisco",37.8055028,-122.4137645
9,"San Francisco, California",supermarket,ChIJo0XH17iAhYARHD-QdYKgdjk,Nijiya Market,"['supermarket', 'grocery_or_supermarket', 'store', 'food', 'point_of_interest', 'establishment']","1737 Post Street #333, San Francisco",37.7852508,-122.4310319
10,"San Francisco, California",supermarket,ChIJfzGVGrp9j4ARvr54VKCLQnc,Trader Joe's,"['grocery_or_supermarket', 'florist', 'supermarket', 'liquor_store', 'store', 'health', 'food', 'point_of_interest', 'establishment']","265 Winston Drive, San Francisco",37.7266741,-122.4762484
11,"San Francisco, California",supermarket,ChIJnwZ_QDN-j4ARZgoZ-NAkywY,Whole Foods Market,"['grocery_or_supermarket', 'supermarket', 'store', 'health', 'food', 'point_of_interest', 'establishment']","450 Rhode Island Street, San Francisco",37.76426500000001,-122.4028099
12,"San Francisco, California",supermarket,ChIJq6qqqoZ-j4ARg4Jybn5PcoM,Whole Foods Market,"['grocery_or_supermarket', 'supermarket', 'store', 'health', 'food', 'point_of_interest', 'establishment']","1150 Ocean Avenue, San Francisco",37.72378010000001,-122.4549994
13,"San Francisco, California",supermarket,ChIJdXHo0ceAhYAR0rZF2T_NeUE,Mollie Stone's Markets,"['grocery_or_supermarket', 'supermarket', 'store', 'food', 'point_of_interest', 'establishment']","2435 California Street, San Francisco",37.7886915,-122.4345495
14,"San Francisco, California",supermarket,ChIJ-arRLOd9j4ARzfBsCS8u1_4,Mollie Stone's Market,"['grocery_or_supermarket', 'supermarket', 'store', 'food', 'point_of_interest', 'establishment']","635 Portola Drive, San Francisco",37.7447552,-122.4522998
15,"San Francisco, California",supermarket,ChIJq5CqoAiHhYAR4WR-vRlflPY,Grocery Outlet Bargain Market,"['grocery_or_supermarket', 'supermarket', 'store', 'food', 'point_of_interest', 'establishment']","6333 Geary Boulevard, San Francisco",37.7796711,-122.4875987
16,"San Francisco, California",supermarket,ChIJLaW5fFt8j4ARlo3sQdEKRXs,Trader Joe's,"['grocery_or_supermarket', 'florist', 'supermarket', 'liquor_store', 'store', 'health', 'food', 'point_of_interest', 'establishment']","417 Westlake Center, Daly City",37.6999999,-122.4822744
17,"San Francisco, California",supermarket,ChIJCRbPKLOAhYARodDE5raXmzc,Lucky,"['supermarket', 'bakery', 'grocery_or_supermarket', 'store', 'food', 'point_of_interest', 'establishment']","1750 Fulton Street #756, San Francisco",37.776174,-122.445785
18,"San Francisco, California",supermarket,ChIJp_T6IUaHhYARCB8W4fTwncI,Arguello Market,"['supermarket', 'grocery_or_supermarket', 'store', 'food', 'point_of_interest', 'establishment']","4066, 782 Arguello Boulevard, San Francisco",37.7756479,-122.45812
19,"San Francisco, California",supermarket,ChIJM77avBZ8j4ARQzHXgjadABA,Lucky California,"['supermarket', 'grocery_or_supermarket', 'store', 'food', 'point_of_interest', 'establishment']","6843 Mission Street, Daly City",37.6980235,-122.4630126
20,"San Francisco, California",supermarket,ChIJhYcNTH6AhYARLCy6SOK5mbo,Whole Foods Market,"['grocery_or_supermarket', 'supermarket', 'store', 'health', 'food', 'point_of_interest', 'establishment']","399 4th Street, San Francisco",37.7812218,-122.3999131
21,"San Francisco, California",supermarket,ChIJC55dsuqAhYARQApjF1OPPWU,Whole Foods Market,"['grocery_or_supermarket', 'supermarket', 'store', 'health', 'food', 'point_of_interest', 'establishment']","1765 California Street, San Francisco",37.7899512,-122.4231006
22,"San Francisco, California",supermarket,ChIJi9oZRJOAhYARghWHny7nWBA,Trader Joe's,"['grocery_or_supermarket', 'florist', 'supermarket', 'liquor_store', 'store', 'health', 'food', 'point_of_interest', 'establishment']","1095 Hyde Street, San Francisco",37.7907726,-122.4180046
23,"San Francisco, California",supermarket,ChIJBWRDUyl-j4ARbqKZH9F4ezA,Trader Joe's,"['grocery_or_supermarket', 'florist', 'supermarket', 'liquor_store', 'store', 'health', 'food', 'point_of_interest', 'establishment']","555 9th Street, San Francisco",37.77102600000001,-122.407843
24,"San Francisco, California",supermarket,ChIJ0XsfYyZ-j4ARNE4pMC-q7UI,Rainbow Grocery,"['grocery_or_supermarket', 'supermarket', 'store', 'health', 'food', 'point_of_interest', 'establishment']","1745 Folsom Street, San Francisco",37.7692662,-122.415454
25,"San Francisco, California",supermarket,ChIJGeeuRjWHhYARh6JurlcBi5Y,Trader Joe's,"['grocery_or_supermarket', 'florist', 'supermarket', 'liquor_store', 'store', 'health', 'food', 'point_of_interest', 'establishment']","3 Masonic Avenue, San Francisco",37.7833965,-122.4478414
26,"San Francisco, California",supermarket,ChIJU7KLkFGHhYARM2eYQ9u3yJE,Whole Foods Market,"['grocery_or_supermarket', 'supermarket', 'store', 'health', 'food', 'point_of_interest', 'establishment']","690 Stanyan Street, San Francisco",37.7695526,-122.4528209
27,"San Francisco, California",supermarket,ChIJpaZAnhN-j4ARC-HGxxzejQ8,Whole Foods Market,"['grocery_or_supermarket', 'supermarket', 'store', 'health', 'food', 'point_of_interest', 'establishment']","3950 24th Street, San Francisco",37.751965,-122.430905
28,"San Francisco, California",supermarket,ChIJBU6MxOSAhYARYAZiSw44REU,Trader Joe's,"['grocery_or_supermarket', 'florist', 'supermarket', 'liquor_store', 'store', 'health', 'food', 'point_of_interest', 'establishment']","401 Bay Street, San Francisco",37.8055028,-122.4137645
29,"San Francisco, California",supermarket,ChIJo0XH17iAhYARHD-QdYKgdjk,Nijiya Market,"['supermarket', 'grocery_or_supermarket', 'store', 'food', 'point_of_interest', 'establishment']","1737 Post Street #333, San Francisco",37.7852508,-122.4310319
30,"San Francisco, California",supermarket,ChIJfzGVGrp9j4ARvr54VKCLQnc,Trader Joe's,"['grocery_or_supermarket', 'florist', 'supermarket', 'liquor_store', 'store', 'health', 'food', 'point_of_interest', 'establishment']","265 Winston Drive, San Francisco",37.7266741,-122.4762484
31,"San Francisco, California",supermarket,ChIJnwZ_QDN-j4ARZgoZ-NAkywY,Whole Foods Market,"['grocery_or_supermarket', 'supermarket', 'store', 'health', 'food', 'point_of_interest', 'establishment']","450 Rhode Island Street, San Francisco",37.76426500000001,-122.4028099
32,"San Francisco, California",supermarket,ChIJq6qqqoZ-j4ARg4Jybn5PcoM,Whole Foods Market,"['grocery_or_supermarket', 'supermarket', 'store', 'health', 'food', 'point_of_interest', 'establishment']","1150 Ocean Avenue, San Francisco",37.72378010000001,-122.4549994
33,"San Francisco, California",supermarket,ChIJdXHo0ceAhYAR0rZF2T_NeUE,Mollie Stone's Markets,"['grocery_or_supermarket', 'supermarket', 'store', 'food', 'point_of_interest', 'establishment']","2435 California Street, San Francisco",37.7886915,-122.4345495
34,"San Francisco, California",supermarket,ChIJ-arRLOd9j4ARzfBsCS8u1_4,Mollie Stone's Market,"['grocery_or_supermarket', 'supermarket', 'store', 'food', 'point_of_interest', 'establishment']","635 Portola Drive, San Francisco",37.7447552,-122.4522998
35,"San Francisco, California",supermarket,ChIJq5CqoAiHhYAR4WR-vRlflPY,Grocery Outlet Bargain Market,"['grocery_or_supermarket', 'supermarket', 'store', 'food', 'point_of_interest', 'establishment']","6333 Geary Boulevard, San Francisco",37.7796711,-122.4875987
36,"San Francisco, California",supermarket,ChIJLaW5fFt8j4ARlo3sQdEKRXs,Trader Joe's,"['grocery_or_supermarket', 'florist', 'supermarket', 'liquor_store', 'store', 'health', 'food', 'point_of_interest', 'establishment']","417 Westlake Center, Daly City",37.6999999,-122.4822744
37,"San Francisco, California",supermarket,ChIJCRbPKLOAhYARodDE5raXmzc,Lucky,"['supermarket', 'bakery', 'grocery_or_supermarket', 'store', 'food', 'point_of_interest', 'establishment']","1750 Fulton Street #756, San Francisco",37.776174,-122.445785
38,"San Francisco, California",supermarket,ChIJp_T6IUaHhYARCB8W4fTwncI,Arguello Market,"['supermarket', 'grocery_or_supermarket', 'store', 'food', 'point_of_interest', 'establishment']","4066, 782 Arguello Boulevard, San Francisco",37.7756479,-122.45812
39,"San Francisco, California",supermarket,ChIJM77avBZ8j4ARQzHXgjadABA,Lucky California,"['supermarket', 'grocery_or_supermarket', 'store', 'food', 'point_of_interest', 'establishment']","6843 Mission Street, Daly City",37.6980235,-122.4630126
40,"San Francisco, California",supermarket,ChIJhYcNTH6AhYARLCy6SOK5mbo,Whole Foods Market,"['grocery_or_supermarket', 'supermarket', 'store', 'health', 'food', 'point_of_interest', 'establishment']","399 4th Street, San Francisco",37.7812218,-122.3999131
41,"San Francisco, California",supermarket,ChIJC55dsuqAhYARQApjF1OPPWU,Whole Foods Market,"['grocery_or_supermarket', 'supermarket', 'store', 'health', 'food', 'point_of_interest', 'establishment']","1765 California Street, San Francisco",37.7899512,-122.4231006
42,"San Francisco, California",supermarket,ChIJi9oZRJOAhYARghWHny7nWBA,Trader Joe's,"['grocery_or_supermarket', 'florist', 'supermarket', 'liquor_store', 'store', 'health', 'food', 'point_of_interest', 'establishment']","1095 Hyde Street, San Francisco",37.7907726,-122.4180046
43,"San Francisco, California",supermarket,ChIJBWRDUyl-j4ARbqKZH9F4ezA,Trader Joe's,"['grocery_or_supermarket', 'florist', 'supermarket', 'liquor_store', 'store', 'health', 'food', 'point_of_interest', 'establishment']","555 9th Street, San Francisco",37.77102600000001,-122.407843
44,"San Francisco, California",supermarket,ChIJ0XsfYyZ-j4ARNE4pMC-q7UI,Rainbow Grocery,"['grocery_or_supermarket', 'supermarket', 'store', 'health', 'food', 'point_of_interest', 'establishment']","1745 Folsom Street, San Francisco",37.7692662,-122.415454
45,"San Francisco, California",supermarket,ChIJGeeuRjWHhYARh6JurlcBi5Y,Trader Joe's,"['grocery_or_supermarket', 'florist', 'supermarket', 'liquor_store', 'store', 'health', 'food', 'point_of_interest', 'establishment']","3 Masonic Avenue, San Francisco",37.7833965,-122.4478414
46,"San Francisco, California",supermarket,ChIJU7KLkFGHhYARM2eYQ9u3yJE,Whole Foods Market,"['grocery_or_supermarket', 'supermarket', 'store', 'health', 'food', 'point_of_interest', 'establishment']","690 Stanyan Street, San Francisco",37.7695526,-122.4528209
47,"San Francisco, California",supermarket,ChIJpaZAnhN-j4ARC-HGxxzejQ8,Whole Foods Market,"['grocery_or_supermarket', 'supermarket', 'store', 'health', 'food', 'point_of_interest', 'establishment']","3950 24th Street, San Francisco",37.751965,-122.430905
48,"San Francisco, California",supermarket,ChIJBU6MxOSAhYARYAZiSw44REU,Trader Joe's,"['grocery_or_supermarket', 'florist', 'supermarket', 'liquor_store', 'store', 'health', 'food', 'point_of_interest', 'establishment']","401 Bay Street, San Francisco",37.8055028,-122.4137645
49,"San Francisco, California",supermarket,ChIJo0XH17iAhYARHD-QdYKgdjk,Nijiya Market,"['supermarket', 'grocery_or_supermarket', 'store', 'food', 'point_of_interest', 'establishment']","1737 Post Street #333, San Francisco",37.7852508,-122.4310319
50,"San Francisco, California",supermarket,ChIJfzGVGrp9j4ARvr54VKCLQnc,Trader Joe's,"['grocery_or_supermarket', 'florist', 'supermarket', 'liquor_store', 'store', 'health', 'food', 'point_of_interest', 'establishment']","265 Winston Drive, San Francisco",37.7266741,-122.4762484
51,"San Francisco, California",supermarket,ChIJnwZ_QDN-j4ARZgoZ-NAkywY,Whole Foods Market,"['grocery_or_supermarket', 'supermarket', 'store', 'health', 'food', 'point_of_interest', 'establishment']","450 Rhode Island Street, San Francisco",37.76426500000001,-122.4028099
52,"San Francisco, California",supermarket,ChIJq6qqqoZ-j4ARg4Jybn5PcoM,Whole Foods Market,"['grocery_or_supermarket', 'supermarket', 'store', 'health', 'food', 'point_of_interest', 'establishment']","1150 Ocean Avenue, San Francisco",37.72378010000001,-122.4549994
53,"San Francisco, California",supermarket,ChIJdXHo0ceAhYAR0rZF2T_NeUE,Mollie Stone's Markets,"['grocery_or_supermarket', 'supermarket', 'store', 'food', 'point_of_interest', 'establishment']","2435 California Street, San Francisco",37.7886915,-122.4345495
54,"San Francisco, California",supermarket,ChIJ-arRLOd9j4ARzfBsCS8u1_4,Mollie Stone's Market,"['grocery_or_supermarket', 'supermarket', 'store', 'food', 'point_of_interest', 'establishment']","635 Portola Drive, San Francisco",37.7447552,-122.4522998
55,"San Francisco, California",supermarket,ChIJq5CqoAiHhYAR4WR-vRlflPY,Grocery Outlet Bargain Market,"['grocery_or_supermarket', 'supermarket', 'store', 'food', 'point_of_interest', 'establishment']","6333 Geary Boulevard, San Francisco",37.7796711,-122.4875987
56,"San Francisco, California",supermarket,ChIJLaW5fFt8j4ARlo3sQdEKRXs,Trader Joe's,"['grocery_or_supermarket', 'florist', 'supermarket', 'liquor_store', 'store', 'health', 'food', 'point_of_interest', 'establishment']","417 Westlake Center, Daly City",37.6999999,-122.4822744
57,"San Francisco, California",supermarket,ChIJCRbPKLOAhYARodDE5raXmzc,Lucky,"['supermarket', 'bakery', 'grocery_or_supermarket', 'store', 'food', 'point_of_interest', 'establishment']","1750 Fulton Street #756, San Francisco",37.776174,-122.445785
58,"San Francisco, California",supermarket,ChIJp_T6IUaHhYARCB8W4fTwncI,Arguello Market,"['supermarket', 'grocery_or_supermarket', 'store', 'food', 'point_of_interest', 'establishment']","4066, 782 Arguello Boulevard, San Francisco",37.7756479,-122.45812
59,"San Francisco, California",supermarket,ChIJM77avBZ8j4ARQzHXgjadABA,Lucky California,"['supermarket', 'grocery_or_supermarket', 'store', 'food', 'point_of_interest', 'establishment']","6843 Mission Street, Daly City",37.6980235,-122.4630126
0,"Redwood City, California",supermarket,ChIJOdKVDTu7j4ARAWS1bVZzzz8,Whole Foods Market,"['grocery_or_supermarket', 'supermarket', 'store', 'health', 'food', 'point_of_interest', 'establishment']","774 Emerson Street, Palo Alto",37.4424053,-122.1596147
1,"Redwood City, California",supermarket,ChIJ56ttweGej4ARHMC79jB6lOM,Whole Foods Market,"['grocery_or_supermarket', 'supermarket', 'store', 'health', 'food', 'point_of_interest', 'establishment']","1010 Park Place, San Mateo",37.5440811,-122.2920724
2,"Redwood City, California",supermarket,ChIJxwjj0deYj4AR8ujZmKY-sRM,99 Ranch Market,"['supermarket', 'grocery_or_supermarket', 'store', 'food', 'point_of_interest', 'establishment']","1070 Foster City Boulevard, Foster City",37.5535444,-122.2572138
3,"Redwood City, California",supermarket,ChIJSzHQdLKjj4AR182EZGl5Hgk,Whole Foods Market,"['grocery_or_supermarket', 'supermarket', 'store', 'health', 'food', 'point_of_interest', 'establishment']","1250 Jefferson Avenue, Redwood City",37.48234039999999,-122.2317548
4,"Redwood City, California",supermarket,ChIJi4LTh7Ckj4AR3cr40gKo8wM,Draeger's Market,"['supermarket', 'grocery_or_supermarket', 'store', 'food', 'point_of_interest', 'establishment']","1010 University Drive, Menlo Park",37.44923199999999,-122.185272
5,"Redwood City, California",supermarket,ChIJHz4XFiW7j4ARCIp120CAcFE,Trader Joe's,"['grocery_or_supermarket', 'florist', 'supermarket', 'liquor_store', 'store', 'health', 'food', 'point_of_interest', 'establishment']","855 El Camino Real, Palo Alto",37.4384779,-122.1576188
6,"Redwood City, California",supermarket,ChIJO6ZFgz6ij4ARKO_zrQUstAc,Trader Joe's,"['grocery_or_supermarket', 'florist', 'supermarket', 'liquor_store', 'store', 'health', 'food', 'point_of_interest', 'establishment']","1482 El Camino Real, San Carlos",37.4963881,-122.248571
7,"Redwood City, California",supermarket,ChIJ78YINbCkj4AR4-hrW6b9Y0Q,Trader Joe's,"['grocery_or_supermarket', 'florist', 'supermarket', 'liquor_store', 'store', 'health', 'food', 'point_of_interest', 'establishment']","720 Menlo Avenue, Menlo Park",37.4512243,-122.1835235
8,"Redwood City, California",supermarket,ChIJa2ZiR4Wjj4ARbp69GKePl_s,Lucky,"['supermarket', 'grocery_or_supermarket', 'store', 'food', 'point_of_interest', 'establishment']","200 Woodside Plaza, Redwood City",37.456538,-122.229618
9,"Redwood City, California",supermarket,ChIJ8c4tevGej4ARpkfcyLD2EXw,Trader Joe's,"['grocery_or_supermarket', 'florist', 'supermarket', 'liquor_store', 'store', 'health', 'food', 'point_of_interest', 'establishment']","1820-22 South Grant Street, San Mateo",37.5545382,-122.3025133
10,"Redwood City, California",supermarket,ChIJ1yYoOxufj4ARTafBzZ_Oj8o,Trader Joe's,"['grocery_or_supermarket', 'florist', 'supermarket', 'liquor_store', 'store', 'health', 'food', 'point_of_interest', 'establishment']","45 West Hillsdale Boulevard, San Mateo",37.535429,-122.298278
11,"Redwood City, California",supermarket,ChIJ_YojxRWfj4ARhqRQdlJPuA4,Mollie Stone's Markets,"['supermarket', 'grocery_or_supermarket', 'store', 'food', 'point_of_interest', 'establishment']","49 42nd Avenue, San Mateo",37.5292284,-122.2898904
12,"Redwood City, California",supermarket,ChIJRd5Tuhuij4ARbQPyL8Q8B_Q,Bianchini's Market,"['supermarket', 'grocery_or_supermarket', 'store', 'food', 'point_of_interest', 'establishment']","810 Laurel Street, San Carlos",37.503229,-122.257873
13,"Redwood City, California",supermarket,ChIJdejYS6-jj4ARc5yNQVuBb_s,Mi Rancho Supermarket,"['supermarket', 'grocery_or_supermarket', 'store', 'food', 'point_of_interest', 'establishment']","137 Roosevelt Avenue, Redwood City",37.478277,-122.225394
14,"Redwood City, California",supermarket,ChIJUzC8sWafj4ARASZmd6NG3r8,Lunardi's Markets,"['grocery_or_supermarket', 'supermarket', 'store', 'food', 'point_of_interest', 'establishment']","1085 Alameda de las Pulgas, Belmont",37.5106159,-122.2931803
15,"Redwood City, California",supermarket,ChIJaTZmBmyjj4ARznDongwtCmE,Chavez Supermarket,"['supermarket', 'grocery_or_supermarket', 'store', 'food', 'point_of_interest', 'establishment']","3282 Middlefield Road, Menlo Park",37.47057129999999,-122.2032762
16,"Redwood City, California",supermarket,ChIJKb_qWE-7j4ARS0PSdsGO534,The Willows Market,"['supermarket', 'grocery_or_supermarket', 'store', 'food', 'point_of_interest', 'establishment']","60 Middlefield Road, Menlo Park",37.45451819999999,-122.1632802
17,"Redwood City, California",supermarket,ChIJP2oOEBaij4ARFQJJYUZhgpU,Lucky,"['supermarket', 'grocery_or_supermarket', 'store', 'food', 'point_of_interest', 'establishment']","1133 Old County Road, San Carlos",37.500295,-122.249249
18,"Redwood City, California",supermarket,ChIJMZvuRimfj4AR8AyYqBEs-4s,Lucky California,"['supermarket', 'grocery_or_supermarket', 'store', 'food', 'point_of_interest', 'establishment']","919 Edgewater Boulevard, Foster City",37.545455,-122.271234
19,"Redwood City, California",supermarket,ChIJmx2uCQSjj4ARSvNqpaFS4qk,Smart & Final,"['grocery_or_supermarket', 'supermarket', 'storage', 'store', 'food', 'point_of_interest', 'establishment']","1185 Broadway, Redwood City",37.486416,-122.213845
20,"Redwood City, California",supermarket,ChIJOdKVDTu7j4ARAWS1bVZzzz8,Whole Foods Market,"['grocery_or_supermarket', 'supermarket', 'store', 'health', 'food', 'point_of_interest', 'establishment']","774 Emerson Street, Palo Alto",37.4424053,-122.1596147
21,"Redwood City, California",supermarket,ChIJ56ttweGej4ARHMC79jB6lOM,Whole Foods Market,"['grocery_or_supermarket', 'supermarket', 'store', 'health', 'food', 'point_of_interest', 'establishment']","1010 Park Place, San Mateo",37.5440811,-122.2920724
22,"Redwood City, California",supermarket,ChIJxwjj0deYj4AR8ujZmKY-sRM,99 Ranch Market,"['supermarket', 'grocery_or_supermarket', 'store', 'food', 'point_of_interest', 'establishment']","1070 Foster City Boulevard, Foster City",37.5535444,-122.2572138
23,"Redwood City, California",supermarket,ChIJSzHQdLKjj4AR182EZGl5Hgk,Whole Foods Market,"['grocery_or_supermarket', 'supermarket', 'store', 'health', 'food', 'point_of_interest', 'establishment']","1250 Jefferson Avenue, Redwood City",37.48234039999999,-122.2317548
24,"Redwood City, California",supermarket,ChIJi4LTh7Ckj4AR3cr40gKo8wM,Draeger's Market,"['supermarket', 'grocery_or_supermarket', 'store', 'food', 'point_of_interest', 'establishment']","1010 University Drive, Menlo Park",37.44923199999999,-122.185272
25,"Redwood City, California",supermarket,ChIJHz4XFiW7j4ARCIp120CAcFE,Trader Joe's,"['grocery_or_supermarket', 'florist', 'supermarket', 'liquor_store', 'store', 'health', 'food', 'point_of_interest', 'establishment']","855 El Camino Real, Palo Alto",37.4384779,-122.1576188
26,"Redwood City, California",supermarket,ChIJO6ZFgz6ij4ARKO_zrQUstAc,Trader Joe's,"['grocery_or_supermarket', 'florist', 'supermarket', 'liquor_store', 'store', 'health', 'food', 'point_of_interest', 'establishment']","1482 El Camino Real, San Carlos",37.4963881,-122.248571
27,"Redwood City, California",supermarket,ChIJ78YINbCkj4AR4-hrW6b9Y0Q,Trader Joe's,"['grocery_or_supermarket', 'florist', 'supermarket', 'liquor_store', 'store', 'health', 'food', 'point_of_interest', 'establishment']","720 Menlo Avenue, Menlo Park",37.4512243,-122.1835235
28,"Redwood City, California",supermarket,ChIJa2ZiR4Wjj4ARbp69GKePl_s,Lucky,"['supermarket', 'grocery_or_supermarket', 'store', 'food', 'point_of_interest', 'establishment']","200 Woodside Plaza, Redwood City",37.456538,-122.229618
29,"Redwood City, California",supermarket,ChIJ8c4tevGej4ARpkfcyLD2EXw,Trader Joe's,"['grocery_or_supermarket', 'florist', 'supermarket', 'liquor_store', 'store', 'health', 'food', 'point_of_interest', 'establishment']","1820-22 South Grant Street, San Mateo",37.5545382,-122.3025133
30,"Redwood City, California",supermarket,ChIJ1yYoOxufj4ARTafBzZ_Oj8o,Trader Joe's,"['grocery_or_supermarket', 'florist', 'supermarket', 'liquor_store', 'store', 'health', 'food', 'point_of_interest', 'establishment']","45 West Hillsdale Boulevard, San Mateo",37.535429,-122.298278
31,"Redwood City, California",supermarket,ChIJ_YojxRWfj4ARhqRQdlJPuA4,Mollie Stone's Markets,"['supermarket', 'grocery_or_supermarket', 'store', 'food', 'point_of_interest', 'establishment']","49 42nd Avenue, San Mateo",37.5292284,-122.2898904
32,"Redwood City, California",supermarket,ChIJRd5Tuhuij4ARbQPyL8Q8B_Q,Bianchini's Market,"['supermarket', 'grocery_or_supermarket', 'store', 'food', 'point_of_interest', 'establishment']","810 Laurel Street, San Carlos",37.503229,-122.257873
33,"Redwood City, California",supermarket,ChIJdejYS6-jj4ARc5yNQVuBb_s,Mi Rancho Supermarket,"['supermarket', 'grocery_or_supermarket', 'store', 'food', 'point_of_interest', 'establishment']","137 Roosevelt Avenue, Redwood City",37.478277,-122.225394
34,"Redwood City, California",supermarket,ChIJUzC8sWafj4ARASZmd6NG3r8,Lunardi's Markets,"['grocery_or_supermarket', 'supermarket', 'store', 'food', 'point_of_interest', 'establishment']","1085 Alameda de las Pulgas, Belmont",37.5106159,-122.2931803
35,"Redwood City, California",supermarket,ChIJaTZmBmyjj4ARznDongwtCmE,Chavez Supermarket,"['supermarket', 'grocery_or_supermarket', 'store', 'food', 'point_of_interest', 'establishment']","3282 Middlefield Road, Menlo Park",37.47057129999999,-122.2032762
36,"Redwood City, California",supermarket,ChIJKb_qWE-7j4ARS0PSdsGO534,The Willows Market,"['supermarket', 'grocery_or_supermarket', 'store', 'food', 'point_of_interest', 'establishment']","60 Middlefield Road, Menlo Park",37.45451819999999,-122.1632802
37,"Redwood City, California",supermarket,ChIJP2oOEBaij4ARFQJJYUZhgpU,Lucky,"['supermarket', 'grocery_or_supermarket', 'store', 'food', 'point_of_interest', 'establishment']","1133 Old County Road, San Carlos",37.500295,-122.249249
38,"Redwood City, California",supermarket,ChIJMZvuRimfj4AR8AyYqBEs-4s,Lucky California,"['supermarket', 'grocery_or_supermarket', 'store', 'food', 'point_of_interest', 'establishment']","919 Edgewater Boulevard, Foster City",37.545455,-122.271234
39,"Redwood City, California",supermarket,ChIJmx2uCQSjj4ARSvNqpaFS4qk,Smart & Final,"['grocery_or_supermarket', 'supermarket', 'storage', 'store', 'food', 'point_of_interest', 'establishment']","1185 Broadway, Redwood City",37.486416,-122.213845
40,"Redwood City, California",supermarket,ChIJOdKVDTu7j4ARAWS1bVZzzz8,Whole Foods Market,"['grocery_or_supermarket', 'supermarket', 'store', 'health', 'food', 'point_of_interest', 'establishment']","774 Emerson Street, Palo Alto",37.4424053,-122.1596147
41,"Redwood City, California",supermarket,ChIJ56ttweGej4ARHMC79jB6lOM,Whole Foods Market,"['grocery_or_supermarket', 'supermarket', 'store', 'health', 'food', 'point_of_interest', 'establishment']","1010 Park Place, San Mateo",37.5440811,-122.2920724
42,"Redwood City, California",supermarket,ChIJxwjj0deYj4AR8ujZmKY-sRM,99 Ranch Market,"['supermarket', 'grocery_or_supermarket', 'store', 'food', 'point_of_interest', 'establishment']","1070 Foster City Boulevard, Foster City",37.5535444,-122.2572138
43,"Redwood City, California",supermarket,ChIJSzHQdLKjj4AR182EZGl5Hgk,Whole Foods Market,"['grocery_or_supermarket', 'supermarket', 'store', 'health', 'food', 'point_of_interest', 'establishment']","1250 Jefferson Avenue, Redwood City",37.48234039999999,-122.2317548
44,"Redwood City, California",supermarket,ChIJi4LTh7Ckj4AR3cr40gKo8wM,Draeger's Market,"['supermarket', 'grocery_or_supermarket', 'store', 'food', 'point_of_interest', 'establishment']","1010 University Drive, Menlo Park",37.44923199999999,-122.185272
45,"Redwood City, California",supermarket,ChIJHz4XFiW7j4ARCIp120CAcFE,Trader Joe's,"['grocery_or_supermarket', 'florist', 'supermarket', 'liquor_store', 'store', 'health', 'food', 'point_of_interest', 'establishment']","855 El Camino Real, Palo Alto",37.4384779,-122.1576188
46,"Redwood City, California",supermarket,ChIJO6ZFgz6ij4ARKO_zrQUstAc,Trader Joe's,"['grocery_or_supermarket', 'florist', 'supermarket', 'liquor_store', 'store', 'health', 'food', 'point_of_interest', 'establishment']","1482 El Camino Real, San Carlos",37.4963881,-122.248571
47,"Redwood City, California",supermarket,ChIJ78YINbCkj4AR4-hrW6b9Y0Q,Trader Joe's,"['grocery_or_supermarket', 'florist', 'supermarket', 'liquor_store', 'store', 'health', 'food', 'point_of_interest', 'establishment']","720 Menlo Avenue, Menlo Park",37.4512243,-122.1835235
48,"Redwood City, California",supermarket,ChIJa2ZiR4Wjj4ARbp69GKePl_s,Lucky,"['supermarket', 'grocery_or_supermarket', 'store', 'food', 'point_of_interest', 'establishment']","200 Woodside Plaza, Redwood City",37.456538,-122.229618
49,"Redwood City, California",supermarket,ChIJ8c4tevGej4ARpkfcyLD2EXw,Trader Joe's,"['grocery_or_supermarket', 'florist', 'supermarket', 'liquor_store', 'store', 'health', 'food', 'point_of_interest', 'establishment']","1820-22 South Grant Street, San Mateo",37.5545382,-122.3025133
50,"Redwood City, California",supermarket,ChIJ1yYoOxufj4ARTafBzZ_Oj8o,Trader Joe's,"['grocery_or_supermarket', 'florist', 'supermarket', 'liquor_store', 'store', 'health', 'food', 'point_of_interest', 'establishment']","45 West Hillsdale Boulevard, San Mateo",37.535429,-122.298278
51,"Redwood City, California",supermarket,ChIJ_YojxRWfj4ARhqRQdlJPuA4,Mollie Stone's Markets,"['supermarket', 'grocery_or_supermarket', 'store', 'food', 'point_of_interest', 'establishment']","49 42nd Avenue, San Mateo",37.5292284,-122.2898904
52,"Redwood City, California",supermarket,ChIJRd5Tuhuij4ARbQPyL8Q8B_Q,Bianchini's Market,"['supermarket', 'grocery_or_supermarket', 'store', 'food', 'point_of_interest', 'establishment']","810 Laurel Street, San Carlos",37.503229,-122.257873
53,"Redwood City, California",supermarket,ChIJdejYS6-jj4ARc5yNQVuBb_s,Mi Rancho Supermarket,"['supermarket', 'grocery_or_supermarket', 'store', 'food', 'point_of_interest', 'establishment']","137 Roosevelt Avenue, Redwood City",37.478277,-122.225394
54,"Redwood City, California",supermarket,ChIJUzC8sWafj4ARASZmd6NG3r8,Lunardi's Markets,"['grocery_or_supermarket', 'supermarket', 'store', 'food', 'point_of_interest', 'establishment']","1085 Alameda de las Pulgas, Belmont",37.5106159,-122.2931803
55,"Redwood City, California",supermarket,ChIJaTZmBmyjj4ARznDongwtCmE,Chavez Supermarket,"['supermarket', 'grocery_or_supermarket', 'store', 'food', 'point_of_interest', 'establishment']","3282 Middlefield Road, Menlo Park",37.47057129999999,-122.2032762
56,"Redwood City, California",supermarket,ChIJKb_qWE-7j4ARS0PSdsGO534,The Willows Market,"['supermarket', 'grocery_or_supermarket', 'store', 'food', 'point_of_interest', 'establishment']","60 Middlefield Road, Menlo Park",37.45451819999999,-122.1632802
57,"Redwood City, California",supermarket,ChIJP2oOEBaij4ARFQJJYUZhgpU,Lucky,"['supermarket', 'grocery_or_supermarket', 'store', 'food', 'point_of_interest', 'establishment']","1133 Old County Road, San Carlos",37.500295,-122.249249
58,"Redwood City, California",supermarket,ChIJMZvuRimfj4AR8AyYqBEs-4s,Lucky California,"['supermarket', 'grocery_or_supermarket', 'store', 'food', 'point_of_interest', 'establishment']","919 Edgewater Boulevard, Foster City",37.545455,-122.271234
59,"Redwood City, California",supermarket,ChIJmx2uCQSjj4ARSvNqpaFS4qk,Smart & Final,"['grocery_or_supermarket', 'supermarket', 'storage', 'store', 'food', 'point_of_interest', 'establishment']","1185 Broadway, Redwood City",37.486416,-122.213845
0,"Berkeley, California",supermarket,ChIJh18Bd9R9hYARs_JG-G0td7A,Whole Foods Market,"['grocery_or_supermarket', 'supermarket', 'store', 'health', 'food', 'point_of_interest', 'establishment']","3000 Telegraph Avenue, Berkeley",37.855484,-122.2604482
1,"Berkeley, California",supermarket,ChIJiZU6HZl-hYARndMsDjwIF0Y,Trader Joe's,"['grocery_or_supermarket', 'florist', 'supermarket', 'liquor_store', 'store', 'health', 'food', 'point_of_interest', 'establishment']","1885 University Avenue, Berkeley",37.87173370000001,-122.2732356
2,"Berkeley, California",supermarket,ChIJxRCJY4B-hYAR8pED77RBzRY,Berkeley Bowl,"['supermarket', 'grocery_or_supermarket', 'store', 'food', 'point_of_interest', 'establishment']","2020 Oregon Street, Berkeley",37.8570313,-122.2671869
3,"Berkeley, California",supermarket,ChIJG_gPBSF5hYARcgjN0EsnObg,99 Ranch Market,"['supermarket', 'grocery_or_supermarket', 'store', 'food', 'point_of_interest', 'establishment']","3288 Pierce Street, Richmond",37.8988323,-122.3077047
4,"Berkeley, California",supermarket,ChIJnbv6FlKHj4ARyg9u7ehaCtc,Whole Foods Market,"['grocery_or_supermarket', 'supermarket', 'store', 'health', 'food', 'point_of_interest', 'establishment']","230 Bay Place, Oakland",37.8128183,-122.2610374
5,"Berkeley, California",supermarket,ChIJsQw6BcN9hYARI8RTGY04-Dk,Trader Joe's,"['grocery_or_supermarket', 'florist', 'supermarket', 'liquor_store', 'store', 'health', 'food', 'point_of_interest', 'establishment']","5727 College Avenue, Oakland",37.845577,-122.252812
6,"Berkeley, California",supermarket,ChIJlwZhkUGHj4ARgNaadWHN7tc,Trader Joe's,"['grocery_or_supermarket', 'florist', 'supermarket', 'liquor_store', 'store', 'health', 'food', 'point_of_interest', 'establishment']","3250 Lakeshore Avenue, Oakland",37.80994580000001,-122.244377
7,"Berkeley, California",supermarket,ChIJ3QIOhUR-hYARRcjhZQUthU4,Trader Joe's,"['grocery_or_supermarket', 'florist', 'supermarket', 'liquor_store', 'store', 'health', 'food', 'point_of_interest', 'establishment']","5700 Christie Avenue, Emeryville",37.8369215,-122.2942569
8,"Berkeley, California",supermarket,ChIJLZGgf6yAj4ARHuDiGyLk30A,KP Asian Market,"['supermarket', 'grocery_or_supermarket', 'store', 'food', 'point_of_interest', 'establishment']","2370 Telegraph Avenue, Oakland",37.813562,-122.2678363
9,"Berkeley, California",supermarket,ChIJ6b6QriR5hYARPnW2HbalqJ8,Trader Joe's,"['grocery_or_supermarket', 'florist', 'supermarket', 'liquor_store', 'store', 'health', 'food', 'point_of_interest', 'establishment']","225 El Cerrito Plaza, El Cerrito",37.8989843,-122.2997848
10,"Berkeley, California",supermarket,ChIJ9RVJpTx5hYARdxSwVHuumaE,Lucky,"['supermarket', 'grocery_or_supermarket', 'store', 'food', 'point_of_interest', 'establishment']","1000 El Cerrito Plaza, El Cerrito",37.900672,-122.298623
11,"Berkeley, California",supermarket,ChIJl08tVVSHj4ARrjNg_0LOCjc,Grocery Outlet Bargain Market,"['grocery_or_supermarket', 'supermarket', 'store', 'food', 'point_of_interest', 'establishment']","2900 Broadway, Oakland",37.817528,-122.261501
12,"Berkeley, California",supermarket,ChIJ0TAKvsF-hYARwhzS28aq3Lw,99 Cents Only Stores,"['supermarket', 'furniture_store', 'grocery_or_supermarket', 'home_goods_store', 'store', 'food', 'point_of_interest', 'establishment']","1941 San Pablo Avenue, Berkeley",37.8699848,-122.2918043
13,"Berkeley, California",supermarket,ChIJ869NPYWHj4ARct7-GtMZyVI,Lucky Supermarket,"['supermarket', 'grocery_or_supermarket', 'store', 'food', 'point_of_interest', 'establishment']","1963 Mountain Boulevard, Oakland",37.827565,-122.2110623
14,"Berkeley, California",supermarket,ChIJPXM3_55-hYARqw5cBmJJTU8,Smart Mart,"['convenience_store', 'supermarket', 'liquor_store', 'grocery_or_supermarket', 'store', 'food', 'point_of_interest', 'establishment']","1951 Shattuck Avenue, Berkeley",37.8729528,-122.268251
15,"Berkeley, California",supermarket,ChIJ9yVAKch-hYARRAzjRpcz19o,Berkeley Natural Grocery Company,"['supermarket', 'grocery_or_supermarket', 'store', 'food', 'point_of_interest', 'establishment']","1336 Gilman Street, Berkeley",37.88094799999999,-122.288582
16,"Berkeley, California",supermarket,ChIJNXET4H1-hYARLurotCHaq1Q,Ashby Super Market,"['supermarket', 'grocery_or_supermarket', 'store', 'food', 'point_of_interest', 'establishment']","2948 Martin Luther King Junior Way, Berkeley",37.8544265,-122.2713758
17,"Berkeley, California",supermarket,ChIJ0wDd7TmHj4ARXLafwbSG1F0,Lucky,"['supermarket', 'grocery_or_supermarket', 'store', 'food', 'point_of_interest', 'establishment']","247 East 18th Street, Oakland",37.7996664,-122.2533394
18,"Berkeley, California",supermarket,ChIJC3SaCVB-hYAR6LbjXxsPN8o,Eatec,"['bank', 'supermarket', 'accounting', 'grocery_or_supermarket', 'finance', 'store', 'food', 'point_of_interest', 'establishment']","1900 Powell Street, Emeryville",37.83844240000001,-122.2996975
19,"Berkeley, California",supermarket,ChIJDxIZoUh4hYARUEfbaUB5ipE,Grocery Outlet Bargain Market,"['grocery_or_supermarket', 'supermarket', 'store', 'food', 'point_of_interest', 'establishment']","12010 San Pablo Avenue, Richmond",37.9313264,-122.3216863
20,"Berkeley, California",supermarket,ChIJh18Bd9R9hYARs_JG-G0td7A,Whole Foods Market,"['grocery_or_supermarket', 'supermarket', 'store', 'health', 'food', 'point_of_interest', 'establishment']","3000 Telegraph Avenue, Berkeley",37.855484,-122.2604482
21,"Berkeley, California",supermarket,ChIJiZU6HZl-hYARndMsDjwIF0Y,Trader Joe's,"['grocery_or_supermarket', 'florist', 'supermarket', 'liquor_store', 'store', 'health', 'food', 'point_of_interest', 'establishment']","1885 University Avenue, Berkeley",37.87173370000001,-122.2732356
22,"Berkeley, California",supermarket,ChIJxRCJY4B-hYAR8pED77RBzRY,Berkeley Bowl,"['supermarket', 'grocery_or_supermarket', 'store', 'food', 'point_of_interest', 'establishment']","2020 Oregon Street, Berkeley",37.8570313,-122.2671869
23,"Berkeley, California",supermarket,ChIJG_gPBSF5hYARcgjN0EsnObg,99 Ranch Market,"['supermarket', 'grocery_or_supermarket', 'store', 'food', 'point_of_interest', 'establishment']","3288 Pierce Street, Richmond",37.8988323,-122.3077047
24,"Berkeley, California",supermarket,ChIJnbv6FlKHj4ARyg9u7ehaCtc,Whole Foods Market,"['grocery_or_supermarket', 'supermarket', 'store', 'health', 'food', 'point_of_interest', 'establishment']","230 Bay Place, Oakland",37.8128183,-122.2610374
25,"Berkeley, California",supermarket,ChIJsQw6BcN9hYARI8RTGY04-Dk,Trader Joe's,"['grocery_or_supermarket', 'florist', 'supermarket', 'liquor_store', 'store', 'health', 'food', 'point_of_interest', 'establishment']","5727 College Avenue, Oakland",37.845577,-122.252812
26,"Berkeley, California",supermarket,ChIJlwZhkUGHj4ARgNaadWHN7tc,Trader Joe's,"['grocery_or_supermarket', 'florist', 'supermarket', 'liquor_store', 'store', 'health', 'food', 'point_of_interest', 'establishment']","3250 Lakeshore Avenue, Oakland",37.80994580000001,-122.244377
27,"Berkeley, California",supermarket,ChIJ3QIOhUR-hYARRcjhZQUthU4,Trader Joe's,"['grocery_or_supermarket', 'florist', 'supermarket', 'liquor_store', 'store', 'health', 'food', 'point_of_interest', 'establishment']","5700 Christie Avenue, Emeryville",37.8369215,-122.2942569
28,"Berkeley, California",supermarket,ChIJLZGgf6yAj4ARHuDiGyLk30A,KP Asian Market,"['supermarket', 'grocery_or_supermarket', 'store', 'food', 'point_of_interest', 'establishment']","2370 Telegraph Avenue, Oakland",37.813562,-122.2678363
29,"Berkeley, California",supermarket,ChIJ6b6QriR5hYARPnW2HbalqJ8,Trader Joe's,"['grocery_or_supermarket', 'florist', 'supermarket', 'liquor_store', 'store', 'health', 'food', 'point_of_interest', 'establishment']","225 El Cerrito Plaza, El Cerrito",37.8989843,-122.2997848
30,"Berkeley, California",supermarket,ChIJ9RVJpTx5hYARdxSwVHuumaE,Lucky,"['supermarket', 'grocery_or_supermarket', 'store', 'food', 'point_of_interest', 'establishment']","1000 El Cerrito Plaza, El Cerrito",37.900672,-122.298623
31,"Berkeley, California",supermarket,ChIJl08tVVSHj4ARrjNg_0LOCjc,Grocery Outlet Bargain Market,"['grocery_or_supermarket', 'supermarket', 'store', 'food', 'point_of_interest', 'establishment']","2900 Broadway, Oakland",37.817528,-122.261501
32,"Berkeley, California",supermarket,ChIJ0TAKvsF-hYARwhzS28aq3Lw,99 Cents Only Stores,"['supermarket', 'furniture_store', 'grocery_or_supermarket', 'home_goods_store', 'store', 'food', 'point_of_interest', 'establishment']","1941 San Pablo Avenue, Berkeley",37.8699848,-122.2918043
33,"Berkeley, California",supermarket,ChIJ869NPYWHj4ARct7-GtMZyVI,Lucky Supermarket,"['supermarket', 'grocery_or_supermarket', 'store', 'food', 'point_of_interest', 'establishment']","1963 Mountain Boulevard, Oakland",37.827565,-122.2110623
34,"Berkeley, California",supermarket,ChIJPXM3_55-hYARqw5cBmJJTU8,Smart Mart,"['convenience_store', 'supermarket', 'liquor_store', 'grocery_or_supermarket', 'store', 'food', 'point_of_interest', 'establishment']","1951 Shattuck Avenue, Berkeley",37.8729528,-122.268251
35,"Berkeley, California",supermarket,ChIJ9yVAKch-hYARRAzjRpcz19o,Berkeley Natural Grocery Company,"['supermarket', 'grocery_or_supermarket', 'store', 'food', 'point_of_interest', 'establishment']","1336 Gilman Street, Berkeley",37.88094799999999,-122.288582
36,"Berkeley, California",supermarket,ChIJNXET4H1-hYARLurotCHaq1Q,Ashby Super Market,"['supermarket', 'grocery_or_supermarket', 'store', 'food', 'point_of_interest', 'establishment']","2948 Martin Luther King Junior Way, Berkeley",37.8544265,-122.2713758
37,"Berkeley, California",supermarket,ChIJ0wDd7TmHj4ARXLafwbSG1F0,Lucky,"['supermarket', 'grocery_or_supermarket', 'store', 'food', 'point_of_interest', 'establishment']","247 East 18th Street, Oakland",37.7996664,-122.2533394
38,"Berkeley, California",supermarket,ChIJC3SaCVB-hYAR6LbjXxsPN8o,Eatec,"['bank', 'supermarket', 'accounting', 'grocery_or_supermarket', 'finance', 'store', 'food', 'point_of_interest', 'establishment']","1900 Powell Street, Emeryville",37.83844240000001,-122.2996975
39,"Berkeley, California",supermarket,ChIJDxIZoUh4hYARUEfbaUB5ipE,Grocery Outlet Bargain Market,"['grocery_or_supermarket', 'supermarket', 'store', 'food', 'point_of_interest', 'establishment']","12010 San Pablo Avenue, Richmond",37.9313264,-122.3216863
40,"Berkeley, California",supermarket,ChIJh18Bd9R9hYARs_JG-G0td7A,Whole Foods Market,"['grocery_or_supermarket', 'supermarket', 'store', 'health', 'food', 'point_of_interest', 'establishment']","3000 Telegraph Avenue, Berkeley",37.855484,-122.2604482
41,"Berkeley, California",supermarket,ChIJiZU6HZl-hYARndMsDjwIF0Y,Trader Joe's,"['grocery_or_supermarket', 'florist', 'supermarket', 'liquor_store', 'store', 'health', 'food', 'point_of_interest', 'establishment']","1885 University Avenue, Berkeley",37.87173370000001,-122.2732356
42,"Berkeley, California",supermarket,ChIJxRCJY4B-hYAR8pED77RBzRY,Berkeley Bowl,"['supermarket', 'grocery_or_supermarket', 'store', 'food', 'point_of_interest', 'establishment']","2020 Oregon Street, Berkeley",37.8570313,-122.2671869
43,"Berkeley, California",supermarket,ChIJG_gPBSF5hYARcgjN0EsnObg,99 Ranch Market,"['supermarket', 'grocery_or_supermarket', 'store', 'food', 'point_of_interest', 'establishment']","3288 Pierce Street, Richmond",37.8988323,-122.3077047
44,"Berkeley, California",supermarket,ChIJnbv6FlKHj4ARyg9u7ehaCtc,Whole Foods Market,"['grocery_or_supermarket', 'supermarket', 'store', 'health', 'food', 'point_of_interest', 'establishment']","230 Bay Place, Oakland",37.8128183,-122.2610374
45,"Berkeley, California",supermarket,ChIJsQw6BcN9hYARI8RTGY04-Dk,Trader Joe's,"['grocery_or_supermarket', 'florist', 'supermarket', 'liquor_store', 'store', 'health', 'food', 'point_of_interest', 'establishment']","5727 College Avenue, Oakland",37.845577,-122.252812
46,"Berkeley, California",supermarket,ChIJlwZhkUGHj4ARgNaadWHN7tc,Trader Joe's,"['grocery_or_supermarket', 'florist', 'supermarket', 'liquor_store', 'store', 'health', 'food', 'point_of_interest', 'establishment']","3250 Lakeshore Avenue, Oakland",37.80994580000001,-122.244377
47,"Berkeley, California",supermarket,ChIJ3QIOhUR-hYARRcjhZQUthU4,Trader Joe's,"['grocery_or_supermarket', 'florist', 'supermarket', 'liquor_store', 'store', 'health', 'food', 'point_of_interest', 'establishment']","5700 Christie Avenue, Emeryville",37.8369215,-122.2942569
48,"Berkeley, California",supermarket,ChIJLZGgf6yAj4ARHuDiGyLk30A,KP Asian Market,"['supermarket', 'grocery_or_supermarket', 'store', 'food', 'point_of_interest', 'establishment']","2370 Telegraph Avenue, Oakland",37.813562,-122.2678363
49,"Berkeley, California",supermarket,ChIJ6b6QriR5hYARPnW2HbalqJ8,Trader Joe's,"['grocery_or_supermarket', 'florist', 'supermarket', 'liquor_store', 'store', 'health', 'food', 'point_of_interest', 'establishment']","225 El Cerrito Plaza, El Cerrito",37.8989843,-122.2997848
50,"Berkeley, California",supermarket,ChIJ9RVJpTx5hYARdxSwVHuumaE,Lucky,"['supermarket', 'grocery_or_supermarket', 'store', 'food', 'point_of_interest', 'establishment']","1000 El Cerrito Plaza, El Cerrito",37.900672,-122.298623
51,"Berkeley, California",supermarket,ChIJl08tVVSHj4ARrjNg_0LOCjc,Grocery Outlet Bargain Market,"['grocery_or_supermarket', 'supermarket', 'store', 'food', 'point_of_interest', 'establishment']","2900 Broadway, Oakland",37.817528,-122.261501
52,"Berkeley, California",supermarket,ChIJ0TAKvsF-hYARwhzS28aq3Lw,99 Cents Only Stores,"['supermarket', 'furniture_store', 'grocery_or_supermarket', 'home_goods_store', 'store', 'food', 'point_of_interest', 'establishment']","1941 San Pablo Avenue, Berkeley",37.8699848,-122.2918043
53,"Berkeley, California",supermarket,ChIJ869NPYWHj4ARct7-GtMZyVI,Lucky Supermarket,"['supermarket', 'grocery_or_supermarket', 'store', 'food', 'point_of_interest', 'establishment']","1963 Mountain Boulevard, Oakland",37.827565,-122.2110623
54,"Berkeley, California",supermarket,ChIJPXM3_55-hYARqw5cBmJJTU8,Smart Mart,"['convenience_store', 'supermarket', 'liquor_store', 'grocery_or_supermarket', 'store', 'food', 'point_of_interest', 'establishment']","1951 Shattuck Avenue, Berkeley",37.8729528,-122.268251
55,"Berkeley, California",supermarket,ChIJ9yVAKch-hYARRAzjRpcz19o,Berkeley Natural Grocery Company,"['supermarket', 'grocery_or_supermarket', 'store', 'food', 'point_of_interest', 'establishment']","1336 Gilman Street, Berkeley",37.88094799999999,-122.288582
56,"Berkeley, California",supermarket,ChIJNXET4H1-hYARLurotCHaq1Q,Ashby Super Market,"['supermarket', 'grocery_or_supermarket', 'store', 'food', 'point_of_interest', 'establishment']","2948 Martin Luther King Junior Way, Berkeley",37.8544265,-122.2713758
57,"Berkeley, California",supermarket,ChIJ0wDd7TmHj4ARXLafwbSG1F0,Lucky,"['supermarket', 'grocery_or_supermarket', 'store', 'food', 'point_of_interest', 'establishment']","247 East 18th Street, Oakland",37.7996664,-122.2533394
58,"Berkeley, California",supermarket,ChIJC3SaCVB-hYAR6LbjXxsPN8o,Eatec,"['bank', 'supermarket', 'accounting', 'grocery_or_supermarket', 'finance', 'store', 'food', 'point_of_interest', 'establishment']","1900 Powell Street, Emeryville",37.83844240000001,-122.2996975
59,"Berkeley, California",supermarket,ChIJDxIZoUh4hYARUEfbaUB5ipE,Grocery Outlet Bargain Market,"['grocery_or_supermarket', 'supermarket', 'store', 'food', 'point_of_interest', 'establishment']","12010 San Pablo Avenue, Richmond",37.9313264,-122.3216863
0,"Palo Alto, California",supermarket,ChIJOdKVDTu7j4ARAWS1bVZzzz8,Whole Foods Market,"['grocery_or_supermarket', 'supermarket', 'store', 'health', 'food', 'point_of_interest', 'establishment']","774 Emerson Street, Palo Alto",37.4424053,-122.1596147
1,"Palo Alto, California",supermarket,ChIJryH6Apmwj4ARx08eJ5hAaGQ,Walmart,"['supermarket', 'department_store', 'grocery_or_supermarket', 'store', 'food', 'point_of_interest', 'establishment']","600 Showers Drive, Mountain View",37.4009978,-122.1095964
2,"Palo Alto, California",supermarket,ChIJwz4tvpmwj4ARvlDtWYF38h4,Whole Foods Market,"['grocery_or_supermarket', 'supermarket', 'store', 'health', 'food', 'point_of_interest', 'establishment']","4800 El Camino Real, Los Altos",37.398951,-122.1108105
3,"Palo Alto, California",supermarket,ChIJQSVQrde2j4ARSV5MKVBJP2w,99 Ranch Market,"['supermarket', 'grocery_or_supermarket', 'store', 'food', 'point_of_interest', 'establishment']","1350 Grant Road, Mountain View",37.3776843,-122.0768522
4,"Palo Alto, California",supermarket,ChIJHz4XFiW7j4ARCIp120CAcFE,Trader Joe's,"['grocery_or_supermarket', 'florist', 'supermarket', 'liquor_store', 'store', 'health', 'food', 'point_of_interest', 'establishment']","855 El Camino Real, Palo Alto",37.4384779,-122.1576188
5,"Palo Alto, California",supermarket,ChIJNQXj95iwj4ARmJbKFsVOjYM,Trader Joe's,"['grocery_or_supermarket', 'florist', 'supermarket', 'liquor_store', 'store', 'health', 'food', 'point_of_interest', 'establishment']","590 Showers Drive, Mountain View",37.402087,-122.110761
6,"Palo Alto, California",supermarket,ChIJi4LTh7Ckj4AR3cr40gKo8wM,Draeger's Market,"['supermarket', 'grocery_or_supermarket', 'store', 'food', 'point_of_interest', 'establishment']","1010 University Drive, Menlo Park",37.44923199999999,-122.185272
7,"Palo Alto, California",supermarket,ChIJSzHQdLKjj4AR182EZGl5Hgk,Whole Foods Market,"['grocery_or_supermarket', 'supermarket', 'store', 'health', 'food', 'point_of_interest', 'establishment']","1250 Jefferson Avenue, Redwood City",37.48234039999999,-122.2317548
8,"Palo Alto, California",supermarket,ChIJ78YINbCkj4AR4-hrW6b9Y0Q,Trader Joe's,"['grocery_or_supermarket', 'florist', 'supermarket', 'liquor_store', 'store', 'health', 'food', 'point_of_interest', 'establishment']","720 Menlo Avenue, Menlo Park",37.4512243,-122.1835235
9,"Palo Alto, California",supermarket,ChIJbyFGHqWwj4ARZ0c8clOuTf4,La Plaza Market,"['grocery_or_supermarket', 'supermarket', 'store', 'food', 'point_of_interest', 'establishment']","40 South Rengstorff Avenue, Mountain View",37.4029335,-122.0978804
10,"Palo Alto, California",supermarket,ChIJa2ZiR4Wjj4ARbp69GKePl_s,Lucky,"['supermarket', 'grocery_or_supermarket', 'store', 'food', 'point_of_interest', 'establishment']","200 Woodside Plaza, Redwood City",37.456538,-122.229618
11,"Palo Alto, California",supermarket,ChIJ-TNQWOWwj4ARcO2q2SBnQQM,Draeger's Market,"['bakery', 'supermarket', 'grocery_or_supermarket', 'store', 'food', 'point_of_interest', 'establishment']","342 1st Street, Los Altos",37.376268,-122.116882
12,"Palo Alto, California",supermarket,ChIJJ0c8Oda2j4ARm61XWX2N41A,Nob Hill Foods,"['supermarket', 'cafe', 'bakery', 'grocery_or_supermarket', 'store', 'food', 'point_of_interest', 'establishment']","1250 Grant Road, Mountain View",37.37826159999999,-122.0761208
13,"Palo Alto, California",supermarket,ChIJaTZmBmyjj4ARznDongwtCmE,Chavez Supermarket,"['supermarket', 'grocery_or_supermarket', 'store', 'food', 'point_of_interest', 'establishment']","3282 Middlefield Road, Menlo Park",37.47057129999999,-122.2032762
14,"Palo Alto, California",supermarket,ChIJKb_qWE-7j4ARS0PSdsGO534,The Willows Market,"['supermarket', 'grocery_or_supermarket', 'store', 'food', 'point_of_interest', 'establishment']","60 Middlefield Road, Menlo Park",37.45451819999999,-122.1632802
15,"Palo Alto, California",supermarket,ChIJdejYS6-jj4ARc5yNQVuBb_s,Mi Rancho Supermarket,"['supermarket', 'grocery_or_supermarket', 'store', 'food', 'point_of_interest', 'establishment']","137 Roosevelt Avenue, Redwood City",37.478277,-122.225394
16,"Palo Alto, California",supermarket,ChIJG_zRSgy6j4AR1U7JGCfxs7E,Crossroads Specialty Foods,"['supermarket', 'grocery_or_supermarket', 'store', 'food', 'point_of_interest', 'establishment']","720 San Antonio Road, Palo Alto",37.4172039,-122.1025991
17,"Palo Alto, California",supermarket,ChIJ2VFu1Z26j4ARRh2tgeAWJgY,Czaja James,"['supermarket', 'grocery_or_supermarket', 'store', 'food', 'point_of_interest', 'establishment']","3410 Hillview Avenue, Palo Alto",37.3988129,-122.1464844
18,"Palo Alto, California",supermarket,ChIJmx2uCQSjj4ARSvNqpaFS4qk,Smart & Final,"['grocery_or_supermarket', 'supermarket', 'storage', 'store', 'food', 'point_of_interest', 'establishment']","1185 Broadway, Redwood City",37.486416,-122.213845
19,"Palo Alto, California",supermarket,ChIJzSFZqF67j4AR27ULwarhshA,El Rancho Market,"['supermarket', 'grocery_or_supermarket', 'store', 'food', 'point_of_interest', 'establishment']","812 Willow Road, Menlo Park",37.465353,-122.156922
20,"Palo Alto, California",supermarket,ChIJOdKVDTu7j4ARAWS1bVZzzz8,Whole Foods Market,"['grocery_or_supermarket', 'supermarket', 'store', 'health', 'food', 'point_of_interest', 'establishment']","774 Emerson Street, Palo Alto",37.4424053,-122.1596147
21,"Palo Alto, California",supermarket,ChIJryH6Apmwj4ARx08eJ5hAaGQ,Walmart,"['supermarket', 'department_store', 'grocery_or_supermarket', 'store', 'food', 'point_of_interest', 'establishment']","600 Showers Drive, Mountain View",37.4009978,-122.1095964
22,"Palo Alto, California",supermarket,ChIJwz4tvpmwj4ARvlDtWYF38h4,Whole Foods Market,"['grocery_or_supermarket', 'supermarket', 'store', 'health', 'food', 'point_of_interest', 'establishment']","4800 El Camino Real, Los Altos",37.398951,-122.1108105
23,"Palo Alto, California",supermarket,ChIJQSVQrde2j4ARSV5MKVBJP2w,99 Ranch Market,"['supermarket', 'grocery_or_supermarket', 'store', 'food', 'point_of_interest', 'establishment']","1350 Grant Road, Mountain View",37.3776843,-122.0768522
24,"Palo Alto, California",supermarket,ChIJHz4XFiW7j4ARCIp120CAcFE,Trader Joe's,"['grocery_or_supermarket', 'florist', 'supermarket', 'liquor_store', 'store', 'health', 'food', 'point_of_interest', 'establishment']","855 El Camino Real, Palo Alto",37.4384779,-122.1576188
25,"Palo Alto, California",supermarket,ChIJNQXj95iwj4ARmJbKFsVOjYM,Trader Joe's,"['grocery_or_supermarket', 'florist', 'supermarket', 'liquor_store', 'store', 'health', 'food', 'point_of_interest', 'establishment']","590 Showers Drive, Mountain View",37.402087,-122.110761
26,"Palo Alto, California",supermarket,ChIJi4LTh7Ckj4AR3cr40gKo8wM,Draeger's Market,"['supermarket', 'grocery_or_supermarket', 'store', 'food', 'point_of_interest', 'establishment']","1010 University Drive, Menlo Park",37.44923199999999,-122.185272
27,"Palo Alto, California",supermarket,ChIJSzHQdLKjj4AR182EZGl5Hgk,Whole Foods Market,"['grocery_or_supermarket', 'supermarket', 'store', 'health', 'food', 'point_of_interest', 'establishment']","1250 Jefferson Avenue, Redwood City",37.48234039999999,-122.2317548
28,"Palo Alto, California",supermarket,ChIJ78YINbCkj4AR4-hrW6b9Y0Q,Trader Joe's,"['grocery_or_supermarket', 'florist', 'supermarket', 'liquor_store', 'store', 'health', 'food', 'point_of_interest', 'establishment']","720 Menlo Avenue, Menlo Park",37.4512243,-122.1835235
29,"Palo Alto, California",supermarket,ChIJbyFGHqWwj4ARZ0c8clOuTf4,La Plaza Market,"['grocery_or_supermarket', 'supermarket', 'store', 'food', 'point_of_interest', 'establishment']","40 South Rengstorff Avenue, Mountain View",37.4029335,-122.0978804
30,"Palo Alto, California",supermarket,ChIJa2ZiR4Wjj4ARbp69GKePl_s,Lucky,"['supermarket', 'grocery_or_supermarket', 'store', 'food', 'point_of_interest', 'establishment']","200 Woodside Plaza, Redwood City",37.456538,-122.229618
31,"Palo Alto, California",supermarket,ChIJ-TNQWOWwj4ARcO2q2SBnQQM,Draeger's Market,"['bakery', 'supermarket', 'grocery_or_supermarket', 'store', 'food', 'point_of_interest', 'establishment']","342 1st Street, Los Altos",37.376268,-122.116882
32,"Palo Alto, California",supermarket,ChIJJ0c8Oda2j4ARm61XWX2N41A,Nob Hill Foods,"['supermarket', 'cafe', 'bakery', 'grocery_or_supermarket', 'store', 'food', 'point_of_interest', 'establishment']","1250 Grant Road, Mountain View",37.37826159999999,-122.0761208
33,"Palo Alto, California",supermarket,ChIJaTZmBmyjj4ARznDongwtCmE,Chavez Supermarket,"['supermarket', 'grocery_or_supermarket', 'store', 'food', 'point_of_interest', 'establishment']","3282 Middlefield Road, Menlo Park",37.47057129999999,-122.2032762
34,"Palo Alto, California",supermarket,ChIJKb_qWE-7j4ARS0PSdsGO534,The Willows Market,"['supermarket', 'grocery_or_supermarket', 'store', 'food', 'point_of_interest', 'establishment']","60 Middlefield Road, Menlo Park",37.45451819999999,-122.1632802
35,"Palo Alto, California",supermarket,ChIJdejYS6-jj4ARc5yNQVuBb_s,Mi Rancho Supermarket,"['supermarket', 'grocery_or_supermarket', 'store', 'food', 'point_of_interest', 'establishment']","137 Roosevelt Avenue, Redwood City",37.478277,-122.225394
36,"Palo Alto, California",supermarket,ChIJG_zRSgy6j4AR1U7JGCfxs7E,Crossroads Specialty Foods,"['supermarket', 'grocery_or_supermarket', 'store', 'food', 'point_of_interest', 'establishment']","720 San Antonio Road, Palo Alto",37.4172039,-122.1025991
37,"Palo Alto, California",supermarket,ChIJ2VFu1Z26j4ARRh2tgeAWJgY,Czaja James,"['supermarket', 'grocery_or_supermarket', 'store', 'food', 'point_of_interest', 'establishment']","3410 Hillview Avenue, Palo Alto",37.3988129,-122.1464844
38,"Palo Alto, California",supermarket,ChIJmx2uCQSjj4ARSvNqpaFS4qk,Smart & Final,"['grocery_or_supermarket', 'supermarket', 'storage', 'store', 'food', 'point_of_interest', 'establishment']","1185 Broadway, Redwood City",37.486416,-122.213845
39,"Palo Alto, California",supermarket,ChIJzSFZqF67j4AR27ULwarhshA,El Rancho Market,"['supermarket', 'grocery_or_supermarket', 'store', 'food', 'point_of_interest', 'establishment']","812 Willow Road, Menlo Park",37.465353,-122.156922
40,"Palo Alto, California",supermarket,ChIJOdKVDTu7j4ARAWS1bVZzzz8,Whole Foods Market,"['grocery_or_supermarket', 'supermarket', 'store', 'health', 'food', 'point_of_interest', 'establishment']","774 Emerson Street, Palo Alto",37.4424053,-122.1596147
41,"Palo Alto, California",supermarket,ChIJryH6Apmwj4ARx08eJ5hAaGQ,Walmart,"['supermarket', 'department_store', 'grocery_or_supermarket', 'store', 'food', 'point_of_interest', 'establishment']","600 Showers Drive, Mountain View",37.4009978,-122.1095964
42,"Palo Alto, California",supermarket,ChIJwz4tvpmwj4ARvlDtWYF38h4,Whole Foods Market,"['grocery_or_supermarket', 'supermarket', 'store', 'health', 'food', 'point_of_interest', 'establishment']","4800 El Camino Real, Los Altos",37.398951,-122.1108105
43,"Palo Alto, California",supermarket,ChIJQSVQrde2j4ARSV5MKVBJP2w,99 Ranch Market,"['supermarket', 'grocery_or_supermarket', 'store', 'food', 'point_of_interest', 'establishment']","1350 Grant Road, Mountain View",37.3776843,-122.0768522
44,"Palo Alto, California",supermarket,ChIJHz4XFiW7j4ARCIp120CAcFE,Trader Joe's,"['grocery_or_supermarket', 'florist', 'supermarket', 'liquor_store', 'store', 'health', 'food', 'point_of_interest', 'establishment']","855 El Camino Real, Palo Alto",37.4384779,-122.1576188
45,"Palo Alto, California",supermarket,ChIJNQXj95iwj4ARmJbKFsVOjYM,Trader Joe's,"['grocery_or_supermarket', 'florist', 'supermarket', 'liquor_store', 'store', 'health', 'food', 'point_of_interest', 'establishment']","590 Showers Drive, Mountain View",37.402087,-122.110761
46,"Palo Alto, California",supermarket,ChIJi4LTh7Ckj4AR3cr40gKo8wM,Draeger's Market,"['supermarket', 'grocery_or_supermarket', 'store', 'food', 'point_of_interest', 'establishment']","1010 University Drive, Menlo Park",37.44923199999999,-122.185272
47,"Palo Alto, California",supermarket,ChIJSzHQdLKjj4AR182EZGl5Hgk,Whole Foods Market,"['grocery_or_supermarket', 'supermarket', 'store', 'health', 'food', 'point_of_interest', 'establishment']","1250 Jefferson Avenue, Redwood City",37.48234039999999,-122.2317548
48,"Palo Alto, California",supermarket,ChIJ78YINbCkj4AR4-hrW6b9Y0Q,Trader Joe's,"['grocery_or_supermarket', 'florist', 'supermarket', 'liquor_store', 'store', 'health', 'food', 'point_of_interest', 'establishment']","720 Menlo Avenue, Menlo Park",37.4512243,-122.1835235
49,"Palo Alto, California",supermarket,ChIJbyFGHqWwj4ARZ0c8clOuTf4,La Plaza Market,"['grocery_or_supermarket', 'supermarket', 'store', 'food', 'point_of_interest', 'establishment']","40 South Rengstorff Avenue, Mountain View",37.4029335,-122.0978804
50,"Palo Alto, California",supermarket,ChIJa2ZiR4Wjj4ARbp69GKePl_s,Lucky,"['supermarket', 'grocery_or_supermarket', 'store', 'food', 'point_of_interest', 'establishment']","200 Woodside Plaza, Redwood City",37.456538,-122.229618
51,"Palo Alto, California",supermarket,ChIJ-TNQWOWwj4ARcO2q2SBnQQM,Draeger's Market,"['bakery', 'supermarket', 'grocery_or_supermarket', 'store', 'food', 'point_of_interest', 'establishment']","342 1st Street, Los Altos",37.376268,-122.116882
52,"Palo Alto, California",supermarket,ChIJJ0c8Oda2j4ARm61XWX2N41A,Nob Hill Foods,"['supermarket', 'cafe', 'bakery', 'grocery_or_supermarket', 'store', 'food', 'point_of_interest', 'establishment']","1250 Grant Road, Mountain View",37.37826159999999,-122.0761208
53,"Palo Alto, California",supermarket,ChIJaTZmBmyjj4ARznDongwtCmE,Chavez Supermarket,"['supermarket', 'grocery_or_supermarket', 'store', 'food', 'point_of_interest', 'establishment']","3282 Middlefield Road, Menlo Park",37.47057129999999,-122.2032762
54,"Palo Alto, California",supermarket,ChIJKb_qWE-7j4ARS0PSdsGO534,The Willows Market,"['supermarket', 'grocery_or_supermarket', 'store', 'food', 'point_of_interest', 'establishment']","60 Middlefield Road, Menlo Park",37.45451819999999,-122.1632802
55,"Palo Alto, California",supermarket,ChIJdejYS6-jj4ARc5yNQVuBb_s,Mi Rancho Supermarket,"['supermarket', 'grocery_or_supermarket', 'store', 'food', 'point_of_interest', 'establishment']","137 Roosevelt Avenue, Redwood City",37.478277,-122.225394
56,"Palo Alto, California",supermarket,ChIJG_zRSgy6j4AR1U7JGCfxs7E,Crossroads Specialty Foods,"['supermarket', 'grocery_or_supermarket', 'store', 'food', 'point_of_interest', 'establishment']","720 San Antonio Road, Palo Alto",37.4172039,-122.1025991
57,"Palo Alto, California",supermarket,ChIJ2VFu1Z26j4ARRh2tgeAWJgY,Czaja James,"['supermarket', 'grocery_or_supermarket', 'store', 'food', 'point_of_interest', 'establishment']","3410 Hillview Avenue, Palo Alto",37.3988129,-122.1464844
58,"Palo Alto, California",supermarket,ChIJmx2uCQSjj4ARSvNqpaFS4qk,Smart & Final,"['grocery_or_supermarket', 'supermarket', 'storage', 'store', 'food', 'point_of_interest', 'establishment']","1185 Broadway, Redwood City",37.486416,-122.213845
59,"Palo Alto, California",supermarket,ChIJzSFZqF67j4AR27ULwarhshA,El Rancho Market,"['supermarket', 'grocery_or_supermarket', 'store', 'food', 'point_of_interest', 'establishment']","812 Willow Road, Menlo Park",37.465353,-122.156922
0,"Mountain View, California",supermarket,ChIJQSVQrde2j4ARSV5MKVBJP2w,99 Ranch Market,"['supermarket', 'grocery_or_supermarket', 'store', 'food', 'point_of_interest', 'establishment']","1350 Grant Road, Mountain View",37.3776843,-122.0768522
1,"Mountain View, California",supermarket,ChIJryH6Apmwj4ARx08eJ5hAaGQ,Walmart,"['supermarket', 'department_store', 'grocery_or_supermarket', 'store', 'food', 'point_of_interest', 'establishment']","600 Showers Drive, Mountain View",37.4009978,-122.1095964
2,"Mountain View, California",supermarket,ChIJwz4tvpmwj4ARvlDtWYF38h4,Whole Foods Market,"['grocery_or_supermarket', 'supermarket', 'store', 'health', 'food', 'point_of_interest', 'establishment']","4800 El Camino Real, Los Altos",37.398951,-122.1108105
3,"Mountain View, California",supermarket,ChIJOdKVDTu7j4ARAWS1bVZzzz8,Whole Foods Market,"['grocery_or_supermarket', 'supermarket', 'store', 'health', 'food', 'point_of_interest', 'establishment']","774 Emerson Street, Palo Alto",37.4424053,-122.1596147
4,"Mountain View, California",supermarket,ChIJ4z7_Z020j4ARIZO_r_8b9Po,Whole Foods Market,"['grocery_or_supermarket', 'supermarket', 'store', 'health', 'food', 'point_of_interest', 'establishment']","20955 Stevens Creek Boulevard, Cupertino",37.3235774,-122.039895
5,"Mountain View, California",supermarket,ChIJTQZFFJa1j4ARkO77VjuTnfw,99 Ranch Market,"['supermarket', 'grocery_or_supermarket', 'store', 'food', 'point_of_interest', 'establishment']","10983 North Wolfe Road, Cupertino",37.3367339,-122.0155307
6,"Mountain View, California",supermarket,ChIJNQXj95iwj4ARmJbKFsVOjYM,Trader Joe's,"['grocery_or_supermarket', 'florist', 'supermarket', 'liquor_store', 'store', 'health', 'food', 'point_of_interest', 'establishment']","590 Showers Drive, Mountain View",37.402087,-122.110761
7,"Mountain View, California",supermarket,ChIJ85hAC2S2j4AREcXKC2FLO6g,Trader Joe's,"['grocery_or_supermarket', 'florist', 'supermarket', 'liquor_store', 'store', 'health', 'food', 'point_of_interest', 'establishment']","316 West El Camino Real, Sunnyvale",37.3679136,-122.0359141
8,"Mountain View, California",supermarket,ChIJHz4XFiW7j4ARCIp120CAcFE,Trader Joe's,"['grocery_or_supermarket', 'florist', 'supermarket', 'liquor_store', 'store', 'health', 'food', 'point_of_interest', 'establishment']","855 El Camino Real, Palo Alto",37.4384779,-122.1576188
9,"Mountain View, California",supermarket,ChIJtyma8621j4ARjeI2HR1fKQ4,Marina Food,"['supermarket', 'grocery_or_supermarket', 'store', 'food', 'point_of_interest', 'establishment']","10122 Bandley Drive, Cupertino",37.324681,-122.0337242
10,"Mountain View, California",supermarket,ChIJieswgBm0j4ARFi5zeQfa3bA,Trader Joe's,"['grocery_or_supermarket', 'florist', 'supermarket', 'liquor_store', 'store', 'health', 'food', 'point_of_interest', 'establishment']","2310 Homestead Road, Los Altos",37.3371755,-122.0675821
11,"Mountain View, California",supermarket,ChIJoV8pNfe1j4AR2OOjfriqlCI,Lucky,"['supermarket', 'grocery_or_supermarket', 'store', 'food', 'point_of_interest', 'establishment']","3705 El Camino Real, Santa Clara",37.35366,-121.99817
12,"Mountain View, California",supermarket,ChIJbyFGHqWwj4ARZ0c8clOuTf4,La Plaza Market,"['grocery_or_supermarket', 'supermarket', 'store', 'food', 'point_of_interest', 'establishment']","40 South Rengstorff Avenue, Mountain View",37.4029335,-122.0978804
13,"Mountain View, California",supermarket,ChIJcadL3XK2j4ARgqSVfk3n4p8,Wolfe India Bazar,"['supermarket', 'grocery_or_supermarket', 'store', 'food', 'point_of_interest', 'establishment']","854 Old San Francisco Road, Sunnyvale",37.3662839,-122.0169509
14,"Mountain View, California",supermarket,ChIJJ0c8Oda2j4ARm61XWX2N41A,Nob Hill Foods,"['supermarket', 'cafe', 'bakery', 'grocery_or_supermarket', 'store', 'food', 'point_of_interest', 'establishment']","1250 Grant Road, Mountain View",37.37826159999999,-122.0761208
15,"Mountain View, California",supermarket,ChIJ2VjlSYi1j4ARpBiWAQ4OX-U,Super Kyo-Po Plaza,"['supermarket', 'grocery_or_supermarket', 'store', 'food', 'point_of_interest', 'establishment']","3521 Homestead Road, Santa Clara",37.3385397,-121.9943758
16,"Mountain View, California",supermarket,ChIJ-TNQWOWwj4ARcO2q2SBnQQM,Draeger's Market,"['bakery', 'supermarket', 'grocery_or_supermarket', 'store', 'food', 'point_of_interest', 'establishment']","342 1st Street, Los Altos",37.376268,-122.116882
17,"Mountain View, California",supermarket,ChIJ8WWsh1G2j4AR8m5FQXxwjkU,Lucky,"['supermarket', 'grocery_or_supermarket', 'store', 'food', 'point_of_interest', 'establishment']","484 North Mathilda Avenue, Sunnyvale",37.388617,-122.02949
18,"Mountain View, California",supermarket,ChIJa1v4PKq1j4ARQFcAfoMr9O8,99 Ranch Market,"['bakery', 'supermarket', 'grocery_or_supermarket', 'store', 'food', 'point_of_interest', 'establishment']","10425 South De Anza Boulevard, Cupertino",37.317055,-122.0338548
19,"Mountain View, California",supermarket,ChIJG_zRSgy6j4AR1U7JGCfxs7E,Crossroads Specialty Foods,"['supermarket', 'grocery_or_supermarket', 'store', 'food', 'point_of_interest', 'establishment']","720 San Antonio Road, Palo Alto",37.4172039,-122.1025991
20,"Mountain View, California",supermarket,ChIJQSVQrde2j4ARSV5MKVBJP2w,99 Ranch Market,"['supermarket', 'grocery_or_supermarket', 'store', 'food', 'point_of_interest', 'establishment']","1350 Grant Road, Mountain View",37.3776843,-122.0768522
21,"Mountain View, California",supermarket,ChIJryH6Apmwj4ARx08eJ5hAaGQ,Walmart,"['supermarket', 'department_store', 'grocery_or_supermarket', 'store', 'food', 'point_of_interest', 'establishment']","600 Showers Drive, Mountain View",37.4009978,-122.1095964
22,"Mountain View, California",supermarket,ChIJwz4tvpmwj4ARvlDtWYF38h4,Whole Foods Market,"['grocery_or_supermarket', 'supermarket', 'store', 'health', 'food', 'point_of_interest', 'establishment']","4800 El Camino Real, Los Altos",37.398951,-122.1108105
23,"Mountain View, California",supermarket,ChIJOdKVDTu7j4ARAWS1bVZzzz8,Whole Foods Market,"['grocery_or_supermarket', 'supermarket', 'store', 'health', 'food', 'point_of_interest', 'establishment']","774 Emerson Street, Palo Alto",37.4424053,-122.1596147
24,"Mountain View, California",supermarket,ChIJ4z7_Z020j4ARIZO_r_8b9Po,Whole Foods Market,"['grocery_or_supermarket', 'supermarket', 'store', 'health', 'food', 'point_of_interest', 'establishment']","20955 Stevens Creek Boulevard, Cupertino",37.3235774,-122.039895
25,"Mountain View, California",supermarket,ChIJTQZFFJa1j4ARkO77VjuTnfw,99 Ranch Market,"['supermarket', 'grocery_or_supermarket', 'store', 'food', 'point_of_interest', 'establishment']","10983 North Wolfe Road, Cupertino",37.3367339,-122.0155307
26,"Mountain View, California",supermarket,ChIJNQXj95iwj4ARmJbKFsVOjYM,Trader Joe's,"['grocery_or_supermarket', 'florist', 'supermarket', 'liquor_store', 'store', 'health', 'food', 'point_of_interest', 'establishment']","590 Showers Drive, Mountain View",37.402087,-122.110761
27,"Mountain View, California",supermarket,ChIJ85hAC2S2j4AREcXKC2FLO6g,Trader Joe's,"['grocery_or_supermarket', 'florist', 'supermarket', 'liquor_store', 'store', 'health', 'food', 'point_of_interest', 'establishment']","316 West El Camino Real, Sunnyvale",37.3679136,-122.0359141
28,"Mountain View, California",supermarket,ChIJHz4XFiW7j4ARCIp120CAcFE,Trader Joe's,"['grocery_or_supermarket', 'florist', 'supermarket', 'liquor_store', 'store', 'health', 'food', 'point_of_interest', 'establishment']","855 El Camino Real, Palo Alto",37.4384779,-122.1576188
29,"Mountain View, California",supermarket,ChIJtyma8621j4ARjeI2HR1fKQ4,Marina Food,"['supermarket', 'grocery_or_supermarket', 'store', 'food', 'point_of_interest', 'establishment']","10122 Bandley Drive, Cupertino",37.324681,-122.0337242
30,"Mountain View, California",supermarket,ChIJieswgBm0j4ARFi5zeQfa3bA,Trader Joe's,"['grocery_or_supermarket', 'florist', 'supermarket', 'liquor_store', 'store', 'health', 'food', 'point_of_interest', 'establishment']","2310 Homestead Road, Los Altos",37.3371755,-122.0675821
31,"Mountain View, California",supermarket,ChIJoV8pNfe1j4AR2OOjfriqlCI,Lucky,"['supermarket', 'grocery_or_supermarket', 'store', 'food', 'point_of_interest', 'establishment']","3705 El Camino Real, Santa Clara",37.35366,-121.99817
32,"Mountain View, California",supermarket,ChIJbyFGHqWwj4ARZ0c8clOuTf4,La Plaza Market,"['grocery_or_supermarket', 'supermarket', 'store', 'food', 'point_of_interest', 'establishment']","40 South Rengstorff Avenue, Mountain View",37.4029335,-122.0978804
33,"Mountain View, California",supermarket,ChIJcadL3XK2j4ARgqSVfk3n4p8,Wolfe India Bazar,"['supermarket', 'grocery_or_supermarket', 'store', 'food', 'point_of_interest', 'establishment']","854 Old San Francisco Road, Sunnyvale",37.3662839,-122.0169509
34,"Mountain View, California",supermarket,ChIJJ0c8Oda2j4ARm61XWX2N41A,Nob Hill Foods,"['supermarket', 'cafe', 'bakery', 'grocery_or_supermarket', 'store', 'food', 'point_of_interest', 'establishment']","1250 Grant Road, Mountain View",37.37826159999999,-122.0761208
35,"Mountain View, California",supermarket,ChIJ2VjlSYi1j4ARpBiWAQ4OX-U,Super Kyo-Po Plaza,"['supermarket', 'grocery_or_supermarket', 'store', 'food', 'point_of_interest', 'establishment']","3521 Homestead Road, Santa Clara",37.3385397,-121.9943758
36,"Mountain View, California",supermarket,ChIJ-TNQWOWwj4ARcO2q2SBnQQM,Draeger's Market,"['bakery', 'supermarket', 'grocery_or_supermarket', 'store', 'food', 'point_of_interest', 'establishment']","342 1st Street, Los Altos",37.376268,-122.116882
37,"Mountain View, California",supermarket,ChIJ8WWsh1G2j4AR8m5FQXxwjkU,Lucky,"['supermarket', 'grocery_or_supermarket', 'store', 'food', 'point_of_interest', 'establishment']","484 North Mathilda Avenue, Sunnyvale",37.388617,-122.02949
38,"Mountain View, California",supermarket,ChIJa1v4PKq1j4ARQFcAfoMr9O8,99 Ranch Market,"['bakery', 'supermarket', 'grocery_or_supermarket', 'store', 'food', 'point_of_interest', 'establishment']","10425 South De Anza Boulevard, Cupertino",37.317055,-122.0338548
39,"Mountain View, California",supermarket,ChIJG_zRSgy6j4AR1U7JGCfxs7E,Crossroads Specialty Foods,"['supermarket', 'grocery_or_supermarket', 'store', 'food', 'point_of_interest', 'establishment']","720 San Antonio Road, Palo Alto",37.4172039,-122.1025991
40,"Mountain View, California",supermarket,ChIJQSVQrde2j4ARSV5MKVBJP2w,99 Ranch Market,"['supermarket', 'grocery_or_supermarket', 'store', 'food', 'point_of_interest', 'establishment']","1350 Grant Road, Mountain View",37.3776843,-122.0768522
41,"Mountain View, California",supermarket,ChIJryH6Apmwj4ARx08eJ5hAaGQ,Walmart,"['supermarket', 'department_store', 'grocery_or_supermarket', 'store', 'food', 'point_of_interest', 'establishment']","600 Showers Drive, Mountain View",37.4009978,-122.1095964
42,"Mountain View, California",supermarket,ChIJwz4tvpmwj4ARvlDtWYF38h4,Whole Foods Market,"['grocery_or_supermarket', 'supermarket', 'store', 'health', 'food', 'point_of_interest', 'establishment']","4800 El Camino Real, Los Altos",37.398951,-122.1108105
43,"Mountain View, California",supermarket,ChIJOdKVDTu7j4ARAWS1bVZzzz8,Whole Foods Market,"['grocery_or_supermarket', 'supermarket', 'store', 'health', 'food', 'point_of_interest', 'establishment']","774 Emerson Street, Palo Alto",37.4424053,-122.1596147
44,"Mountain View, California",supermarket,ChIJ4z7_Z020j4ARIZO_r_8b9Po,Whole Foods Market,"['grocery_or_supermarket', 'supermarket', 'store', 'health', 'food', 'point_of_interest', 'establishment']","20955 Stevens Creek Boulevard, Cupertino",37.3235774,-122.039895
45,"Mountain View, California",supermarket,ChIJTQZFFJa1j4ARkO77VjuTnfw,99 Ranch Market,"['supermarket', 'grocery_or_supermarket', 'store', 'food', 'point_of_interest', 'establishment']","10983 North Wolfe Road, Cupertino",37.3367339,-122.0155307
46,"Mountain View, California",supermarket,ChIJNQXj95iwj4ARmJbKFsVOjYM,Trader Joe's,"['grocery_or_supermarket', 'florist', 'supermarket', 'liquor_store', 'store', 'health', 'food', 'point_of_interest', 'establishment']","590 Showers Drive, Mountain View",37.402087,-122.110761
47,"Mountain View, California",supermarket,ChIJ85hAC2S2j4AREcXKC2FLO6g,Trader Joe's,"['grocery_or_supermarket', 'florist', 'supermarket', 'liquor_store', 'store', 'health', 'food', 'point_of_interest', 'establishment']","316 West El Camino Real, Sunnyvale",37.3679136,-122.0359141
48,"Mountain View, California",supermarket,ChIJHz4XFiW7j4ARCIp120CAcFE,Trader Joe's,"['grocery_or_supermarket', 'florist', 'supermarket', 'liquor_store', 'store', 'health', 'food', 'point_of_interest', 'establishment']","855 El Camino Real, Palo Alto",37.4384779,-122.1576188
49,"Mountain View, California",supermarket,ChIJtyma8621j4ARjeI2HR1fKQ4,Marina Food,"['supermarket', 'grocery_or_supermarket', 'store', 'food', 'point_of_interest', 'establishment']","10122 Bandley Drive, Cupertino",37.324681,-122.0337242
50,"Mountain View, California",supermarket,ChIJieswgBm0j4ARFi5zeQfa3bA,Trader Joe's,"['grocery_or_supermarket', 'florist', 'supermarket', 'liquor_store', 'store', 'health', 'food', 'point_of_interest', 'establishment']","2310 Homestead Road, Los Altos",37.3371755,-122.0675821
51,"Mountain View, California",supermarket,ChIJoV8pNfe1j4AR2OOjfriqlCI,Lucky,"['supermarket', 'grocery_or_supermarket', 'store', 'food', 'point_of_interest', 'establishment']","3705 El Camino Real, Santa Clara",37.35366,-121.99817
52,"Mountain View, California",supermarket,ChIJbyFGHqWwj4ARZ0c8clOuTf4,La Plaza Market,"['grocery_or_supermarket', 'supermarket', 'store', 'food', 'point_of_interest', 'establishment']","40 South Rengstorff Avenue, Mountain View",37.4029335,-122.0978804
53,"Mountain View, California",supermarket,ChIJcadL3XK2j4ARgqSVfk3n4p8,Wolfe India Bazar,"['supermarket', 'grocery_or_supermarket', 'store', 'food', 'point_of_interest', 'establishment']","854 Old San Francisco Road, Sunnyvale",37.3662839,-122.0169509
54,"Mountain View, California",supermarket,ChIJJ0c8Oda2j4ARm61XWX2N41A,Nob Hill Foods,"['supermarket', 'cafe', 'bakery', 'grocery_or_supermarket', 'store', 'food', 'point_of_interest', 'establishment']","1250 Grant Road, Mountain View",37.37826159999999,-122.0761208
55,"Mountain View, California",supermarket,ChIJ2VjlSYi1j4ARpBiWAQ4OX-U,Super Kyo-Po Plaza,"['supermarket', 'grocery_or_supermarket', 'store', 'food', 'point_of_interest', 'establishment']","3521 Homestead Road, Santa Clara",37.3385397,-121.9943758
56,"Mountain View, California",supermarket,ChIJ-TNQWOWwj4ARcO2q2SBnQQM,Draeger's Market,"['bakery', 'supermarket', 'grocery_or_supermarket', 'store', 'food', 'point_of_interest', 'establishment']","342 1st Street, Los Altos",37.376268,-122.116882
57,"Mountain View, California",supermarket,ChIJ8WWsh1G2j4AR8m5FQXxwjkU,Lucky,"['supermarket', 'grocery_or_supermarket', 'store', 'food', 'point_of_interest', 'establishment']","484 North Mathilda Avenue, Sunnyvale",37.388617,-122.02949
58,"Mountain View, California",supermarket,ChIJa1v4PKq1j4ARQFcAfoMr9O8,99 Ranch Market,"['bakery', 'supermarket', 'grocery_or_supermarket', 'store', 'food', 'point_of_interest', 'establishment']","10425 South De Anza Boulevard, Cupertino",37.317055,-122.0338548
59,"Mountain View, California",supermarket,ChIJG_zRSgy6j4AR1U7JGCfxs7E,Crossroads Specialty Foods,"['supermarket', 'grocery_or_supermarket', 'store', 'food', 'point_of_interest', 'establishment']","720 San Antonio Road, Palo Alto",37.4172039,-122.1025991
0,"Sunnyvale, California",supermarket,ChIJQSVQrde2j4ARSV5MKVBJP2w,99 Ranch Market,"['supermarket', 'grocery_or_supermarket', 'store', 'food', 'point_of_interest', 'establishment']","1350 Grant Road, Mountain View",37.3776843,-122.0768522
1,"Sunnyvale, California",supermarket,ChIJryH6Apmwj4ARx08eJ5hAaGQ,Walmart,"['supermarket', 'department_store', 'grocery_or_supermarket', 'store', 'food', 'point_of_interest', 'establishment']","600 Showers Drive, Mountain View",37.4009978,-122.1095964
2,"Sunnyvale, California",supermarket,ChIJwz4tvpmwj4ARvlDtWYF38h4,Whole Foods Market,"['grocery_or_supermarket', 'supermarket', 'store', 'health', 'food', 'point_of_interest', 'establishment']","4800 El Camino Real, Los Altos",37.398951,-122.1108105
3,"Sunnyvale, California",supermarket,ChIJTQZFFJa1j4ARkO77VjuTnfw,99 Ranch Market,"['supermarket', 'grocery_or_supermarket', 'store', 'food', 'point_of_interest', 'establishment']","10983 North Wolfe Road, Cupertino",37.3367339,-122.0155307
4,"Sunnyvale, California",supermarket,ChIJ4z7_Z020j4ARIZO_r_8b9Po,Whole Foods Market,"['grocery_or_supermarket', 'supermarket', 'store', 'health', 'food', 'point_of_interest', 'establishment']","20955 Stevens Creek Boulevard, Cupertino",37.3235774,-122.039895
5,"Sunnyvale, California",supermarket,ChIJ85hAC2S2j4AREcXKC2FLO6g,Trader Joe's,"['grocery_or_supermarket', 'florist', 'supermarket', 'liquor_store', 'store', 'health', 'food', 'point_of_interest', 'establishment']","316 West El Camino Real, Sunnyvale",37.3679136,-122.0359141
6,"Sunnyvale, California",supermarket,ChIJNQXj95iwj4ARmJbKFsVOjYM,Trader Joe's,"['grocery_or_supermarket', 'florist', 'supermarket', 'liquor_store', 'store', 'health', 'food', 'point_of_interest', 'establishment']","590 Showers Drive, Mountain View",37.402087,-122.110761
7,"Sunnyvale, California",supermarket,ChIJtyma8621j4ARjeI2HR1fKQ4,Marina Food,"['supermarket', 'grocery_or_supermarket', 'store', 'food', 'point_of_interest', 'establishment']","10122 Bandley Drive, Cupertino",37.324681,-122.0337242
8,"Sunnyvale, California",supermarket,ChIJ2zpvv1W1j4ARDV5CNgJdwvQ,Trader Joe's,"['grocery_or_supermarket', 'florist', 'supermarket', 'liquor_store', 'store', 'health', 'food', 'point_of_interest', 'establishment']","5269 Prospect Road, San Jose",37.2932053,-121.9941251
9,"Sunnyvale, California",supermarket,ChIJoV8pNfe1j4AR2OOjfriqlCI,Lucky,"['supermarket', 'grocery_or_supermarket', 'store', 'food', 'point_of_interest', 'establishment']","3705 El Camino Real, Santa Clara",37.35366,-121.99817
10,"Sunnyvale, California",supermarket,ChIJieswgBm0j4ARFi5zeQfa3bA,Trader Joe's,"['grocery_or_supermarket', 'florist', 'supermarket', 'liquor_store', 'store', 'health', 'food', 'point_of_interest', 'establishment']","2310 Homestead Road, Los Altos",37.3371755,-122.0675821
11,"Sunnyvale, California",supermarket,ChIJ2VjlSYi1j4ARpBiWAQ4OX-U,Super Kyo-Po Plaza,"['supermarket', 'grocery_or_supermarket', 'store', 'food', 'point_of_interest', 'establishment']","3521 Homestead Road, Santa Clara",37.3385397,-121.9943758
12,"Sunnyvale, California",supermarket,ChIJG3-FdZTKj4ARfwTFDS5jGnQ,Lion Market,"['supermarket', 'grocery_or_supermarket', 'store', 'food', 'point_of_interest', 'establishment']","471 Saratoga Avenue, San Jose",37.3189405,-121.9745653
13,"Sunnyvale, California",supermarket,ChIJcadL3XK2j4ARgqSVfk3n4p8,Wolfe India Bazar,"['supermarket', 'grocery_or_supermarket', 'store', 'food', 'point_of_interest', 'establishment']","854 Old San Francisco Road, Sunnyvale",37.3662839,-122.0169509
14,"Sunnyvale, California",supermarket,ChIJbyFGHqWwj4ARZ0c8clOuTf4,La Plaza Market,"['grocery_or_supermarket', 'supermarket', 'store', 'food', 'point_of_interest', 'establishment']","40 South Rengstorff Avenue, Mountain View",37.4029335,-122.0978804
15,"Sunnyvale, California",supermarket,ChIJJ0c8Oda2j4ARm61XWX2N41A,Nob Hill Foods,"['supermarket', 'cafe', 'bakery', 'grocery_or_supermarket', 'store', 'food', 'point_of_interest', 'establishment']","1250 Grant Road, Mountain View",37.37826159999999,-122.0761208
16,"Sunnyvale, California",supermarket,ChIJG2JIQKvKj4ARCNyc9KgqEsU,Walmart Neighborhood Market,"['supermarket', 'department_store', 'grocery_or_supermarket', 'store', 'food', 'point_of_interest', 'establishment']","1600 Saratoga Avenue #501, San Jose",37.2914808,-121.9885518
17,"Sunnyvale, California",supermarket,ChIJv8veNPLKj4ARSVvUj6RMJnY,Lucky,"['supermarket', 'grocery_or_supermarket', 'store', 'food', 'point_of_interest', 'establishment']","234 Saratoga Avenue, Santa Clara",37.329089,-121.966587
18,"Sunnyvale, California",supermarket,ChIJ-TNQWOWwj4ARcO2q2SBnQQM,Draeger's Market,"['bakery', 'supermarket', 'grocery_or_supermarket', 'store', 'food', 'point_of_interest', 'establishment']","342 1st Street, Los Altos",37.376268,-122.116882
19,"Sunnyvale, California",supermarket,ChIJa1v4PKq1j4ARQFcAfoMr9O8,99 Ranch Market,"['bakery', 'supermarket', 'grocery_or_supermarket', 'store', 'food', 'point_of_interest', 'establishment']","10425 South De Anza Boulevard, Cupertino",37.317055,-122.0338548
20,"Sunnyvale, California",supermarket,ChIJQSVQrde2j4ARSV5MKVBJP2w,99 Ranch Market,"['supermarket', 'grocery_or_supermarket', 'store', 'food', 'point_of_interest', 'establishment']","1350 Grant Road, Mountain View",37.3776843,-122.0768522
21,"Sunnyvale, California",supermarket,ChIJryH6Apmwj4ARx08eJ5hAaGQ,Walmart,"['supermarket', 'department_store', 'grocery_or_supermarket', 'store', 'food', 'point_of_interest', 'establishment']","600 Showers Drive, Mountain View",37.4009978,-122.1095964
22,"Sunnyvale, California",supermarket,ChIJwz4tvpmwj4ARvlDtWYF38h4,Whole Foods Market,"['grocery_or_supermarket', 'supermarket', 'store', 'health', 'food', 'point_of_interest', 'establishment']","4800 El Camino Real, Los Altos",37.398951,-122.1108105
23,"Sunnyvale, California",supermarket,ChIJTQZFFJa1j4ARkO77VjuTnfw,99 Ranch Market,"['supermarket', 'grocery_or_supermarket', 'store', 'food', 'point_of_interest', 'establishment']","10983 North Wolfe Road, Cupertino",37.3367339,-122.0155307
24,"Sunnyvale, California",supermarket,ChIJ4z7_Z020j4ARIZO_r_8b9Po,Whole Foods Market,"['grocery_or_supermarket', 'supermarket', 'store', 'health', 'food', 'point_of_interest', 'establishment']","20955 Stevens Creek Boulevard, Cupertino",37.3235774,-122.039895
25,"Sunnyvale, California",supermarket,ChIJ85hAC2S2j4AREcXKC2FLO6g,Trader Joe's,"['grocery_or_supermarket', 'florist', 'supermarket', 'liquor_store', 'store', 'health', 'food', 'point_of_interest', 'establishment']","316 West El Camino Real, Sunnyvale",37.3679136,-122.0359141
26,"Sunnyvale, California",supermarket,ChIJNQXj95iwj4ARmJbKFsVOjYM,Trader Joe's,"['grocery_or_supermarket', 'florist', 'supermarket', 'liquor_store', 'store', 'health', 'food', 'point_of_interest', 'establishment']","590 Showers Drive, Mountain View",37.402087,-122.110761
27,"Sunnyvale, California",supermarket,ChIJtyma8621j4ARjeI2HR1fKQ4,Marina Food,"['supermarket', 'grocery_or_supermarket', 'store', 'food', 'point_of_interest', 'establishment']","10122 Bandley Drive, Cupertino",37.324681,-122.0337242
28,"Sunnyvale, California",supermarket,ChIJ2zpvv1W1j4ARDV5CNgJdwvQ,Trader Joe's,"['grocery_or_supermarket', 'florist', 'supermarket', 'liquor_store', 'store', 'health', 'food', 'point_of_interest', 'establishment']","5269 Prospect Road, San Jose",37.2932053,-121.9941251
29,"Sunnyvale, California",supermarket,ChIJoV8pNfe1j4AR2OOjfriqlCI,Lucky,"['supermarket', 'grocery_or_supermarket', 'store', 'food', 'point_of_interest', 'establishment']","3705 El Camino Real, Santa Clara",37.35366,-121.99817
30,"Sunnyvale, California",supermarket,ChIJieswgBm0j4ARFi5zeQfa3bA,Trader Joe's,"['grocery_or_supermarket', 'florist', 'supermarket', 'liquor_store', 'store', 'health', 'food', 'point_of_interest', 'establishment']","2310 Homestead Road, Los Altos",37.3371755,-122.0675821
31,"Sunnyvale, California",supermarket,ChIJ2VjlSYi1j4ARpBiWAQ4OX-U,Super Kyo-Po Plaza,"['supermarket', 'grocery_or_supermarket', 'store', 'food', 'point_of_interest', 'establishment']","3521 Homestead Road, Santa Clara",37.3385397,-121.9943758
32,"Sunnyvale, California",supermarket,ChIJG3-FdZTKj4ARfwTFDS5jGnQ,Lion Market,"['supermarket', 'grocery_or_supermarket', 'store', 'food', 'point_of_interest', 'establishment']","471 Saratoga Avenue, San Jose",37.3189405,-121.9745653
33,"Sunnyvale, California",supermarket,ChIJcadL3XK2j4ARgqSVfk3n4p8,Wolfe India Bazar,"['supermarket', 'grocery_or_supermarket', 'store', 'food', 'point_of_interest', 'establishment']","854 Old San Francisco Road, Sunnyvale",37.3662839,-122.0169509
34,"Sunnyvale, California",supermarket,ChIJbyFGHqWwj4ARZ0c8clOuTf4,La Plaza Market,"['grocery_or_supermarket', 'supermarket', 'store', 'food', 'point_of_interest', 'establishment']","40 South Rengstorff Avenue, Mountain View",37.4029335,-122.0978804
35,"Sunnyvale, California",supermarket,ChIJJ0c8Oda2j4ARm61XWX2N41A,Nob Hill Foods,"['supermarket', 'cafe', 'bakery', 'grocery_or_supermarket', 'store', 'food', 'point_of_interest', 'establishment']","1250 Grant Road, Mountain View",37.37826159999999,-122.0761208
36,"Sunnyvale, California",supermarket,ChIJG2JIQKvKj4ARCNyc9KgqEsU,Walmart Neighborhood Market,"['supermarket', 'department_store', 'grocery_or_supermarket', 'store', 'food', 'point_of_interest', 'establishment']","1600 Saratoga Avenue #501, San Jose",37.2914808,-121.9885518
37,"Sunnyvale, California",supermarket,ChIJv8veNPLKj4ARSVvUj6RMJnY,Lucky,"['supermarket', 'grocery_or_supermarket', 'store', 'food', 'point_of_interest', 'establishment']","234 Saratoga Avenue, Santa Clara",37.329089,-121.966587
38,"Sunnyvale, California",supermarket,ChIJ-TNQWOWwj4ARcO2q2SBnQQM,Draeger's Market,"['bakery', 'supermarket', 'grocery_or_supermarket', 'store', 'food', 'point_of_interest', 'establishment']","342 1st Street, Los Altos",37.376268,-122.116882
39,"Sunnyvale, California",supermarket,ChIJa1v4PKq1j4ARQFcAfoMr9O8,99 Ranch Market,"['bakery', 'supermarket', 'grocery_or_supermarket', 'store', 'food', 'point_of_interest', 'establishment']","10425 South De Anza Boulevard, Cupertino",37.317055,-122.0338548
40,"Sunnyvale, California",supermarket,ChIJQSVQrde2j4ARSV5MKVBJP2w,99 Ranch Market,"['supermarket', 'grocery_or_supermarket', 'store', 'food', 'point_of_interest', 'establishment']","1350 Grant Road, Mountain View",37.3776843,-122.0768522
41,"Sunnyvale, California",supermarket,ChIJryH6Apmwj4ARx08eJ5hAaGQ,Walmart,"['supermarket', 'department_store', 'grocery_or_supermarket', 'store', 'food', 'point_of_interest', 'establishment']","600 Showers Drive, Mountain View",37.4009978,-122.1095964
42,"Sunnyvale, California",supermarket,ChIJwz4tvpmwj4ARvlDtWYF38h4,Whole Foods Market,"['grocery_or_supermarket', 'supermarket', 'store', 'health', 'food', 'point_of_interest', 'establishment']","4800 El Camino Real, Los Altos",37.398951,-122.1108105
43,"Sunnyvale, California",supermarket,ChIJTQZFFJa1j4ARkO77VjuTnfw,99 Ranch Market,"['supermarket', 'grocery_or_supermarket', 'store', 'food', 'point_of_interest', 'establishment']","10983 North Wolfe Road, Cupertino",37.3367339,-122.0155307
44,"Sunnyvale, California",supermarket,ChIJ4z7_Z020j4ARIZO_r_8b9Po,Whole Foods Market,"['grocery_or_supermarket', 'supermarket', 'store', 'health', 'food', 'point_of_interest', 'establishment']","20955 Stevens Creek Boulevard, Cupertino",37.3235774,-122.039895
45,"Sunnyvale, California",supermarket,ChIJ85hAC2S2j4AREcXKC2FLO6g,Trader Joe's,"['grocery_or_supermarket', 'florist', 'supermarket', 'liquor_store', 'store', 'health', 'food', 'point_of_interest', 'establishment']","316 West El Camino Real, Sunnyvale",37.3679136,-122.0359141
46,"Sunnyvale, California",supermarket,ChIJNQXj95iwj4ARmJbKFsVOjYM,Trader Joe's,"['grocery_or_supermarket', 'florist', 'supermarket', 'liquor_store', 'store', 'health', 'food', 'point_of_interest', 'establishment']","590 Showers Drive, Mountain View",37.402087,-122.110761
47,"Sunnyvale, California",supermarket,ChIJtyma8621j4ARjeI2HR1fKQ4,Marina Food,"['supermarket', 'grocery_or_supermarket', 'store', 'food', 'point_of_interest', 'establishment']","10122 Bandley Drive, Cupertino",37.324681,-122.0337242
48,"Sunnyvale, California",supermarket,ChIJ2zpvv1W1j4ARDV5CNgJdwvQ,Trader Joe's,"['grocery_or_supermarket', 'florist', 'supermarket', 'liquor_store', 'store', 'health', 'food', 'point_of_interest', 'establishment']","5269 Prospect Road, San Jose",37.2932053,-121.9941251
49,"Sunnyvale, California",supermarket,ChIJoV8pNfe1j4AR2OOjfriqlCI,Lucky,"['supermarket', 'grocery_or_supermarket', 'store', 'food', 'point_of_interest', 'establishment']","3705 El Camino Real, Santa Clara",37.35366,-121.99817
50,"Sunnyvale, California",supermarket,ChIJieswgBm0j4ARFi5zeQfa3bA,Trader Joe's,"['grocery_or_supermarket', 'florist', 'supermarket', 'liquor_store', 'store', 'health', 'food', 'point_of_interest', 'establishment']","2310 Homestead Road, Los Altos",37.3371755,-122.0675821
51,"Sunnyvale, California",supermarket,ChIJ2VjlSYi1j4ARpBiWAQ4OX-U,Super Kyo-Po Plaza,"['supermarket', 'grocery_or_supermarket', 'store', 'food', 'point_of_interest', 'establishment']","3521 Homestead Road, Santa Clara",37.3385397,-121.9943758
52,"Sunnyvale, California",supermarket,ChIJG3-FdZTKj4ARfwTFDS5jGnQ,Lion Market,"['supermarket', 'grocery_or_supermarket', 'store', 'food', 'point_of_interest', 'establishment']","471 Saratoga Avenue, San Jose",37.3189405,-121.9745653
53,"Sunnyvale, California",supermarket,ChIJcadL3XK2j4ARgqSVfk3n4p8,Wolfe India Bazar,"['supermarket', 'grocery_or_supermarket', 'store', 'food', 'point_of_interest', 'establishment']","854 Old San Francisco Road, Sunnyvale",37.3662839,-122.0169509
54,"Sunnyvale, California",supermarket,ChIJbyFGHqWwj4ARZ0c8clOuTf4,La Plaza Market,"['grocery_or_supermarket', 'supermarket', 'store', 'food', 'point_of_interest', 'establishment']","40 South Rengstorff Avenue, Mountain View",37.4029335,-122.0978804
55,"Sunnyvale, California",supermarket,ChIJJ0c8Oda2j4ARm61XWX2N41A,Nob Hill Foods,"['supermarket', 'cafe', 'bakery', 'grocery_or_supermarket', 'store', 'food', 'point_of_interest', 'establishment']","1250 Grant Road, Mountain View",37.37826159999999,-122.0761208
56,"Sunnyvale, California",supermarket,ChIJG2JIQKvKj4ARCNyc9KgqEsU,Walmart Neighborhood Market,"['supermarket', 'department_store', 'grocery_or_supermarket', 'store', 'food', 'point_of_interest', 'establishment']","1600 Saratoga Avenue #501, San Jose",37.2914808,-121.9885518
57,"Sunnyvale, California",supermarket,ChIJv8veNPLKj4ARSVvUj6RMJnY,Lucky,"['supermarket', 'grocery_or_supermarket', 'store', 'food', 'point_of_interest', 'establishment']","234 Saratoga Avenue, Santa Clara",37.329089,-121.966587
58,"Sunnyvale, California",supermarket,ChIJ-TNQWOWwj4ARcO2q2SBnQQM,Draeger's Market,"['bakery', 'supermarket', 'grocery_or_supermarket', 'store', 'food', 'point_of_interest', 'establishment']","342 1st Street, Los Altos",37.376268,-122.116882
59,"Sunnyvale, California",supermarket,ChIJa1v4PKq1j4ARQFcAfoMr9O8,99 Ranch Market,"['bakery', 'supermarket', 'grocery_or_supermarket', 'store', 'food', 'point_of_interest', 'establishment']","10425 South De Anza Boulevard, Cupertino",37.317055,-122.0338548
0,"Cupertino, California",supermarket,ChIJQSVQrde2j4ARSV5MKVBJP2w,99 Ranch Market,"['supermarket', 'grocery_or_supermarket', 'store', 'food', 'point_of_interest', 'establishment']","1350 Grant Road, Mountain View",37.3776843,-122.0768522
1,"Cupertino, California",supermarket,ChIJTQZFFJa1j4ARkO77VjuTnfw,99 Ranch Market,"['supermarket', 'grocery_or_supermarket', 'store', 'food', 'point_of_interest', 'establishment']","10983 North Wolfe Road, Cupertino",37.3367339,-122.0155307
2,"Cupertino, California",supermarket,ChIJ4z7_Z020j4ARIZO_r_8b9Po,Whole Foods Market,"['grocery_or_supermarket', 'supermarket', 'store', 'health', 'food', 'point_of_interest', 'establishment']","20955 Stevens Creek Boulevard, Cupertino",37.3235774,-122.039895
3,"Cupertino, California",supermarket,ChIJn29JyMM0joARE8SBw3MKLyQ,Whole Foods Market,"['grocery_or_supermarket', 'supermarket', 'store', 'health', 'food', 'point_of_interest', 'establishment']","1690 South Bascom Avenue, Campbell",37.2932275,-121.9303824
4,"Cupertino, California",supermarket,ChIJ2zpvv1W1j4ARDV5CNgJdwvQ,Trader Joe's,"['grocery_or_supermarket', 'florist', 'supermarket', 'liquor_store', 'store', 'health', 'food', 'point_of_interest', 'establishment']","5269 Prospect Road, San Jose",37.2932053,-121.9941251
5,"Cupertino, California",supermarket,ChIJuQgC4NbKj4ARP3N9lQ_BTLQ,Grocery Outlet Bargain Market,"['grocery_or_supermarket', 'supermarket', 'store', 'food', 'point_of_interest', 'establishment']","3140 Williams Road, San Jose",37.30810099999999,-121.9514654
6,"Cupertino, California",supermarket,ChIJ85hAC2S2j4AREcXKC2FLO6g,Trader Joe's,"['grocery_or_supermarket', 'florist', 'supermarket', 'liquor_store', 'store', 'health', 'food', 'point_of_interest', 'establishment']","316 West El Camino Real, Sunnyvale",37.3679136,-122.0359141
7,"Cupertino, California",supermarket,ChIJtyma8621j4ARjeI2HR1fKQ4,Marina Food,"['supermarket', 'grocery_or_supermarket', 'store', 'food', 'point_of_interest', 'establishment']","10122 Bandley Drive, Cupertino",37.324681,-122.0337242
8,"Cupertino, California",supermarket,ChIJG2JIQKvKj4ARCNyc9KgqEsU,Walmart Neighborhood Market,"['supermarket', 'department_store', 'grocery_or_supermarket', 'store', 'food', 'point_of_interest', 'establishment']","1600 Saratoga Avenue #501, San Jose",37.2914808,-121.9885518
9,"Cupertino, California",supermarket,ChIJoV8pNfe1j4AR2OOjfriqlCI,Lucky,"['supermarket', 'grocery_or_supermarket', 'store', 'food', 'point_of_interest', 'establishment']","3705 El Camino Real, Santa Clara",37.35366,-121.99817
10,"Cupertino, California",supermarket,ChIJieswgBm0j4ARFi5zeQfa3bA,Trader Joe's,"['grocery_or_supermarket', 'florist', 'supermarket', 'liquor_store', 'store', 'health', 'food', 'point_of_interest', 'establishment']","2310 Homestead Road, Los Altos",37.3371755,-122.0675821
11,"Cupertino, California",supermarket,ChIJ2VjlSYi1j4ARpBiWAQ4OX-U,Super Kyo-Po Plaza,"['supermarket', 'grocery_or_supermarket', 'store', 'food', 'point_of_interest', 'establishment']","3521 Homestead Road, Santa Clara",37.3385397,-121.9943758
12,"Cupertino, California",supermarket,ChIJG3-FdZTKj4ARfwTFDS5jGnQ,Lion Market,"['supermarket', 'grocery_or_supermarket', 'store', 'food', 'point_of_interest', 'establishment']","471 Saratoga Avenue, San Jose",37.3189405,-121.9745653
13,"Cupertino, California",supermarket,ChIJcadL3XK2j4ARgqSVfk3n4p8,Wolfe India Bazar,"['supermarket', 'grocery_or_supermarket', 'store', 'food', 'point_of_interest', 'establishment']","854 Old San Francisco Road, Sunnyvale",37.3662839,-122.0169509
14,"Cupertino, California",supermarket,ChIJJ0c8Oda2j4ARm61XWX2N41A,Nob Hill Foods,"['supermarket', 'cafe', 'bakery', 'grocery_or_supermarket', 'store', 'food', 'point_of_interest', 'establishment']","1250 Grant Road, Mountain View",37.37826159999999,-122.0761208
15,"Cupertino, California",supermarket,ChIJv8veNPLKj4ARSVvUj6RMJnY,Lucky,"['supermarket', 'grocery_or_supermarket', 'store', 'food', 'point_of_interest', 'establishment']","234 Saratoga Avenue, Santa Clara",37.329089,-121.966587
16,"Cupertino, California",supermarket,ChIJ0ZvBZ8I0joARoBnTu6e1Hbw,Trader Joe's,"['grocery_or_supermarket', 'florist', 'supermarket', 'liquor_store', 'store', 'health', 'food', 'point_of_interest', 'establishment']","1875 South Bascom Avenue, Campbell",37.28832399999999,-121.932572
17,"Cupertino, California",supermarket,ChIJa1v4PKq1j4ARQFcAfoMr9O8,99 Ranch Market,"['bakery', 'supermarket', 'grocery_or_supermarket', 'store', 'food', 'point_of_interest', 'establishment']","10425 South De Anza Boulevard, Cupertino",37.317055,-122.0338548
18,"Cupertino, California",supermarket,ChIJ8WWsh1G2j4AR8m5FQXxwjkU,Lucky,"['supermarket', 'grocery_or_supermarket', 'store', 'food', 'point_of_interest', 'establishment']","484 North Mathilda Avenue, Sunnyvale",37.388617,-122.02949
19,"Cupertino, California",supermarket,ChIJVQu_mQa1j4ARAfJzsFgaZGs,Trader Joe's,"['grocery_or_supermarket', 'florist', 'supermarket', 'liquor_store', 'store', 'health', 'food', 'point_of_interest', 'establishment']","7250 Bollinger Road, San Jose",37.3117924,-122.0309569
20,"Cupertino, California",supermarket,ChIJQSVQrde2j4ARSV5MKVBJP2w,99 Ranch Market,"['supermarket', 'grocery_or_supermarket', 'store', 'food', 'point_of_interest', 'establishment']","1350 Grant Road, Mountain View",37.3776843,-122.0768522
21,"Cupertino, California",supermarket,ChIJTQZFFJa1j4ARkO77VjuTnfw,99 Ranch Market,"['supermarket', 'grocery_or_supermarket', 'store', 'food', 'point_of_interest', 'establishment']","10983 North Wolfe Road, Cupertino",37.3367339,-122.0155307
22,"Cupertino, California",supermarket,ChIJ4z7_Z020j4ARIZO_r_8b9Po,Whole Foods Market,"['grocery_or_supermarket', 'supermarket', 'store', 'health', 'food', 'point_of_interest', 'establishment']","20955 Stevens Creek Boulevard, Cupertino",37.3235774,-122.039895
23,"Cupertino, California",supermarket,ChIJn29JyMM0joARE8SBw3MKLyQ,Whole Foods Market,"['grocery_or_supermarket', 'supermarket', 'store', 'health', 'food', 'point_of_interest', 'establishment']","1690 South Bascom Avenue, Campbell",37.2932275,-121.9303824
24,"Cupertino, California",supermarket,ChIJ2zpvv1W1j4ARDV5CNgJdwvQ,Trader Joe's,"['grocery_or_supermarket', 'florist', 'supermarket', 'liquor_store', 'store', 'health', 'food', 'point_of_interest', 'establishment']","5269 Prospect Road, San Jose",37.2932053,-121.9941251
25,"Cupertino, California",supermarket,ChIJuQgC4NbKj4ARP3N9lQ_BTLQ,Grocery Outlet Bargain Market,"['grocery_or_supermarket', 'supermarket', 'store', 'food', 'point_of_interest', 'establishment']","3140 Williams Road, San Jose",37.30810099999999,-121.9514654
26,"Cupertino, California",supermarket,ChIJ85hAC2S2j4AREcXKC2FLO6g,Trader Joe's,"['grocery_or_supermarket', 'florist', 'supermarket', 'liquor_store', 'store', 'health', 'food', 'point_of_interest', 'establishment']","316 West El Camino Real, Sunnyvale",37.3679136,-122.0359141
27,"Cupertino, California",supermarket,ChIJtyma8621j4ARjeI2HR1fKQ4,Marina Food,"['supermarket', 'grocery_or_supermarket', 'store', 'food', 'point_of_interest', 'establishment']","10122 Bandley Drive, Cupertino",37.324681,-122.0337242
28,"Cupertino, California",supermarket,ChIJG2JIQKvKj4ARCNyc9KgqEsU,Walmart Neighborhood Market,"['supermarket', 'department_store', 'grocery_or_supermarket', 'store', 'food', 'point_of_interest', 'establishment']","1600 Saratoga Avenue #501, San Jose",37.2914808,-121.9885518
29,"Cupertino, California",supermarket,ChIJoV8pNfe1j4AR2OOjfriqlCI,Lucky,"['supermarket', 'grocery_or_supermarket', 'store', 'food', 'point_of_interest', 'establishment']","3705 El Camino Real, Santa Clara",37.35366,-121.99817
30,"Cupertino, California",supermarket,ChIJieswgBm0j4ARFi5zeQfa3bA,Trader Joe's,"['grocery_or_supermarket', 'florist', 'supermarket', 'liquor_store', 'store', 'health', 'food', 'point_of_interest', 'establishment']","2310 Homestead Road, Los Altos",37.3371755,-122.0675821
31,"Cupertino, California",supermarket,ChIJ2VjlSYi1j4ARpBiWAQ4OX-U,Super Kyo-Po Plaza,"['supermarket', 'grocery_or_supermarket', 'store', 'food', 'point_of_interest', 'establishment']","3521 Homestead Road, Santa Clara",37.3385397,-121.9943758
32,"Cupertino, California",supermarket,ChIJG3-FdZTKj4ARfwTFDS5jGnQ,Lion Market,"['supermarket', 'grocery_or_supermarket', 'store', 'food', 'point_of_interest', 'establishment']","471 Saratoga Avenue, San Jose",37.3189405,-121.9745653
33,"Cupertino, California",supermarket,ChIJcadL3XK2j4ARgqSVfk3n4p8,Wolfe India Bazar,"['supermarket', 'grocery_or_supermarket', 'store', 'food', 'point_of_interest', 'establishment']","854 Old San Francisco Road, Sunnyvale",37.3662839,-122.0169509
34,"Cupertino, California",supermarket,ChIJJ0c8Oda2j4ARm61XWX2N41A,Nob Hill Foods,"['supermarket', 'cafe', 'bakery', 'grocery_or_supermarket', 'store', 'food', 'point_of_interest', 'establishment']","1250 Grant Road, Mountain View",37.37826159999999,-122.0761208
35,"Cupertino, California",supermarket,ChIJv8veNPLKj4ARSVvUj6RMJnY,Lucky,"['supermarket', 'grocery_or_supermarket', 'store', 'food', 'point_of_interest', 'establishment']","234 Saratoga Avenue, Santa Clara",37.329089,-121.966587
36,"Cupertino, California",supermarket,ChIJ0ZvBZ8I0joARoBnTu6e1Hbw,Trader Joe's,"['grocery_or_supermarket', 'florist', 'supermarket', 'liquor_store', 'store', 'health', 'food', 'point_of_interest', 'establishment']","1875 South Bascom Avenue, Campbell",37.28832399999999,-121.932572
37,"Cupertino, California",supermarket,ChIJa1v4PKq1j4ARQFcAfoMr9O8,99 Ranch Market,"['bakery', 'supermarket', 'grocery_or_supermarket', 'store', 'food', 'point_of_interest', 'establishment']","10425 South De Anza Boulevard, Cupertino",37.317055,-122.0338548
38,"Cupertino, California",supermarket,ChIJ8WWsh1G2j4AR8m5FQXxwjkU,Lucky,"['supermarket', 'grocery_or_supermarket', 'store', 'food', 'point_of_interest', 'establishment']","484 North Mathilda Avenue, Sunnyvale",37.388617,-122.02949
39,"Cupertino, California",supermarket,ChIJVQu_mQa1j4ARAfJzsFgaZGs,Trader Joe's,"['grocery_or_supermarket', 'florist', 'supermarket', 'liquor_store', 'store', 'health', 'food', 'point_of_interest', 'establishment']","7250 Bollinger Road, San Jose",37.3117924,-122.0309569
40,"Cupertino, California",supermarket,ChIJQSVQrde2j4ARSV5MKVBJP2w,99 Ranch Market,"['supermarket', 'grocery_or_supermarket', 'store', 'food', 'point_of_interest', 'establishment']","1350 Grant Road, Mountain View",37.3776843,-122.0768522
41,"Cupertino, California",supermarket,ChIJTQZFFJa1j4ARkO77VjuTnfw,99 Ranch Market,"['supermarket', 'grocery_or_supermarket', 'store', 'food', 'point_of_interest', 'establishment']","10983 North Wolfe Road, Cupertino",37.3367339,-122.0155307
42,"Cupertino, California",supermarket,ChIJ4z7_Z020j4ARIZO_r_8b9Po,Whole Foods Market,"['grocery_or_supermarket', 'supermarket', 'store', 'health', 'food', 'point_of_interest', 'establishment']","20955 Stevens Creek Boulevard, Cupertino",37.3235774,-122.039895
43,"Cupertino, California",supermarket,ChIJn29JyMM0joARE8SBw3MKLyQ,Whole Foods Market,"['grocery_or_supermarket', 'supermarket', 'store', 'health', 'food', 'point_of_interest', 'establishment']","1690 South Bascom Avenue, Campbell",37.2932275,-121.9303824
44,"Cupertino, California",supermarket,ChIJ2zpvv1W1j4ARDV5CNgJdwvQ,Trader Joe's,"['grocery_or_supermarket', 'florist', 'supermarket', 'liquor_store', 'store', 'health', 'food', 'point_of_interest', 'establishment']","5269 Prospect Road, San Jose",37.2932053,-121.9941251
45,"Cupertino, California",supermarket,ChIJuQgC4NbKj4ARP3N9lQ_BTLQ,Grocery Outlet Bargain Market,"['grocery_or_supermarket', 'supermarket', 'store', 'food', 'point_of_interest', 'establishment']","3140 Williams Road, San Jose",37.30810099999999,-121.9514654
46,"Cupertino, California",supermarket,ChIJ85hAC2S2j4AREcXKC2FLO6g,Trader Joe's,"['grocery_or_supermarket', 'florist', 'supermarket', 'liquor_store', 'store', 'health', 'food', 'point_of_interest', 'establishment']","316 West El Camino Real, Sunnyvale",37.3679136,-122.0359141
47,"Cupertino, California",supermarket,ChIJtyma8621j4ARjeI2HR1fKQ4,Marina Food,"['supermarket', 'grocery_or_supermarket', 'store', 'food', 'point_of_interest', 'establishment']","10122 Bandley Drive, Cupertino",37.324681,-122.0337242
48,"Cupertino, California",supermarket,ChIJG2JIQKvKj4ARCNyc9KgqEsU,Walmart Neighborhood Market,"['supermarket', 'department_store', 'grocery_or_supermarket', 'store', 'food', 'point_of_interest', 'establishment']","1600 Saratoga Avenue #501, San Jose",37.2914808,-121.9885518
49,"Cupertino, California",supermarket,ChIJoV8pNfe1j4AR2OOjfriqlCI,Lucky,"['supermarket', 'grocery_or_supermarket', 'store', 'food', 'point_of_interest', 'establishment']","3705 El Camino Real, Santa Clara",37.35366,-121.99817
50,"Cupertino, California",supermarket,ChIJieswgBm0j4ARFi5zeQfa3bA,Trader Joe's,"['grocery_or_supermarket', 'florist', 'supermarket', 'liquor_store', 'store', 'health', 'food', 'point_of_interest', 'establishment']","2310 Homestead Road, Los Altos",37.3371755,-122.0675821
51,"Cupertino, California",supermarket,ChIJ2VjlSYi1j4ARpBiWAQ4OX-U,Super Kyo-Po Plaza,"['supermarket', 'grocery_or_supermarket', 'store', 'food', 'point_of_interest', 'establishment']","3521 Homestead Road, Santa Clara",37.3385397,-121.9943758
52,"Cupertino, California",supermarket,ChIJG3-FdZTKj4ARfwTFDS5jGnQ,Lion Market,"['supermarket', 'grocery_or_supermarket', 'store', 'food', 'point_of_interest', 'establishment']","471 Saratoga Avenue, San Jose",37.3189405,-121.9745653
53,"Cupertino, California",supermarket,ChIJcadL3XK2j4ARgqSVfk3n4p8,Wolfe India Bazar,"['supermarket', 'grocery_or_supermarket', 'store', 'food', 'point_of_interest', 'establishment']","854 Old San Francisco Road, Sunnyvale",37.3662839,-122.0169509
54,"Cupertino, California",supermarket,ChIJJ0c8Oda2j4ARm61XWX2N41A,Nob Hill Foods,"['supermarket', 'cafe', 'bakery', 'grocery_or_supermarket', 'store', 'food', 'point_of_interest', 'establishment']","1250 Grant Road, Mountain View",37.37826159999999,-122.0761208
55,"Cupertino, California",supermarket,ChIJv8veNPLKj4ARSVvUj6RMJnY,Lucky,"['supermarket', 'grocery_or_supermarket', 'store', 'food', 'point_of_interest', 'establishment']","234 Saratoga Avenue, Santa Clara",37.329089,-121.966587
56,"Cupertino, California",supermarket,ChIJ0ZvBZ8I0joARoBnTu6e1Hbw,Trader Joe's,"['grocery_or_supermarket', 'florist', 'supermarket', 'liquor_store', 'store', 'health', 'food', 'point_of_interest', 'establishment']","1875 South Bascom Avenue, Campbell",37.28832399999999,-121.932572
57,"Cupertino, California",supermarket,ChIJa1v4PKq1j4ARQFcAfoMr9O8,99 Ranch Market,"['bakery', 'supermarket', 'grocery_or_supermarket', 'store', 'food', 'point_of_interest', 'establishment']","10425 South De Anza Boulevard, Cupertino",37.317055,-122.0338548
58,"Cupertino, California",supermarket,ChIJ8WWsh1G2j4AR8m5FQXxwjkU,Lucky,"['supermarket', 'grocery_or_supermarket', 'store', 'food', 'point_of_interest', 'establishment']","484 North Mathilda Avenue, Sunnyvale",37.388617,-122.02949
59,"Cupertino, California",supermarket,ChIJVQu_mQa1j4ARAfJzsFgaZGs,Trader Joe's,"['grocery_or_supermarket', 'florist', 'supermarket', 'liquor_store', 'store', 'health', 'food', 'point_of_interest', 'establishment']","7250 Bollinger Road, San Jose",37.3117924,-122.0309569
0,"Santa Clara, California",supermarket,ChIJn29JyMM0joARE8SBw3MKLyQ,Whole Foods Market,"['grocery_or_supermarket', 'supermarket', 'store', 'health', 'food', 'point_of_interest', 'establishment']","1690 South Bascom Avenue, Campbell",37.2932275,-121.9303824
1,"Santa Clara, California",supermarket,ChIJn0i78WTLj4ARGOPrICaz1C8,Trader Joe's,"['grocery_or_supermarket', 'florist', 'supermarket', 'liquor_store', 'store', 'health', 'food', 'point_of_interest', 'establishment']","635 Coleman Avenue, San Jose",37.3409633,-121.9097176
2,"Santa Clara, California",supermarket,ChIJTQZFFJa1j4ARkO77VjuTnfw,99 Ranch Market,"['supermarket', 'grocery_or_supermarket', 'store', 'food', 'point_of_interest', 'establishment']","10983 North Wolfe Road, Cupertino",37.3367339,-122.0155307
3,"Santa Clara, California",supermarket,ChIJzwlSNxfMj4ARe0mgkt7KZFw,99 Ranch Market,"['supermarket', 'grocery_or_supermarket', 'store', 'food', 'point_of_interest', 'establishment']","1688 Hostetter Road, San Jose",37.38632070000001,-121.8844061
4,"Santa Clara, California",supermarket,ChIJPfEd8tTMj4ARuPTeEOO-2UU,Walmart Supercenter,"['department_store', 'supermarket', 'grocery_or_supermarket', 'electronics_store', 'store', 'food', 'point_of_interest', 'establishment']","777 Story Road, San Jose",37.3303636,-121.8599287
5,"Santa Clara, California",supermarket,ChIJ4z7_Z020j4ARIZO_r_8b9Po,Whole Foods Market,"['grocery_or_supermarket', 'supermarket', 'store', 'health', 'food', 'point_of_interest', 'establishment']","20955 Stevens Creek Boulevard, Cupertino",37.3235774,-122.039895
6,"Santa Clara, California",supermarket,ChIJ2zpvv1W1j4ARDV5CNgJdwvQ,Trader Joe's,"['grocery_or_supermarket', 'florist', 'supermarket', 'liquor_store', 'store', 'health', 'food', 'point_of_interest', 'establishment']","5269 Prospect Road, San Jose",37.2932053,-121.9941251
7,"Santa Clara, California",supermarket,ChIJuQgC4NbKj4ARP3N9lQ_BTLQ,Grocery Outlet Bargain Market,"['grocery_or_supermarket', 'supermarket', 'store', 'food', 'point_of_interest', 'establishment']","3140 Williams Road, San Jose",37.30810099999999,-121.9514654
8,"Santa Clara, California",supermarket,ChIJ85hAC2S2j4AREcXKC2FLO6g,Trader Joe's,"['grocery_or_supermarket', 'florist', 'supermarket', 'liquor_store', 'store', 'health', 'food', 'point_of_interest', 'establishment']","316 West El Camino Real, Sunnyvale",37.3679136,-122.0359141
9,"Santa Clara, California",supermarket,ChIJtyma8621j4ARjeI2HR1fKQ4,Marina Food,"['supermarket', 'grocery_or_supermarket', 'store', 'food', 'point_of_interest', 'establishment']","10122 Bandley Drive, Cupertino",37.324681,-122.0337242
10,"Santa Clara, California",supermarket,ChIJG2JIQKvKj4ARCNyc9KgqEsU,Walmart Neighborhood Market,"['supermarket', 'department_store', 'grocery_or_supermarket', 'store', 'food', 'point_of_interest', 'establishment']","1600 Saratoga Avenue #501, San Jose",37.2914808,-121.9885518
11,"Santa Clara, California",supermarket,ChIJoV8pNfe1j4AR2OOjfriqlCI,Lucky,"['supermarket', 'grocery_or_supermarket', 'store', 'food', 'point_of_interest', 'establishment']","3705 El Camino Real, Santa Clara",37.35366,-121.99817
12,"Santa Clara, California",supermarket,ChIJ2VjlSYi1j4ARpBiWAQ4OX-U,Super Kyo-Po Plaza,"['supermarket', 'grocery_or_supermarket', 'store', 'food', 'point_of_interest', 'establishment']","3521 Homestead Road, Santa Clara",37.3385397,-121.9943758
13,"Santa Clara, California",supermarket,ChIJQ_V7QZfMj4AR0O2nTXvdD1k,Cardenas Market,"['supermarket', 'grocery_or_supermarket', 'store', 'food', 'point_of_interest', 'establishment']","235 East Julian Street, San Jose",37.34332499999999,-121.889395
14,"Santa Clara, California",supermarket,ChIJ0ZvBZ8I0joARoBnTu6e1Hbw,Trader Joe's,"['grocery_or_supermarket', 'florist', 'supermarket', 'liquor_store', 'store', 'health', 'food', 'point_of_interest', 'establishment']","1875 South Bascom Avenue, Campbell",37.28832399999999,-121.932572
15,"Santa Clara, California",supermarket,ChIJG3-FdZTKj4ARfwTFDS5jGnQ,Lion Market,"['supermarket', 'grocery_or_supermarket', 'store', 'food', 'point_of_interest', 'establishment']","471 Saratoga Avenue, San Jose",37.3189405,-121.9745653
16,"Santa Clara, California",supermarket,ChIJqeO8JtzIj4AR-EJ3nWnWqAs,Walmart Supercenter,"['department_store', 'supermarket', 'grocery_or_supermarket', 'electronics_store', 'store', 'food', 'point_of_interest', 'establishment']","301 Ranch Drive, Milpitas",37.4315076,-121.9211191
17,"Santa Clara, California",supermarket,ChIJd_q_fE7Lj4AR3nJMY1UEnRU,FoodMaxx,"['supermarket', 'grocery_or_supermarket', 'store', 'food', 'point_of_interest', 'establishment']","1539 Parkmoor Avenue, San Jose",37.317514,-121.916147
18,"Santa Clara, California",supermarket,ChIJcadL3XK2j4ARgqSVfk3n4p8,Wolfe India Bazar,"['supermarket', 'grocery_or_supermarket', 'store', 'food', 'point_of_interest', 'establishment']","854 Old San Francisco Road, Sunnyvale",37.3662839,-122.0169509
19,"Santa Clara, California",supermarket,ChIJB9d2vD7Lj4ARai_l7pu-v2I,99 Cents Only Stores,"['supermarket', 'furniture_store', 'grocery_or_supermarket', 'home_goods_store', 'store', 'food', 'point_of_interest', 'establishment']","1839, 1915 West San Carlos Street, San Jose",37.32366320000001,-121.9291453
20,"Santa Clara, California",supermarket,ChIJn29JyMM0joARE8SBw3MKLyQ,Whole Foods Market,"['grocery_or_supermarket', 'supermarket', 'store', 'health', 'food', 'point_of_interest', 'establishment']","1690 South Bascom Avenue, Campbell",37.2932275,-121.9303824
21,"Santa Clara, California",supermarket,ChIJn0i78WTLj4ARGOPrICaz1C8,Trader Joe's,"['grocery_or_supermarket', 'florist', 'supermarket', 'liquor_store', 'store', 'health', 'food', 'point_of_interest', 'establishment']","635 Coleman Avenue, San Jose",37.3409633,-121.9097176
22,"Santa Clara, California",supermarket,ChIJTQZFFJa1j4ARkO77VjuTnfw,99 Ranch Market,"['supermarket', 'grocery_or_supermarket', 'store', 'food', 'point_of_interest', 'establishment']","10983 North Wolfe Road, Cupertino",37.3367339,-122.0155307
23,"Santa Clara, California",supermarket,ChIJzwlSNxfMj4ARe0mgkt7KZFw,99 Ranch Market,"['supermarket', 'grocery_or_supermarket', 'store', 'food', 'point_of_interest', 'establishment']","1688 Hostetter Road, San Jose",37.38632070000001,-121.8844061
24,"Santa Clara, California",supermarket,ChIJPfEd8tTMj4ARuPTeEOO-2UU,Walmart Supercenter,"['department_store', 'supermarket', 'grocery_or_supermarket', 'electronics_store', 'store', 'food', 'point_of_interest', 'establishment']","777 Story Road, San Jose",37.3303636,-121.8599287
25,"Santa Clara, California",supermarket,ChIJ4z7_Z020j4ARIZO_r_8b9Po,Whole Foods Market,"['grocery_or_supermarket', 'supermarket', 'store', 'health', 'food', 'point_of_interest', 'establishment']","20955 Stevens Creek Boulevard, Cupertino",37.3235774,-122.039895
26,"Santa Clara, California",supermarket,ChIJ2zpvv1W1j4ARDV5CNgJdwvQ,Trader Joe's,"['grocery_or_supermarket', 'florist', 'supermarket', 'liquor_store', 'store', 'health', 'food', 'point_of_interest', 'establishment']","5269 Prospect Road, San Jose",37.2932053,-121.9941251
27,"Santa Clara, California",supermarket,ChIJuQgC4NbKj4ARP3N9lQ_BTLQ,Grocery Outlet Bargain Market,"['grocery_or_supermarket', 'supermarket', 'store', 'food', 'point_of_interest', 'establishment']","3140 Williams Road, San Jose",37.30810099999999,-121.9514654
28,"Santa Clara, California",supermarket,ChIJ85hAC2S2j4AREcXKC2FLO6g,Trader Joe's,"['grocery_or_supermarket', 'florist', 'supermarket', 'liquor_store', 'store', 'health', 'food', 'point_of_interest', 'establishment']","316 West El Camino Real, Sunnyvale",37.3679136,-122.0359141
29,"Santa Clara, California",supermarket,ChIJtyma8621j4ARjeI2HR1fKQ4,Marina Food,"['supermarket', 'grocery_or_supermarket', 'store', 'food', 'point_of_interest', 'establishment']","10122 Bandley Drive, Cupertino",37.324681,-122.0337242
30,"Santa Clara, California",supermarket,ChIJG2JIQKvKj4ARCNyc9KgqEsU,Walmart Neighborhood Market,"['supermarket', 'department_store', 'grocery_or_supermarket', 'store', 'food', 'point_of_interest', 'establishment']","1600 Saratoga Avenue #501, San Jose",37.2914808,-121.9885518
31,"Santa Clara, California",supermarket,ChIJoV8pNfe1j4AR2OOjfriqlCI,Lucky,"['supermarket', 'grocery_or_supermarket', 'store', 'food', 'point_of_interest', 'establishment']","3705 El Camino Real, Santa Clara",37.35366,-121.99817
32,"Santa Clara, California",supermarket,ChIJ2VjlSYi1j4ARpBiWAQ4OX-U,Super Kyo-Po Plaza,"['supermarket', 'grocery_or_supermarket', 'store', 'food', 'point_of_interest', 'establishment']","3521 Homestead Road, Santa Clara",37.3385397,-121.9943758
33,"Santa Clara, California",supermarket,ChIJQ_V7QZfMj4AR0O2nTXvdD1k,Cardenas Market,"['supermarket', 'grocery_or_supermarket', 'store', 'food', 'point_of_interest', 'establishment']","235 East Julian Street, San Jose",37.34332499999999,-121.889395
34,"Santa Clara, California",supermarket,ChIJ0ZvBZ8I0joARoBnTu6e1Hbw,Trader Joe's,"['grocery_or_supermarket', 'florist', 'supermarket', 'liquor_store', 'store', 'health', 'food', 'point_of_interest', 'establishment']","1875 South Bascom Avenue, Campbell",37.28832399999999,-121.932572
35,"Santa Clara, California",supermarket,ChIJG3-FdZTKj4ARfwTFDS5jGnQ,Lion Market,"['supermarket', 'grocery_or_supermarket', 'store', 'food', 'point_of_interest', 'establishment']","471 Saratoga Avenue, San Jose",37.3189405,-121.9745653
36,"Santa Clara, California",supermarket,ChIJqeO8JtzIj4AR-EJ3nWnWqAs,Walmart Supercenter,"['department_store', 'supermarket', 'grocery_or_supermarket', 'electronics_store', 'store', 'food', 'point_of_interest', 'establishment']","301 Ranch Drive, Milpitas",37.4315076,-121.9211191
37,"Santa Clara, California",supermarket,ChIJd_q_fE7Lj4AR3nJMY1UEnRU,FoodMaxx,"['supermarket', 'grocery_or_supermarket', 'store', 'food', 'point_of_interest', 'establishment']","1539 Parkmoor Avenue, San Jose",37.317514,-121.916147
38,"Santa Clara, California",supermarket,ChIJcadL3XK2j4ARgqSVfk3n4p8,Wolfe India Bazar,"['supermarket', 'grocery_or_supermarket', 'store', 'food', 'point_of_interest', 'establishment']","854 Old San Francisco Road, Sunnyvale",37.3662839,-122.0169509
39,"Santa Clara, California",supermarket,ChIJB9d2vD7Lj4ARai_l7pu-v2I,99 Cents Only Stores,"['supermarket', 'furniture_store', 'grocery_or_supermarket', 'home_goods_store', 'store', 'food', 'point_of_interest', 'establishment']","1839, 1915 West San Carlos Street, San Jose",37.32366320000001,-121.9291453
40,"Santa Clara, California",supermarket,ChIJn29JyMM0joARE8SBw3MKLyQ,Whole Foods Market,"['grocery_or_supermarket', 'supermarket', 'store', 'health', 'food', 'point_of_interest', 'establishment']","1690 South Bascom Avenue, Campbell",37.2932275,-121.9303824
41,"Santa Clara, California",supermarket,ChIJn0i78WTLj4ARGOPrICaz1C8,Trader Joe's,"['grocery_or_supermarket', 'florist', 'supermarket', 'liquor_store', 'store', 'health', 'food', 'point_of_interest', 'establishment']","635 Coleman Avenue, San Jose",37.3409633,-121.9097176
42,"Santa Clara, California",supermarket,ChIJTQZFFJa1j4ARkO77VjuTnfw,99 Ranch Market,"['supermarket', 'grocery_or_supermarket', 'store', 'food', 'point_of_interest', 'establishment']","10983 North Wolfe Road, Cupertino",37.3367339,-122.0155307
43,"Santa Clara, California",supermarket,ChIJzwlSNxfMj4ARe0mgkt7KZFw,99 Ranch Market,"['supermarket', 'grocery_or_supermarket', 'store', 'food', 'point_of_interest', 'establishment']","1688 Hostetter Road, San Jose",37.38632070000001,-121.8844061
44,"Santa Clara, California",supermarket,ChIJPfEd8tTMj4ARuPTeEOO-2UU,Walmart Supercenter,"['department_store', 'supermarket', 'grocery_or_supermarket', 'electronics_store', 'store', 'food', 'point_of_interest', 'establishment']","777 Story Road, San Jose",37.3303636,-121.8599287
45,"Santa Clara, California",supermarket,ChIJ4z7_Z020j4ARIZO_r_8b9Po,Whole Foods Market,"['grocery_or_supermarket', 'supermarket', 'store', 'health', 'food', 'point_of_interest', 'establishment']","20955 Stevens Creek Boulevard, Cupertino",37.3235774,-122.039895
46,"Santa Clara, California",supermarket,ChIJ2zpvv1W1j4ARDV5CNgJdwvQ,Trader Joe's,"['grocery_or_supermarket', 'florist', 'supermarket', 'liquor_store', 'store', 'health', 'food', 'point_of_interest', 'establishment']","5269 Prospect Road, San Jose",37.2932053,-121.9941251
47,"Santa Clara, California",supermarket,ChIJuQgC4NbKj4ARP3N9lQ_BTLQ,Grocery Outlet Bargain Market,"['grocery_or_supermarket', 'supermarket', 'store', 'food', 'point_of_interest', 'establishment']","3140 Williams Road, San Jose",37.30810099999999,-121.9514654
48,"Santa Clara, California",supermarket,ChIJ85hAC2S2j4AREcXKC2FLO6g,Trader Joe's,"['grocery_or_supermarket', 'florist', 'supermarket', 'liquor_store', 'store', 'health', 'food', 'point_of_interest', 'establishment']","316 West El Camino Real, Sunnyvale",37.3679136,-122.0359141
49,"Santa Clara, California",supermarket,ChIJtyma8621j4ARjeI2HR1fKQ4,Marina Food,"['supermarket', 'grocery_or_supermarket', 'store', 'food', 'point_of_interest', 'establishment']","10122 Bandley Drive, Cupertino",37.324681,-122.0337242
50,"Santa Clara, California",supermarket,ChIJG2JIQKvKj4ARCNyc9KgqEsU,Walmart Neighborhood Market,"['supermarket', 'department_store', 'grocery_or_supermarket', 'store', 'food', 'point_of_interest', 'establishment']","1600 Saratoga Avenue #501, San Jose",37.2914808,-121.9885518
51,"Santa Clara, California",supermarket,ChIJoV8pNfe1j4AR2OOjfriqlCI,Lucky,"['supermarket', 'grocery_or_supermarket', 'store', 'food', 'point_of_interest', 'establishment']","3705 El Camino Real, Santa Clara",37.35366,-121.99817
52,"Santa Clara, California",supermarket,ChIJ2VjlSYi1j4ARpBiWAQ4OX-U,Super Kyo-Po Plaza,"['supermarket', 'grocery_or_supermarket', 'store', 'food', 'point_of_interest', 'establishment']","3521 Homestead Road, Santa Clara",37.3385397,-121.9943758
53,"Santa Clara, California",supermarket,ChIJQ_V7QZfMj4AR0O2nTXvdD1k,Cardenas Market,"['supermarket', 'grocery_or_supermarket', 'store', 'food', 'point_of_interest', 'establishment']","235 East Julian Street, San Jose",37.34332499999999,-121.889395
54,"Santa Clara, California",supermarket,ChIJ0ZvBZ8I0joARoBnTu6e1Hbw,Trader Joe's,"['grocery_or_supermarket', 'florist', 'supermarket', 'liquor_store', 'store', 'health', 'food', 'point_of_interest', 'establishment']","1875 South Bascom Avenue, Campbell",37.28832399999999,-121.932572
55,"Santa Clara, California",supermarket,ChIJG3-FdZTKj4ARfwTFDS5jGnQ,Lion Market,"['supermarket', 'grocery_or_supermarket', 'store', 'food', 'point_of_interest', 'establishment']","471 Saratoga Avenue, San Jose",37.3189405,-121.9745653
56,"Santa Clara, California",supermarket,ChIJqeO8JtzIj4AR-EJ3nWnWqAs,Walmart Supercenter,"['department_store', 'supermarket', 'grocery_or_supermarket', 'electronics_store', 'store', 'food', 'point_of_interest', 'establishment']","301 Ranch Drive, Milpitas",37.4315076,-121.9211191
57,"Santa Clara, California",supermarket,ChIJd_q_fE7Lj4AR3nJMY1UEnRU,FoodMaxx,"['supermarket', 'grocery_or_supermarket', 'store', 'food', 'point_of_interest', 'establishment']","1539 Parkmoor Avenue, San Jose",37.317514,-121.916147
58,"Santa Clara, California",supermarket,ChIJcadL3XK2j4ARgqSVfk3n4p8,Wolfe India Bazar,"['supermarket', 'grocery_or_supermarket', 'store', 'food', 'point_of_interest', 'establishment']","854 Old San Francisco Road, Sunnyvale",37.3662839,-122.0169509
59,"Santa Clara, California",supermarket,ChIJB9d2vD7Lj4ARai_l7pu-v2I,99 Cents Only Stores,"['supermarket', 'furniture_store', 'grocery_or_supermarket', 'home_goods_store', 'store', 'food', 'point_of_interest', 'establishment']","1839, 1915 West San Carlos Street, San Jose",37.32366320000001,-121.9291453
0,"San Jose, California",supermarket,ChIJn29JyMM0joARE8SBw3MKLyQ,Whole Foods Market,"['grocery_or_supermarket', 'supermarket', 'store', 'health', 'food', 'point_of_interest', 'establishment']","1690 South Bascom Avenue, Campbell",37.2932275,-121.9303824
1,"San Jose, California",supermarket,ChIJPfEd8tTMj4ARuPTeEOO-2UU,Walmart Supercenter,"['department_store', 'supermarket', 'grocery_or_supermarket', 'electronics_store', 'store', 'food', 'point_of_interest', 'establishment']","777 Story Road, San Jose",37.3303636,-121.8599287
2,"San Jose, California",supermarket,ChIJn0i78WTLj4ARGOPrICaz1C8,Trader Joe's,"['grocery_or_supermarket', 'florist', 'supermarket', 'liquor_store', 'store', 'health', 'food', 'point_of_interest', 'establishment']","635 Coleman Avenue, San Jose",37.3409633,-121.9097176
3,"San Jose, California",supermarket,ChIJzwlSNxfMj4ARe0mgkt7KZFw,99 Ranch Market,"['supermarket', 'grocery_or_supermarket', 'store', 'food', 'point_of_interest', 'establishment']","1688 Hostetter Road, San Jose",37.38632070000001,-121.8844061
4,"San Jose, California",supermarket,ChIJuQgC4NbKj4ARP3N9lQ_BTLQ,Grocery Outlet Bargain Market,"['grocery_or_supermarket', 'supermarket', 'store', 'food', 'point_of_interest', 'establishment']","3140 Williams Road, San Jose",37.30810099999999,-121.9514654
5,"San Jose, California",supermarket,ChIJpSSFIx0zjoARJW1stv2JzVg,Grocery Outlet Bargain Market,"['grocery_or_supermarket', 'supermarket', 'store', 'food', 'point_of_interest', 'establishment']","2300 Monterey Street, San Jose",37.3013993,-121.8582652
6,"San Jose, California",supermarket,ChIJ0ZvBZ8I0joARoBnTu6e1Hbw,Trader Joe's,"['grocery_or_supermarket', 'florist', 'supermarket', 'liquor_store', 'store', 'health', 'food', 'point_of_interest', 'establishment']","1875 South Bascom Avenue, Campbell",37.28832399999999,-121.932572
7,"San Jose, California",supermarket,ChIJQ_V7QZfMj4AR0O2nTXvdD1k,Cardenas Market,"['supermarket', 'grocery_or_supermarket', 'store', 'food', 'point_of_interest', 'establishment']","235 East Julian Street, San Jose",37.34332499999999,-121.889395
8,"San Jose, California",supermarket,ChIJ5TQVbr0yjoARK21Gfi0EXmE,Lion Supermarket,"['supermarket', 'grocery_or_supermarket', 'store', 'food', 'point_of_interest', 'establishment']","1710 Tully Road, San Jose",37.3211811,-121.8236898
9,"San Jose, California",supermarket,ChIJd_q_fE7Lj4AR3nJMY1UEnRU,FoodMaxx,"['supermarket', 'grocery_or_supermarket', 'store', 'food', 'point_of_interest', 'establishment']","1539 Parkmoor Avenue, San Jose",37.317514,-121.916147
10,"San Jose, California",supermarket,ChIJG3-FdZTKj4ARfwTFDS5jGnQ,Lion Market,"['supermarket', 'grocery_or_supermarket', 'store', 'food', 'point_of_interest', 'establishment']","471 Saratoga Avenue, San Jose",37.3189405,-121.9745653
11,"San Jose, California",supermarket,ChIJmTUBKMMzjoARlFl1XUEiWrA,Walmart Supercenter,"['department_store', 'supermarket', 'grocery_or_supermarket', 'electronics_store', 'store', 'food', 'point_of_interest', 'establishment']","5095 Almaden Expressway, San Jose",37.2554401,-121.8801793
12,"San Jose, California",supermarket,ChIJ3ckKeArNj4ARfUsnUeU7zmM,Seafood City Supermarket,"['supermarket', 'bakery', 'grocery_or_supermarket', 'store', 'restaurant', 'food', 'point_of_interest', 'establishment']","3065 McKee Road, San Jose",37.3752857,-121.8371397
13,"San Jose, California",supermarket,ChIJd8sMc5TOj4ARjGr99uBaliI,Lucky,"['supermarket', 'grocery_or_supermarket', 'store', 'food', 'point_of_interest', 'establishment']","1350 South Park Victoria Drive, Milpitas",37.418288,-121.874902
14,"San Jose, California",supermarket,ChIJB9d2vD7Lj4ARai_l7pu-v2I,99 Cents Only Stores,"['supermarket', 'furniture_store', 'grocery_or_supermarket', 'home_goods_store', 'store', 'food', 'point_of_interest', 'establishment']","1839, 1915 West San Carlos Street, San Jose",37.32366320000001,-121.9291453
15,"San Jose, California",supermarket,ChIJ2VjlSYi1j4ARpBiWAQ4OX-U,Super Kyo-Po Plaza,"['supermarket', 'grocery_or_supermarket', 'store', 'food', 'point_of_interest', 'establishment']","3521 Homestead Road, Santa Clara",37.3385397,-121.9943758
16,"San Jose, California",supermarket,ChIJv8veNPLKj4ARSVvUj6RMJnY,Lucky,"['supermarket', 'grocery_or_supermarket', 'store', 'food', 'point_of_interest', 'establishment']","234 Saratoga Avenue, Santa Clara",37.329089,-121.966587
17,"San Jose, California",supermarket,ChIJn2UPvN0zjoAR7KokP0ZK0kM,Trader Joe's,"['grocery_or_supermarket', 'florist', 'supermarket', 'liquor_store', 'store', 'health', 'food', 'point_of_interest', 'establishment']","5353 Almaden Expressway #J-38, San Jose",37.2515114,-121.8793333
18,"San Jose, California",supermarket,ChIJX87m0vA0joAR-pjCB8Pb518,Lunardi's Markets,"['grocery_or_supermarket', 'supermarket', 'store', 'food', 'point_of_interest', 'establishment']","2666 South Bascom Avenue, San Jose",37.2731194,-121.9348364
19,"San Jose, California",supermarket,ChIJwwmVaQjNj4ARGEL2hFWB8Hg,Cardenas Market,"['supermarket', 'grocery_or_supermarket', 'store', 'food', 'point_of_interest', 'establishment']","320 North Capitol Avenue, San Jose",37.3715847,-121.8425362
20,"San Jose, California",supermarket,ChIJn29JyMM0joARE8SBw3MKLyQ,Whole Foods Market,"['grocery_or_supermarket', 'supermarket', 'store', 'health', 'food', 'point_of_interest', 'establishment']","1690 South Bascom Avenue, Campbell",37.2932275,-121.9303824
21,"San Jose, California",supermarket,ChIJPfEd8tTMj4ARuPTeEOO-2UU,Walmart Supercenter,"['department_store', 'supermarket', 'grocery_or_supermarket', 'electronics_store', 'store', 'food', 'point_of_interest', 'establishment']","777 Story Road, San Jose",37.3303636,-121.8599287
22,"San Jose, California",supermarket,ChIJn0i78WTLj4ARGOPrICaz1C8,Trader Joe's,"['grocery_or_supermarket', 'florist', 'supermarket', 'liquor_store', 'store', 'health', 'food', 'point_of_interest', 'establishment']","635 Coleman Avenue, San Jose",37.3409633,-121.9097176
23,"San Jose, California",supermarket,ChIJzwlSNxfMj4ARe0mgkt7KZFw,99 Ranch Market,"['supermarket', 'grocery_or_supermarket', 'store', 'food', 'point_of_interest', 'establishment']","1688 Hostetter Road, San Jose",37.38632070000001,-121.8844061
24,"San Jose, California",supermarket,ChIJuQgC4NbKj4ARP3N9lQ_BTLQ,Grocery Outlet Bargain Market,"['grocery_or_supermarket', 'supermarket', 'store', 'food', 'point_of_interest', 'establishment']","3140 Williams Road, San Jose",37.30810099999999,-121.9514654
25,"San Jose, California",supermarket,ChIJpSSFIx0zjoARJW1stv2JzVg,Grocery Outlet Bargain Market,"['grocery_or_supermarket', 'supermarket', 'store', 'food', 'point_of_interest', 'establishment']","2300 Monterey Street, San Jose",37.3013993,-121.8582652
26,"San Jose, California",supermarket,ChIJ0ZvBZ8I0joARoBnTu6e1Hbw,Trader Joe's,"['grocery_or_supermarket', 'florist', 'supermarket', 'liquor_store', 'store', 'health', 'food', 'point_of_interest', 'establishment']","1875 South Bascom Avenue, Campbell",37.28832399999999,-121.932572
27,"San Jose, California",supermarket,ChIJQ_V7QZfMj4AR0O2nTXvdD1k,Cardenas Market,"['supermarket', 'grocery_or_supermarket', 'store', 'food', 'point_of_interest', 'establishment']","235 East Julian Street, San Jose",37.34332499999999,-121.889395
28,"San Jose, California",supermarket,ChIJ5TQVbr0yjoARK21Gfi0EXmE,Lion Supermarket,"['supermarket', 'grocery_or_supermarket', 'store', 'food', 'point_of_interest', 'establishment']","1710 Tully Road, San Jose",37.3211811,-121.8236898
29,"San Jose, California",supermarket,ChIJd_q_fE7Lj4AR3nJMY1UEnRU,FoodMaxx,"['supermarket', 'grocery_or_supermarket', 'store', 'food', 'point_of_interest', 'establishment']","1539 Parkmoor Avenue, San Jose",37.317514,-121.916147
30,"San Jose, California",supermarket,ChIJG3-FdZTKj4ARfwTFDS5jGnQ,Lion Market,"['supermarket', 'grocery_or_supermarket', 'store', 'food', 'point_of_interest', 'establishment']","471 Saratoga Avenue, San Jose",37.3189405,-121.9745653
31,"San Jose, California",supermarket,ChIJmTUBKMMzjoARlFl1XUEiWrA,Walmart Supercenter,"['department_store', 'supermarket', 'grocery_or_supermarket', 'electronics_store', 'store', 'food', 'point_of_interest', 'establishment']","5095 Almaden Expressway, San Jose",37.2554401,-121.8801793
32,"San Jose, California",supermarket,ChIJ3ckKeArNj4ARfUsnUeU7zmM,Seafood City Supermarket,"['supermarket', 'bakery', 'grocery_or_supermarket', 'store', 'restaurant', 'food', 'point_of_interest', 'establishment']","3065 McKee Road, San Jose",37.3752857,-121.8371397
33,"San Jose, California",supermarket,ChIJd8sMc5TOj4ARjGr99uBaliI,Lucky,"['supermarket', 'grocery_or_supermarket', 'store', 'food', 'point_of_interest', 'establishment']","1350 South Park Victoria Drive, Milpitas",37.418288,-121.874902
34,"San Jose, California",supermarket,ChIJB9d2vD7Lj4ARai_l7pu-v2I,99 Cents Only Stores,"['supermarket', 'furniture_store', 'grocery_or_supermarket', 'home_goods_store', 'store', 'food', 'point_of_interest', 'establishment']","1839, 1915 West San Carlos Street, San Jose",37.32366320000001,-121.9291453
35,"San Jose, California",supermarket,ChIJ2VjlSYi1j4ARpBiWAQ4OX-U,Super Kyo-Po Plaza,"['supermarket', 'grocery_or_supermarket', 'store', 'food', 'point_of_interest', 'establishment']","3521 Homestead Road, Santa Clara",37.3385397,-121.9943758
36,"San Jose, California",supermarket,ChIJv8veNPLKj4ARSVvUj6RMJnY,Lucky,"['supermarket', 'grocery_or_supermarket', 'store', 'food', 'point_of_interest', 'establishment']","234 Saratoga Avenue, Santa Clara",37.329089,-121.966587
37,"San Jose, California",supermarket,ChIJn2UPvN0zjoAR7KokP0ZK0kM,Trader Joe's,"['grocery_or_supermarket', 'florist', 'supermarket', 'liquor_store', 'store', 'health', 'food', 'point_of_interest', 'establishment']","5353 Almaden Expressway #J-38, San Jose",37.2515114,-121.8793333
38,"San Jose, California",supermarket,ChIJX87m0vA0joAR-pjCB8Pb518,Lunardi's Markets,"['grocery_or_supermarket', 'supermarket', 'store', 'food', 'point_of_interest', 'establishment']","2666 South Bascom Avenue, San Jose",37.2731194,-121.9348364
39,"San Jose, California",supermarket,ChIJwwmVaQjNj4ARGEL2hFWB8Hg,Cardenas Market,"['supermarket', 'grocery_or_supermarket', 'store', 'food', 'point_of_interest', 'establishment']","320 North Capitol Avenue, San Jose",37.3715847,-121.8425362
40,"San Jose, California",supermarket,ChIJn29JyMM0joARE8SBw3MKLyQ,Whole Foods Market,"['grocery_or_supermarket', 'supermarket', 'store', 'health', 'food', 'point_of_interest', 'establishment']","1690 South Bascom Avenue, Campbell",37.2932275,-121.9303824
41,"San Jose, California",supermarket,ChIJPfEd8tTMj4ARuPTeEOO-2UU,Walmart Supercenter,"['department_store', 'supermarket', 'grocery_or_supermarket', 'electronics_store', 'store', 'food', 'point_of_interest', 'establishment']","777 Story Road, San Jose",37.3303636,-121.8599287
42,"San Jose, California",supermarket,ChIJn0i78WTLj4ARGOPrICaz1C8,Trader Joe's,"['grocery_or_supermarket', 'florist', 'supermarket', 'liquor_store', 'store', 'health', 'food', 'point_of_interest', 'establishment']","635 Coleman Avenue, San Jose",37.3409633,-121.9097176
43,"San Jose, California",supermarket,ChIJzwlSNxfMj4ARe0mgkt7KZFw,99 Ranch Market,"['supermarket', 'grocery_or_supermarket', 'store', 'food', 'point_of_interest', 'establishment']","1688 Hostetter Road, San Jose",37.38632070000001,-121.8844061
44,"San Jose, California",supermarket,ChIJuQgC4NbKj4ARP3N9lQ_BTLQ,Grocery Outlet Bargain Market,"['grocery_or_supermarket', 'supermarket', 'store', 'food', 'point_of_interest', 'establishment']","3140 Williams Road, San Jose",37.30810099999999,-121.9514654
45,"San Jose, California",supermarket,ChIJpSSFIx0zjoARJW1stv2JzVg,Grocery Outlet Bargain Market,"['grocery_or_supermarket', 'supermarket', 'store', 'food', 'point_of_interest', 'establishment']","2300 Monterey Street, San Jose",37.3013993,-121.8582652
46,"San Jose, California",supermarket,ChIJ0ZvBZ8I0joARoBnTu6e1Hbw,Trader Joe's,"['grocery_or_supermarket', 'florist', 'supermarket', 'liquor_store', 'store', 'health', 'food', 'point_of_interest', 'establishment']","1875 South Bascom Avenue, Campbell",37.28832399999999,-121.932572
47,"San Jose, California",supermarket,ChIJQ_V7QZfMj4AR0O2nTXvdD1k,Cardenas Market,"['supermarket', 'grocery_or_supermarket', 'store', 'food', 'point_of_interest', 'establishment']","235 East Julian Street, San Jose",37.34332499999999,-121.889395
48,"San Jose, California",supermarket,ChIJ5TQVbr0yjoARK21Gfi0EXmE,Lion Supermarket,"['supermarket', 'grocery_or_supermarket', 'store', 'food', 'point_of_interest', 'establishment']","1710 Tully Road, San Jose",37.3211811,-121.8236898
49,"San Jose, California",supermarket,ChIJd_q_fE7Lj4AR3nJMY1UEnRU,FoodMaxx,"['supermarket', 'grocery_or_supermarket', 'store', 'food', 'point_of_interest', 'establishment']","1539 Parkmoor Avenue, San Jose",37.317514,-121.916147
50,"San Jose, California",supermarket,ChIJG3-FdZTKj4ARfwTFDS5jGnQ,Lion Market,"['supermarket', 'grocery_or_supermarket', 'store', 'food', 'point_of_interest', 'establishment']","471 Saratoga Avenue, San Jose",37.3189405,-121.9745653
51,"San Jose, California",supermarket,ChIJmTUBKMMzjoARlFl1XUEiWrA,Walmart Supercenter,"['department_store', 'supermarket', 'grocery_or_supermarket', 'electronics_store', 'store', 'food', 'point_of_interest', 'establishment']","5095 Almaden Expressway, San Jose",37.2554401,-121.8801793
52,"San Jose, California",supermarket,ChIJ3ckKeArNj4ARfUsnUeU7zmM,Seafood City Supermarket,"['supermarket', 'bakery', 'grocery_or_supermarket', 'store', 'restaurant', 'food', 'point_of_interest', 'establishment']","3065 McKee Road, San Jose",37.3752857,-121.8371397
53,"San Jose, California",supermarket,ChIJd8sMc5TOj4ARjGr99uBaliI,Lucky,"['supermarket', 'grocery_or_supermarket', 'store', 'food', 'point_of_interest', 'establishment']","1350 South Park Victoria Drive, Milpitas",37.418288,-121.874902
54,"San Jose, California",supermarket,ChIJB9d2vD7Lj4ARai_l7pu-v2I,99 Cents Only Stores,"['supermarket', 'furniture_store', 'grocery_or_supermarket', 'home_goods_store', 'store', 'food', 'point_of_interest', 'establishment']","1839, 1915 West San Carlos Street, San Jose",37.32366320000001,-121.9291453
55,"San Jose, California",supermarket,ChIJ2VjlSYi1j4ARpBiWAQ4OX-U,Super Kyo-Po Plaza,"['supermarket', 'grocery_or_supermarket', 'store', 'food', 'point_of_interest', 'establishment']","3521 Homestead Road, Santa Clara",37.3385397,-121.9943758
56,"San Jose, California",supermarket,ChIJv8veNPLKj4ARSVvUj6RMJnY,Lucky,"['supermarket', 'grocery_or_supermarket', 'store', 'food', 'point_of_interest', 'establishment']","234 Saratoga Avenue, Santa Clara",37.329089,-121.966587
57,"San Jose, California",supermarket,ChIJn2UPvN0zjoAR7KokP0ZK0kM,Trader Joe's,"['grocery_or_supermarket', 'florist', 'supermarket', 'liquor_store', 'store', 'health', 'food', 'point_of_interest', 'establishment']","5353 Almaden Expressway #J-38, San Jose",37.2515114,-121.8793333
58,"San Jose, California",supermarket,ChIJX87m0vA0joAR-pjCB8Pb518,Lunardi's Markets,"['grocery_or_supermarket', 'supermarket', 'store', 'food', 'point_of_interest', 'establishment']","2666 South Bascom Avenue, San Jose",37.2731194,-121.9348364
59,"San Jose, California",supermarket,ChIJwwmVaQjNj4ARGEL2hFWB8Hg,Cardenas Market,"['supermarket', 'grocery_or_supermarket', 'store', 'food', 'point_of_interest', 'establishment']","320 North Capitol Avenue, San Jose",37.3715847,-121.8425362
0,"Fremont, California",supermarket,ChIJWzGYMc-Vj4ARbhulPHkR4r4,Walmart,"['supermarket', 'department_store', 'grocery_or_supermarket', 'store', 'food', 'point_of_interest', 'establishment']","30600 Dyer Street, Union City",37.6047604,-122.0674662
1,"Fremont, California",supermarket,ChIJzRMY4FC-j4ARPsgxqRat0tc,99 Ranch Market,"['supermarket', 'grocery_or_supermarket', 'store', 'food', 'point_of_interest', 'establishment']","35219 Newark Boulevard, Newark",37.54779079999999,-122.0467456
2,"Fremont, California",supermarket,ChIJhYBd3yy-j4ARebzXHtfnLiU,99 Ranch Market,"['supermarket', 'grocery_or_supermarket', 'store', 'food', 'point_of_interest', 'establishment']","34444 Fremont Boulevard, Fremont",37.5753482,-122.0392068
3,"Fremont, California",supermarket,ChIJNxMrsYXAj4ARfuq-gplU-00,Whole Foods Market,"['grocery_or_supermarket', 'supermarket', 'store', 'health', 'food', 'point_of_interest', 'establishment']","3111 Mowry Avenue, Fremont",37.555006,-121.9851925
4,"Fremont, California",supermarket,ChIJ_Ud7xI_Aj4AR7NmIHJWiH1k,Raley's,"['grocery_or_supermarket', 'cafe', 'bakery', 'supermarket', 'pharmacy', 'store', 'health', 'food', 'point_of_interest', 'establishment']","39200 Paseo Padre Parkway, Fremont",37.5538306,-121.9789991
5,"Fremont, California",supermarket,ChIJJyKtBVPHj4AR78nnFx_9oZE,Walmart,"['supermarket', 'department_store', 'grocery_or_supermarket', 'store', 'food', 'point_of_interest', 'establishment']","40580 Albrae Street, Fremont",37.52021339999999,-121.9856995
6,"Fremont, California",supermarket,ChIJO3hqLJnAj4ARuWtDawLOml4,Trader Joe's,"['grocery_or_supermarket', 'florist', 'supermarket', 'liquor_store', 'store', 'health', 'food', 'point_of_interest', 'establishment']","39324 Argonaut Way, Fremont",37.5433731,-121.9861375
7,"Fremont, California",supermarket,ChIJh2HMWuHGj4ARYOOeFZ7OIkE,Walmart,"['supermarket', 'department_store', 'grocery_or_supermarket', 'store', 'food', 'point_of_interest', 'establishment']","44009 Osgood Road, Fremont",37.5112447,-121.9432361
8,"Fremont, California",supermarket,ChIJHy7ve0PGj4ARr3RysT1wSy4,99 Ranch Market,"['bakery', 'supermarket', 'grocery_or_supermarket', 'store', 'food', 'point_of_interest', 'establishment']","46881 Warm Springs Boulevard, Fremont",37.4882133,-121.9305738
9,"Fremont, California",supermarket,ChIJ4WfBNuiVj4ARYL8HyJw9Jt8,Seafood City Supermarket,"['supermarket', 'bakery', 'grocery_or_supermarket', 'store', 'food', 'point_of_interest', 'establishment']","31840 Alvarado Boulevard, Union City",37.5914349,-122.0697593
10,"Fremont, California",supermarket,ChIJ_2D6M5jAj4ARUizMJ8f6e2M,FoodMaxx,"['supermarket', 'grocery_or_supermarket', 'store', 'food', 'point_of_interest', 'establishment']","39441 Fremont Boulevard, Fremont",37.54398800000001,-121.982644
11,"Fremont, California",supermarket,ChIJC_eVlAO_j4ARxrzfXlFGHts,Grocery Outlet Bargain Market,"['grocery_or_supermarket', 'supermarket', 'store', 'food', 'point_of_interest', 'establishment']","36601 Newark Boulevard, Newark",37.53904500000001,-122.033854
12,"Fremont, California",supermarket,ChIJ--yOeE-_j4ARiQ19IYutVQQ,Lion Food Center,"['supermarket', 'grocery_or_supermarket', 'store', 'food', 'point_of_interest', 'establishment']","39055 Cedar Boulevard #168, Newark",37.5231884,-122.0079895
13,"Fremont, California",supermarket,ChIJgeQVaym-j4ARqI4DBBtxURQ,Lucky,"['supermarket', 'grocery_or_supermarket', 'store', 'food', 'point_of_interest', 'establishment']","34101 Fremont Boulevard, Fremont",37.576199,-122.0452
14,"Fremont, California",supermarket,ChIJEYP7Z1XHj4AR4jezAUkb9iI,FoodMaxx,"['supermarket', 'grocery_or_supermarket', 'store', 'food', 'point_of_interest', 'establishment']","39966 Cedar Boulevard, Newark",37.519485,-121.991819
15,"Fremont, California",supermarket,ChIJWwYuUZDAj4ARgYHy05y-cuI,Smart & Final Extra!,"['grocery_or_supermarket', 'supermarket', 'storage', 'store', 'food', 'point_of_interest', 'establishment']","3171 Walnut Avenue, Fremont",37.551365,-121.98044
16,"Fremont, California",supermarket,ChIJrY7z4ePAj4ARF0kA3qgk7iM,Lucky,"['supermarket', 'grocery_or_supermarket', 'store', 'food', 'point_of_interest', 'establishment']","40055 Mission Boulevard, Fremont",37.55598,-121.951736
17,"Fremont, California",supermarket,ChIJj_31yq_Aj4ARZJIZYSCMUrE,Grocery Outlet Bargain Market,"['grocery_or_supermarket', 'supermarket', 'store', 'food', 'point_of_interest', 'establishment']","4949 Stevenson Boulevard F, Fremont",37.5301158,-121.9829593
18,"Fremont, California",supermarket,ChIJX1AhL8nAj4AReq81hnZnq-Q,Zamzam Halal Supermarket,"['supermarket', 'grocery_or_supermarket', 'store', 'food', 'point_of_interest', 'establishment']","40645 Fremont Boulevard, Fremont",37.5348728,-121.9648969
19,"Fremont, California",supermarket,ChIJTwEyHeK-j4ARA1l-ZVHQVXA,Santa Fe Foods,"['grocery_or_supermarket', 'supermarket', 'store', 'food', 'point_of_interest', 'establishment']","7356 Thornton Avenue, Newark",37.5297858,-122.0386069
20,"Fremont, California",supermarket,ChIJWzGYMc-Vj4ARbhulPHkR4r4,Walmart,"['supermarket', 'department_store', 'grocery_or_supermarket', 'store', 'food', 'point_of_interest', 'establishment']","30600 Dyer Street, Union City",37.6047604,-122.0674662
21,"Fremont, California",supermarket,ChIJzRMY4FC-j4ARPsgxqRat0tc,99 Ranch Market,"['supermarket', 'grocery_or_supermarket', 'store', 'food', 'point_of_interest', 'establishment']","35219 Newark Boulevard, Newark",37.54779079999999,-122.0467456
22,"Fremont, California",supermarket,ChIJhYBd3yy-j4ARebzXHtfnLiU,99 Ranch Market,"['supermarket', 'grocery_or_supermarket', 'store', 'food', 'point_of_interest', 'establishment']","34444 Fremont Boulevard, Fremont",37.5753482,-122.0392068
23,"Fremont, California",supermarket,ChIJNxMrsYXAj4ARfuq-gplU-00,Whole Foods Market,"['grocery_or_supermarket', 'supermarket', 'store', 'health', 'food', 'point_of_interest', 'establishment']","3111 Mowry Avenue, Fremont",37.555006,-121.9851925
24,"Fremont, California",supermarket,ChIJ_Ud7xI_Aj4AR7NmIHJWiH1k,Raley's,"['grocery_or_supermarket', 'cafe', 'bakery', 'supermarket', 'pharmacy', 'store', 'health', 'food', 'point_of_interest', 'establishment']","39200 Paseo Padre Parkway, Fremont",37.5538306,-121.9789991
25,"Fremont, California",supermarket,ChIJJyKtBVPHj4AR78nnFx_9oZE,Walmart,"['supermarket', 'department_store', 'grocery_or_supermarket', 'store', 'food', 'point_of_interest', 'establishment']","40580 Albrae Street, Fremont",37.52021339999999,-121.9856995
26,"Fremont, California",supermarket,ChIJO3hqLJnAj4ARuWtDawLOml4,Trader Joe's,"['grocery_or_supermarket', 'florist', 'supermarket', 'liquor_store', 'store', 'health', 'food', 'point_of_interest', 'establishment']","39324 Argonaut Way, Fremont",37.5433731,-121.9861375
27,"Fremont, California",supermarket,ChIJh2HMWuHGj4ARYOOeFZ7OIkE,Walmart,"['supermarket', 'department_store', 'grocery_or_supermarket', 'store', 'food', 'point_of_interest', 'establishment']","44009 Osgood Road, Fremont",37.5112447,-121.9432361
28,"Fremont, California",supermarket,ChIJHy7ve0PGj4ARr3RysT1wSy4,99 Ranch Market,"['bakery', 'supermarket', 'grocery_or_supermarket', 'store', 'food', 'point_of_interest', 'establishment']","46881 Warm Springs Boulevard, Fremont",37.4882133,-121.9305738
29,"Fremont, California",supermarket,ChIJ4WfBNuiVj4ARYL8HyJw9Jt8,Seafood City Supermarket,"['supermarket', 'bakery', 'grocery_or_supermarket', 'store', 'food', 'point_of_interest', 'establishment']","31840 Alvarado Boulevard, Union City",37.5914349,-122.0697593
30,"Fremont, California",supermarket,ChIJ_2D6M5jAj4ARUizMJ8f6e2M,FoodMaxx,"['supermarket', 'grocery_or_supermarket', 'store', 'food', 'point_of_interest', 'establishment']","39441 Fremont Boulevard, Fremont",37.54398800000001,-121.982644
31,"Fremont, California",supermarket,ChIJC_eVlAO_j4ARxrzfXlFGHts,Grocery Outlet Bargain Market,"['grocery_or_supermarket', 'supermarket', 'store', 'food', 'point_of_interest', 'establishment']","36601 Newark Boulevard, Newark",37.53904500000001,-122.033854
32,"Fremont, California",supermarket,ChIJ--yOeE-_j4ARiQ19IYutVQQ,Lion Food Center,"['supermarket', 'grocery_or_supermarket', 'store', 'food', 'point_of_interest', 'establishment']","39055 Cedar Boulevard #168, Newark",37.5231884,-122.0079895
33,"Fremont, California",supermarket,ChIJgeQVaym-j4ARqI4DBBtxURQ,Lucky,"['supermarket', 'grocery_or_supermarket', 'store', 'food', 'point_of_interest', 'establishment']","34101 Fremont Boulevard, Fremont",37.576199,-122.0452
34,"Fremont, California",supermarket,ChIJEYP7Z1XHj4AR4jezAUkb9iI,FoodMaxx,"['supermarket', 'grocery_or_supermarket', 'store', 'food', 'point_of_interest', 'establishment']","39966 Cedar Boulevard, Newark",37.519485,-121.991819
35,"Fremont, California",supermarket,ChIJWwYuUZDAj4ARgYHy05y-cuI,Smart & Final Extra!,"['grocery_or_supermarket', 'supermarket', 'storage', 'store', 'food', 'point_of_interest', 'establishment']","3171 Walnut Avenue, Fremont",37.551365,-121.98044
36,"Fremont, California",supermarket,ChIJrY7z4ePAj4ARF0kA3qgk7iM,Lucky,"['supermarket', 'grocery_or_supermarket', 'store', 'food', 'point_of_interest', 'establishment']","40055 Mission Boulevard, Fremont",37.55598,-121.951736
37,"Fremont, California",supermarket,ChIJj_31yq_Aj4ARZJIZYSCMUrE,Grocery Outlet Bargain Market,"['grocery_or_supermarket', 'supermarket', 'store', 'food', 'point_of_interest', 'establishment']","4949 Stevenson Boulevard F, Fremont",37.5301158,-121.9829593
38,"Fremont, California",supermarket,ChIJX1AhL8nAj4AReq81hnZnq-Q,Zamzam Halal Supermarket,"['supermarket', 'grocery_or_supermarket', 'store', 'food', 'point_of_interest', 'establishment']","40645 Fremont Boulevard, Fremont",37.5348728,-121.9648969
39,"Fremont, California",supermarket,ChIJTwEyHeK-j4ARA1l-ZVHQVXA,Santa Fe Foods,"['grocery_or_supermarket', 'supermarket', 'store', 'food', 'point_of_interest', 'establishment']","7356 Thornton Avenue, Newark",37.5297858,-122.0386069
40,"Fremont, California",supermarket,ChIJWzGYMc-Vj4ARbhulPHkR4r4,Walmart,"['supermarket', 'department_store', 'grocery_or_supermarket', 'store', 'food', 'point_of_interest', 'establishment']","30600 Dyer Street, Union City",37.6047604,-122.0674662
41,"Fremont, California",supermarket,ChIJzRMY4FC-j4ARPsgxqRat0tc,99 Ranch Market,"['supermarket', 'grocery_or_supermarket', 'store', 'food', 'point_of_interest', 'establishment']","35219 Newark Boulevard, Newark",37.54779079999999,-122.0467456
42,"Fremont, California",supermarket,ChIJhYBd3yy-j4ARebzXHtfnLiU,99 Ranch Market,"['supermarket', 'grocery_or_supermarket', 'store', 'food', 'point_of_interest', 'establishment']","34444 Fremont Boulevard, Fremont",37.5753482,-122.0392068
43,"Fremont, California",supermarket,ChIJNxMrsYXAj4ARfuq-gplU-00,Whole Foods Market,"['grocery_or_supermarket', 'supermarket', 'store', 'health', 'food', 'point_of_interest', 'establishment']","3111 Mowry Avenue, Fremont",37.555006,-121.9851925
44,"Fremont, California",supermarket,ChIJ_Ud7xI_Aj4AR7NmIHJWiH1k,Raley's,"['grocery_or_supermarket', 'cafe', 'bakery', 'supermarket', 'pharmacy', 'store', 'health', 'food', 'point_of_interest', 'establishment']","39200 Paseo Padre Parkway, Fremont",37.5538306,-121.9789991
45,"Fremont, California",supermarket,ChIJJyKtBVPHj4AR78nnFx_9oZE,Walmart,"['supermarket', 'department_store', 'grocery_or_supermarket', 'store', 'food', 'point_of_interest', 'establishment']","40580 Albrae Street, Fremont",37.52021339999999,-121.9856995
46,"Fremont, California",supermarket,ChIJO3hqLJnAj4ARuWtDawLOml4,Trader Joe's,"['grocery_or_supermarket', 'florist', 'supermarket', 'liquor_store', 'store', 'health', 'food', 'point_of_interest', 'establishment']","39324 Argonaut Way, Fremont",37.5433731,-121.9861375
47,"Fremont, California",supermarket,ChIJh2HMWuHGj4ARYOOeFZ7OIkE,Walmart,"['supermarket', 'department_store', 'grocery_or_supermarket', 'store', 'food', 'point_of_interest', 'establishment']","44009 Osgood Road, Fremont",37.5112447,-121.9432361
48,"Fremont, California",supermarket,ChIJHy7ve0PGj4ARr3RysT1wSy4,99 Ranch Market,"['bakery', 'supermarket', 'grocery_or_supermarket', 'store', 'food', 'point_of_interest', 'establishment']","46881 Warm Springs Boulevard, Fremont",37.4882133,-121.9305738
49,"Fremont, California",supermarket,ChIJ4WfBNuiVj4ARYL8HyJw9Jt8,Seafood City Supermarket,"['supermarket', 'bakery', 'grocery_or_supermarket', 'store', 'food', 'point_of_interest', 'establishment']","31840 Alvarado Boulevard, Union City",37.5914349,-122.0697593
50,"Fremont, California",supermarket,ChIJ_2D6M5jAj4ARUizMJ8f6e2M,FoodMaxx,"['supermarket', 'grocery_or_supermarket', 'store', 'food', 'point_of_interest', 'establishment']","39441 Fremont Boulevard, Fremont",37.54398800000001,-121.982644
51,"Fremont, California",supermarket,ChIJC_eVlAO_j4ARxrzfXlFGHts,Grocery Outlet Bargain Market,"['grocery_or_supermarket', 'supermarket', 'store', 'food', 'point_of_interest', 'establishment']","36601 Newark Boulevard, Newark",37.53904500000001,-122.033854
52,"Fremont, California",supermarket,ChIJ--yOeE-_j4ARiQ19IYutVQQ,Lion Food Center,"['supermarket', 'grocery_or_supermarket', 'store', 'food', 'point_of_interest', 'establishment']","39055 Cedar Boulevard #168, Newark",37.5231884,-122.0079895
53,"Fremont, California",supermarket,ChIJgeQVaym-j4ARqI4DBBtxURQ,Lucky,"['supermarket', 'grocery_or_supermarket', 'store', 'food', 'point_of_interest', 'establishment']","34101 Fremont Boulevard, Fremont",37.576199,-122.0452
54,"Fremont, California",supermarket,ChIJEYP7Z1XHj4AR4jezAUkb9iI,FoodMaxx,"['supermarket', 'grocery_or_supermarket', 'store', 'food', 'point_of_interest', 'establishment']","39966 Cedar Boulevard, Newark",37.519485,-121.991819
55,"Fremont, California",supermarket,ChIJWwYuUZDAj4ARgYHy05y-cuI,Smart & Final Extra!,"['grocery_or_supermarket', 'supermarket', 'storage', 'store', 'food', 'point_of_interest', 'establishment']","3171 Walnut Avenue, Fremont",37.551365,-121.98044
56,"Fremont, California",supermarket,ChIJrY7z4ePAj4ARF0kA3qgk7iM,Lucky,"['supermarket', 'grocery_or_supermarket', 'store', 'food', 'point_of_interest', 'establishment']","40055 Mission Boulevard, Fremont",37.55598,-121.951736
57,"Fremont, California",supermarket,ChIJj_31yq_Aj4ARZJIZYSCMUrE,Grocery Outlet Bargain Market,"['grocery_or_supermarket', 'supermarket', 'store', 'food', 'point_of_interest', 'establishment']","4949 Stevenson Boulevard F, Fremont",37.5301158,-121.9829593
58,"Fremont, California",supermarket,ChIJX1AhL8nAj4AReq81hnZnq-Q,Zamzam Halal Supermarket,"['supermarket', 'grocery_or_supermarket', 'store', 'food', 'point_of_interest', 'establishment']","40645 Fremont Boulevard, Fremont",37.5348728,-121.9648969
59,"Fremont, California",supermarket,ChIJTwEyHeK-j4ARA1l-ZVHQVXA,Santa Fe Foods,"['grocery_or_supermarket', 'supermarket', 'store', 'food', 'point_of_interest', 'establishment']","7356 Thornton Avenue, Newark",37.5297858,-122.0386069
