,City,Type,Place ID,Name,Point of interests,Address,Lat,Lng
0,"San Francisco, California",rv_park,ChIJRdmniAZ8j4ARRodY3jbG03c,The Franciscan Park,"['rv_park', 'lodging', 'point_of_interest', 'establishment']","700 Hoffman Street, Daly City",37.68860089999999,-122.4511618
1,"San Francisco, California",rv_park,ChIJ8ecE0id-j4ARPLz_VbEEirc,Outdoorsy,"['rv_park', 'real_estate_agency', 'travel_agency', 'lodging', 'point_of_interest', 'establishment']","1475 Folsom Street 2nd floor, San Francisco",37.7719003,-122.4134771
0,"Napa, California",rv_park,ChIJ05A1P8AAhYAR6GQfIqePZvw,Napa Valley,"['rv_park', 'lodging', 'point_of_interest', 'establishment']","1040 Orchard Avenue, Napa",38.3474627,-122.3312867
1,"Napa, California",rv_park,ChIJY8W81MgAhYAR91-26s14VIc,Salvador Mobile Estates,"['rv_park', 'lodging', 'point_of_interest', 'establishment']","4421 Solano Avenue, Napa",38.3394238,-122.327647
2,"Napa, California",rv_park,ChIJaeuM9XEGhYAR9fai_gsJ0ho,Napa Valley Expo RV Park,"['rv_park', 'lodging', 'point_of_interest', 'establishment']","606 California 121, Napa",38.2960686,-122.2755726
3,"Napa, California",rv_park,ChIJFeYYQwwGhYART3UF94beKNU,Silverado Pines Mobile Home Pk,"['rv_park', 'lodging', 'point_of_interest', 'establishment']","150 Silverado Trail, Napa",38.2891184,-122.2728456
4,"Napa, California",rv_park,ChIJ3ecHHOQGhYARQ8YwHPnAumA,Pueblo Mobilehome Park,"['rv_park', 'lodging', 'point_of_interest', 'establishment']","1700 Pueblo Avenue #99, Napa",38.3154065,-122.3040193
5,"Napa, California",rv_park,ChIJ8VZjidIAhYARF917qU0jEyw,Grandview Mobile Home Park,"['rv_park', 'lodging', 'point_of_interest', 'establishment']","4130 Byway East, Napa",38.3365633,-122.3194433
6,"Napa, California",rv_park,ChIJHbvIPsYAhYAR4y44o-AoeRk,La Siesta Village,"['rv_park', 'lodging', 'point_of_interest', 'establishment']","4433 Solano Avenue, Napa",38.3418559,-122.3295291
7,"Napa, California",rv_park,ChIJJdNy4uUGhYARKVLJu5mX3CA,Rexford Mobile Estates LLC,"['rv_park', 'lodging', 'point_of_interest', 'establishment']","1350 Pueblo Avenue # 216, Napa",38.316866,-122.3003208
8,"Napa, California",rv_park,ChIJW3QpKcwAhYARXOqVWij2F9Y,Oaktree Vineyard,"['rv_park', 'lodging', 'point_of_interest', 'establishment']","2001 Salvador Avenue West, Napa",38.337224,-122.325443
9,"Napa, California",rv_park,ChIJ8yqxSe8GhYARq9ZBKkToq9E,Miller's Mobile Home Park,"['rv_park', 'lodging', 'point_of_interest', 'establishment']","3130 Jefferson Street, Napa",38.3175506,-122.2972477
10,"Napa, California",rv_park,ChIJi4hgrW0GhYAR7D1c-5PMzPQ,Valley Estates,"['rv_park', 'lodging', 'point_of_interest', 'establishment']","533 Soscol Avenue #100, Napa",38.2929196,-122.2795055
11,"Napa, California",rv_park,ChIJ23OMrowGhYARADy0rv-pbHc,Napa Valley Manor,"['rv_park', 'lodging', 'point_of_interest', 'establishment']","770 Lincoln Avenue, Napa",38.311695,-122.287645
12,"Napa, California",rv_park,ChIJ_cobo8gAhYAR3mhADXs-cgE,Newells Mobile City,"['rv_park', 'lodging', 'point_of_interest', 'establishment']","4427 Solano Avenue, Napa",38.34064800000001,-122.328965
13,"Napa, California",rv_park,ChIJTdqghBAPhYAR4KubD3Y5kC8,Skyline RV Park,"['rv_park', 'lodging', 'point_of_interest', 'establishment']","2201 Imola Avenue, Napa",38.2777784,-122.2494023
0,"Sonoma, California",rv_park,ChIJhwZaPZ-uhYARH78N2CCRTw8,Moon Valley,"['rv_park', 'lodging', 'point_of_interest', 'establishment']","1001 5th Street West, Sonoma",38.284132,-122.471446
1,"Sonoma, California",rv_park,ChIJ-9yCz5-uhYAR3fELfoFmjos,Pueblo Serena Mobile Home Park,"['rv_park', 'lodging', 'point_of_interest', 'establishment']","951 5th Street West, Sonoma",38.28694099999999,-122.471531
2,"Sonoma, California",rv_park,ChIJIeyOQzqshYARFUCANJC4pME,Sonoma Oaks,"['rv_park', 'lodging', 'point_of_interest', 'establishment']","19275 Sonoma Hwy 12, Sonoma",38.2982162,-122.4779611
3,"Sonoma, California",rv_park,ChIJU0LrhPWuhYARBogdrE_HzrM,Seven Flags of Sonoma Mobile,"['rv_park', 'lodging', 'point_of_interest', 'establishment']","1400 Watmaugh Road, Sonoma",38.2597652,-122.4912811
4,"Sonoma, California",rv_park,ChIJ8WpOcEashYARwdJY351SG54,Acacia Grove Mobile Park,"['rv_park', 'lodging', 'point_of_interest', 'establishment']","18629 California 12, Sonoma",38.30744,-122.47736
5,"Sonoma, California",rv_park,ChIJnznS_lWshYARb-kYgKpdGYw,Sonoma Rancho Vista,"['rv_park', 'lodging', 'point_of_interest', 'establishment']","17324 California 12, Sonoma",38.3195506,-122.4899251
6,"Sonoma, California",rv_park,ChIJizj2wLquhYARtJ4ZE8wUdHY,Lazzarotto Mobile Home Park,"['rv_park', 'lodging', 'point_of_interest', 'establishment']","18925 Sonoma Highway, Sonoma",38.3041264,-122.4780192
7,"Sonoma, California",rv_park,ChIJ0ziLCkeshYARAOKTqZX4r4w,Brookside Mobil Manor,"['rv_park', 'lodging', 'point_of_interest', 'establishment']","18715 Sonoma Highway, Sonoma",38.308095,-122.476021
8,"Sonoma, California",rv_park,ChIJCe3KSqWuhYARh1DVRK4OTWM,Meadowbrook Mobile Estates,"['rv_park', 'lodging', 'point_of_interest', 'establishment']","18880 California 12, Sonoma",38.281379,-122.4594722
9,"Sonoma, California",rv_park,ChIJO4hrLUSshYARQ4JAVllzQag,Oak Park Trailer,"['rv_park', 'lodging', 'point_of_interest', 'establishment']","171 Siesta Way, Sonoma",38.30991600000001,-122.477749
10,"Sonoma, California",rv_park,ChIJw4QqOLBShIARiVqLLYiREHg,Heric Mobile Home Pk Management,"['rv_park', 'lodging', 'point_of_interest', 'establishment']","14302 Arnold Drive, Glen Ellen",38.3540335,-122.52804
0,"San Mateo, California",rv_park,ChIJPS4Oe02fj4ARsDWubFisg6Q,Belmont Trailer Park,"['rv_park', 'lodging', 'point_of_interest', 'establishment']","100 Harbor Boulevard, Belmont",37.5221653,-122.2667007
0,"Belmont, California",rv_park,ChIJXePDbxGjj4ARWBqBjD9Rb-0,Sequoia Trailer Park,"['rv_park', 'lodging', 'point_of_interest', 'establishment']","730 Barron Avenue, Redwood City",37.479995,-122.205046
1,"Belmont, California",rv_park,ChIJA-25TD2jj4ARfrY984K2M2Y,Harbor Village Mobile Home Pk,"['rv_park', 'lodging', 'point_of_interest', 'establishment']","3015 East Bayshore Road, Redwood City",37.4875557,-122.1961585
2,"Belmont, California",rv_park,ChIJCTOiozyjj4ARlVkFu2U3Gjg,Trailer Villa,"['rv_park', 'lodging', 'point_of_interest', 'establishment']","3401 East Bayshore Road, Redwood City",37.4871687,-122.1919875
3,"Belmont, California",rv_park,ChIJPS4Oe02fj4ARsDWubFisg6Q,Belmont Trailer Park,"['rv_park', 'lodging', 'point_of_interest', 'establishment']","100 Harbor Boulevard, Belmont",37.5221653,-122.2667007
4,"Belmont, California",rv_park,ChIJlfckbDujj4ARzDj0ebDTFh8,Bayshore Villa,"['rv_park', 'lodging', 'point_of_interest', 'establishment']","3499 East Bayshore Road, Redwood City",37.4870017,-122.1903556
5,"Belmont, California",rv_park,ChIJE-eHZBmjj4ARjpTOTod5Rw8,Redwood Mobile Estates,"['rv_park', 'lodging', 'point_of_interest', 'establishment']","2053 East Bayshore Road, Redwood City",37.487648,-122.2005669
6,"Belmont, California",rv_park,ChIJAVzd7k2ij4ARHkOqaM_7zn8,Shelter Development Corporation Inc,"['rv_park', 'lodging', 'point_of_interest', 'establishment']","600 Allerton Street, Redwood City",37.48944120000001,-122.2322348
7,"Belmont, California",rv_park,ChIJbbRvfxujj4ARZ_IESQpK7n4,R C Mobilehome Park,"['rv_park', 'lodging', 'point_of_interest', 'establishment']","1903 East Bayshore Road, Redwood City",37.4883229,-122.2057645
8,"Belmont, California",rv_park,ChIJl9vw3BCjj4ARSztipb4OgTo,Redwood Trailer Village,"['rv_park', 'lodging', 'point_of_interest', 'establishment']","855 Barron Avenue, Redwood City",37.48243799999999,-122.204171
0,"Newark, California",rv_park,ChIJjY38oj3Hj4ARrI36tVNHsiM,Southlake,"['rv_park', 'lodging', 'point_of_interest', 'establishment']","4343 Auto Mall Parkway, Fremont",37.51197379999999,-121.9588434
1,"Newark, California",rv_park,ChIJndcF9o-Vj4ARuFP2F0-DrY8,Tropics Mobile Home Park,"['rv_park', 'lodging', 'point_of_interest', 'establishment']","33000 Almaden Boulevard, Union City",37.588498,-122.0507621
2,"Newark, California",rv_park,ChIJt8iur0PAj4ARE7ouEMKd3x0,Niles Canyon Mobile Estates,"['rv_park', 'lodging', 'point_of_interest', 'establishment']","711 Old Canyon Road, Fremont",37.57854799999999,-121.967008
3,"Newark, California",rv_park,ChIJQ2LgG9WVj4ARg_UJgL-ke20,A.R.M. Homes,"['rv_park', 'lodging', 'point_of_interest', 'establishment']","3205 Whipple Road, Union City",37.6063479,-122.081344
4,"Newark, California",rv_park,ChIJy59F1omVj4ARiosvez1h2yM,Besaro Mobile Home Community,"['rv_park', 'lodging', 'point_of_interest', 'establishment']","4141 Deep Creek Road, Fremont",37.57803,-122.0533485
5,"Newark, California",rv_park,ChIJMV_ehceVj4AREcieLCxusDQ,Central Park West,"['rv_park', 'lodging', 'point_of_interest', 'establishment']","2500 Parkside Drive, Union City",37.6023808,-122.0613897
0,"Hayward, California",rv_park,ChIJy6L0pROQj4ARS59z01YumoA,Mission Bay,"['rv_park', 'lodging', 'point_of_interest', 'establishment']","15333 Wicks Boulevard, San Leandro",37.6823613,-122.1597752
1,"Hayward, California",rv_park,ChIJpebL6zOSj4ARleR84VoEwKM,Chetwood Crest Mobile Homes Pk,"['rv_park', 'lodging', 'point_of_interest', 'establishment']","3913 Castro Valley Boulevard, Castro Valley",37.6924062,-122.067765
2,"Hayward, California",rv_park,ChIJ2dBNxTOSj4AR-f5C7Yv-gDk,Wagon Wheel Mobile Home Park,"['rv_park', 'lodging', 'point_of_interest', 'establishment']","3875 Castro Valley Boulevard, Castro Valley",37.6934187,-122.0679981
3,"Hayward, California",rv_park,ChIJ7a9xIzSSj4ARMk4UVdt869g,Avalon Mobile Home Park,"['rv_park', 'lodging', 'point_of_interest', 'establishment']","3970 Castro Valley Boulevard, Castro Valley",37.69360880000001,-122.0649938
4,"Hayward, California",rv_park,ChIJQ2LgG9WVj4ARg_UJgL-ke20,A.R.M. Homes,"['rv_park', 'lodging', 'point_of_interest', 'establishment']","3205 Whipple Road, Union City",37.6063479,-122.081344
5,"Hayward, California",rv_park,ChIJS8Krc0GUj4AR1ysJocRT2EU,Spanish Ranch II,"['rv_park', 'lodging', 'point_of_interest', 'establishment']","121 Ranchero Way, Hayward",37.6310873,-122.0565773
6,"Hayward, California",rv_park,ChIJVawvLsSRj4ARdt0Gjdvk4GE,Del Rio Mobile Home Park,"['rv_park', 'lodging', 'point_of_interest', 'establishment']","1550 162nd Avenue, San Leandro",37.698818,-122.114488
7,"Hayward, California",rv_park,ChIJdzCOOTaUj4AR9zI7HDdKGdQ,New England Village Mobile Home,"['rv_park', 'lodging', 'point_of_interest', 'establishment']","940 New England Village Drive, Hayward",37.62256809999999,-122.0620349
8,"Hayward, California",rv_park,ChIJf6TUeTuRj4ARKpwDDiTkSMg,Eden Gardens Estates,"['rv_park', 'lodging', 'point_of_interest', 'establishment']","1437, 1150 West Winton Avenue, Hayward",37.652336,-122.1134105
9,"Hayward, California",rv_park,ChIJk2EjKZyWj4ARNpY85Qv4pQA,Eden Roc Mobile Home Park,"['rv_park', 'lodging', 'point_of_interest', 'establishment']","28362 Bradshire Road, Hayward",37.6200883,-122.0871367
10,"Hayward, California",rv_park,ChIJ5cLzdcSPj4AR9Jn_qYzVwSQ,Trailer Haven Mobile Home & RV Park,"['rv_park', 'lodging', 'point_of_interest', 'establishment']","2399 East 14th Street, San Leandro",37.7159947,-122.1460405
11,"Hayward, California",rv_park,ChIJndcF9o-Vj4ARuFP2F0-DrY8,Tropics Mobile Home Park,"['rv_park', 'lodging', 'point_of_interest', 'establishment']","33000 Almaden Boulevard, Union City",37.588498,-122.0507621
12,"Hayward, California",rv_park,ChIJiaGEMTSSj4ARV3HL4mTTqAk,Wishing Well Mobile Home Park,"['rv_park', 'lodging', 'point_of_interest', 'establishment']","3998 Castro Valley Boulevard, Castro Valley",37.6935782,-122.0643913
13,"Hayward, California",rv_park,ChIJneJDZTyRj4ARCIWKmPjqVBQ,Hayward Mobile Country Club,"['rv_park', 'lodging', 'point_of_interest', 'establishment']","1200 West Winton Avenue, Hayward",37.6517059,-122.1136575
14,"Hayward, California",rv_park,ChIJswtcd2uQj4ARYyrrtv7CLRU,Sandev Mobile Home Park,"['rv_park', 'lodging', 'point_of_interest', 'establishment']","2100 Lewelling Boulevard, San Leandro",37.67874269999999,-122.1568859
15,"Hayward, California",rv_park,ChIJixIZ_SSUj4ARvPJqwqOYFtw,Spanish Ranch Mobile Home Park,"['rv_park', 'lodging', 'point_of_interest', 'establishment']","28400 Granada Circle, Hayward",37.6224879,-122.0745122
16,"Hayward, California",rv_park,ChIJF7Jr3w2Rj4ARUq5dkM0t34o,Hidden Trailer Park,"['rv_park', 'lodging', 'point_of_interest', 'establishment']","651 W A St, Main Office, Hayward",37.666591,-122.112225
17,"Hayward, California",rv_park,ChIJMy0xeL2Wj4ARISuNAky-28k,Pueblo Springs Mobile Home Park,"['rv_park', 'lodging', 'point_of_interest', 'establishment']","27930 Pueblo Spring, Hayward",37.6223488,-122.0974805
18,"Hayward, California",rv_park,ChIJVd7XbzqUj4ARDO1OdMrbI0o,Georgian Manor Mobile Home Community,"['rv_park', 'lodging', 'point_of_interest', 'establishment']","1419 Buckingham Way, Hayward",37.62131319999999,-122.069679
19,"Hayward, California",rv_park,ChIJN86uDMOPj4ARvrELaepwYR8,San Leandro Court,"['rv_park', 'lodging', 'point_of_interest', 'establishment']","2470 Washington Avenue, San Leandro",37.7140684,-122.1477806
20,"Hayward, California",rv_park,ChIJy6L0pROQj4ARS59z01YumoA,Mission Bay,"['rv_park', 'lodging', 'point_of_interest', 'establishment']","15333 Wicks Boulevard, San Leandro",37.6823613,-122.1597752
21,"Hayward, California",rv_park,ChIJpebL6zOSj4ARleR84VoEwKM,Chetwood Crest Mobile Homes Pk,"['rv_park', 'lodging', 'point_of_interest', 'establishment']","3913 Castro Valley Boulevard, Castro Valley",37.6924062,-122.067765
22,"Hayward, California",rv_park,ChIJ2dBNxTOSj4AR-f5C7Yv-gDk,Wagon Wheel Mobile Home Park,"['rv_park', 'lodging', 'point_of_interest', 'establishment']","3875 Castro Valley Boulevard, Castro Valley",37.6934187,-122.0679981
23,"Hayward, California",rv_park,ChIJ7a9xIzSSj4ARMk4UVdt869g,Avalon Mobile Home Park,"['rv_park', 'lodging', 'point_of_interest', 'establishment']","3970 Castro Valley Boulevard, Castro Valley",37.69360880000001,-122.0649938
24,"Hayward, California",rv_park,ChIJQ2LgG9WVj4ARg_UJgL-ke20,A.R.M. Homes,"['rv_park', 'lodging', 'point_of_interest', 'establishment']","3205 Whipple Road, Union City",37.6063479,-122.081344
25,"Hayward, California",rv_park,ChIJS8Krc0GUj4AR1ysJocRT2EU,Spanish Ranch II,"['rv_park', 'lodging', 'point_of_interest', 'establishment']","121 Ranchero Way, Hayward",37.6310873,-122.0565773
26,"Hayward, California",rv_park,ChIJVawvLsSRj4ARdt0Gjdvk4GE,Del Rio Mobile Home Park,"['rv_park', 'lodging', 'point_of_interest', 'establishment']","1550 162nd Avenue, San Leandro",37.698818,-122.114488
27,"Hayward, California",rv_park,ChIJdzCOOTaUj4AR9zI7HDdKGdQ,New England Village Mobile Home,"['rv_park', 'lodging', 'point_of_interest', 'establishment']","940 New England Village Drive, Hayward",37.62256809999999,-122.0620349
28,"Hayward, California",rv_park,ChIJf6TUeTuRj4ARKpwDDiTkSMg,Eden Gardens Estates,"['rv_park', 'lodging', 'point_of_interest', 'establishment']","1437, 1150 West Winton Avenue, Hayward",37.652336,-122.1134105
29,"Hayward, California",rv_park,ChIJk2EjKZyWj4ARNpY85Qv4pQA,Eden Roc Mobile Home Park,"['rv_park', 'lodging', 'point_of_interest', 'establishment']","28362 Bradshire Road, Hayward",37.6200883,-122.0871367
30,"Hayward, California",rv_park,ChIJ5cLzdcSPj4AR9Jn_qYzVwSQ,Trailer Haven Mobile Home & RV Park,"['rv_park', 'lodging', 'point_of_interest', 'establishment']","2399 East 14th Street, San Leandro",37.7159947,-122.1460405
31,"Hayward, California",rv_park,ChIJndcF9o-Vj4ARuFP2F0-DrY8,Tropics Mobile Home Park,"['rv_park', 'lodging', 'point_of_interest', 'establishment']","33000 Almaden Boulevard, Union City",37.588498,-122.0507621
32,"Hayward, California",rv_park,ChIJiaGEMTSSj4ARV3HL4mTTqAk,Wishing Well Mobile Home Park,"['rv_park', 'lodging', 'point_of_interest', 'establishment']","3998 Castro Valley Boulevard, Castro Valley",37.6935782,-122.0643913
33,"Hayward, California",rv_park,ChIJneJDZTyRj4ARCIWKmPjqVBQ,Hayward Mobile Country Club,"['rv_park', 'lodging', 'point_of_interest', 'establishment']","1200 West Winton Avenue, Hayward",37.6517059,-122.1136575
34,"Hayward, California",rv_park,ChIJswtcd2uQj4ARYyrrtv7CLRU,Sandev Mobile Home Park,"['rv_park', 'lodging', 'point_of_interest', 'establishment']","2100 Lewelling Boulevard, San Leandro",37.67874269999999,-122.1568859
35,"Hayward, California",rv_park,ChIJixIZ_SSUj4ARvPJqwqOYFtw,Spanish Ranch Mobile Home Park,"['rv_park', 'lodging', 'point_of_interest', 'establishment']","28400 Granada Circle, Hayward",37.6224879,-122.0745122
36,"Hayward, California",rv_park,ChIJF7Jr3w2Rj4ARUq5dkM0t34o,Hidden Trailer Park,"['rv_park', 'lodging', 'point_of_interest', 'establishment']","651 W A St, Main Office, Hayward",37.666591,-122.112225
37,"Hayward, California",rv_park,ChIJMy0xeL2Wj4ARISuNAky-28k,Pueblo Springs Mobile Home Park,"['rv_park', 'lodging', 'point_of_interest', 'establishment']","27930 Pueblo Spring, Hayward",37.6223488,-122.0974805
38,"Hayward, California",rv_park,ChIJVd7XbzqUj4ARDO1OdMrbI0o,Georgian Manor Mobile Home Community,"['rv_park', 'lodging', 'point_of_interest', 'establishment']","1419 Buckingham Way, Hayward",37.62131319999999,-122.069679
39,"Hayward, California",rv_park,ChIJN86uDMOPj4ARvrELaepwYR8,San Leandro Court,"['rv_park', 'lodging', 'point_of_interest', 'establishment']","2470 Washington Avenue, San Leandro",37.7140684,-122.1477806
40,"Hayward, California",rv_park,ChIJy6L0pROQj4ARS59z01YumoA,Mission Bay,"['rv_park', 'lodging', 'point_of_interest', 'establishment']","15333 Wicks Boulevard, San Leandro",37.6823613,-122.1597752
41,"Hayward, California",rv_park,ChIJpebL6zOSj4ARleR84VoEwKM,Chetwood Crest Mobile Homes Pk,"['rv_park', 'lodging', 'point_of_interest', 'establishment']","3913 Castro Valley Boulevard, Castro Valley",37.6924062,-122.067765
42,"Hayward, California",rv_park,ChIJ2dBNxTOSj4AR-f5C7Yv-gDk,Wagon Wheel Mobile Home Park,"['rv_park', 'lodging', 'point_of_interest', 'establishment']","3875 Castro Valley Boulevard, Castro Valley",37.6934187,-122.0679981
43,"Hayward, California",rv_park,ChIJ7a9xIzSSj4ARMk4UVdt869g,Avalon Mobile Home Park,"['rv_park', 'lodging', 'point_of_interest', 'establishment']","3970 Castro Valley Boulevard, Castro Valley",37.69360880000001,-122.0649938
44,"Hayward, California",rv_park,ChIJQ2LgG9WVj4ARg_UJgL-ke20,A.R.M. Homes,"['rv_park', 'lodging', 'point_of_interest', 'establishment']","3205 Whipple Road, Union City",37.6063479,-122.081344
45,"Hayward, California",rv_park,ChIJS8Krc0GUj4AR1ysJocRT2EU,Spanish Ranch II,"['rv_park', 'lodging', 'point_of_interest', 'establishment']","121 Ranchero Way, Hayward",37.6310873,-122.0565773
46,"Hayward, California",rv_park,ChIJVawvLsSRj4ARdt0Gjdvk4GE,Del Rio Mobile Home Park,"['rv_park', 'lodging', 'point_of_interest', 'establishment']","1550 162nd Avenue, San Leandro",37.698818,-122.114488
47,"Hayward, California",rv_park,ChIJdzCOOTaUj4AR9zI7HDdKGdQ,New England Village Mobile Home,"['rv_park', 'lodging', 'point_of_interest', 'establishment']","940 New England Village Drive, Hayward",37.62256809999999,-122.0620349
48,"Hayward, California",rv_park,ChIJf6TUeTuRj4ARKpwDDiTkSMg,Eden Gardens Estates,"['rv_park', 'lodging', 'point_of_interest', 'establishment']","1437, 1150 West Winton Avenue, Hayward",37.652336,-122.1134105
49,"Hayward, California",rv_park,ChIJk2EjKZyWj4ARNpY85Qv4pQA,Eden Roc Mobile Home Park,"['rv_park', 'lodging', 'point_of_interest', 'establishment']","28362 Bradshire Road, Hayward",37.6200883,-122.0871367
50,"Hayward, California",rv_park,ChIJ5cLzdcSPj4AR9Jn_qYzVwSQ,Trailer Haven Mobile Home & RV Park,"['rv_park', 'lodging', 'point_of_interest', 'establishment']","2399 East 14th Street, San Leandro",37.7159947,-122.1460405
51,"Hayward, California",rv_park,ChIJndcF9o-Vj4ARuFP2F0-DrY8,Tropics Mobile Home Park,"['rv_park', 'lodging', 'point_of_interest', 'establishment']","33000 Almaden Boulevard, Union City",37.588498,-122.0507621
52,"Hayward, California",rv_park,ChIJiaGEMTSSj4ARV3HL4mTTqAk,Wishing Well Mobile Home Park,"['rv_park', 'lodging', 'point_of_interest', 'establishment']","3998 Castro Valley Boulevard, Castro Valley",37.6935782,-122.0643913
53,"Hayward, California",rv_park,ChIJneJDZTyRj4ARCIWKmPjqVBQ,Hayward Mobile Country Club,"['rv_park', 'lodging', 'point_of_interest', 'establishment']","1200 West Winton Avenue, Hayward",37.6517059,-122.1136575
54,"Hayward, California",rv_park,ChIJswtcd2uQj4ARYyrrtv7CLRU,Sandev Mobile Home Park,"['rv_park', 'lodging', 'point_of_interest', 'establishment']","2100 Lewelling Boulevard, San Leandro",37.67874269999999,-122.1568859
55,"Hayward, California",rv_park,ChIJixIZ_SSUj4ARvPJqwqOYFtw,Spanish Ranch Mobile Home Park,"['rv_park', 'lodging', 'point_of_interest', 'establishment']","28400 Granada Circle, Hayward",37.6224879,-122.0745122
56,"Hayward, California",rv_park,ChIJF7Jr3w2Rj4ARUq5dkM0t34o,Hidden Trailer Park,"['rv_park', 'lodging', 'point_of_interest', 'establishment']","651 W A St, Main Office, Hayward",37.666591,-122.112225
57,"Hayward, California",rv_park,ChIJMy0xeL2Wj4ARISuNAky-28k,Pueblo Springs Mobile Home Park,"['rv_park', 'lodging', 'point_of_interest', 'establishment']","27930 Pueblo Spring, Hayward",37.6223488,-122.0974805
58,"Hayward, California",rv_park,ChIJVd7XbzqUj4ARDO1OdMrbI0o,Georgian Manor Mobile Home Community,"['rv_park', 'lodging', 'point_of_interest', 'establishment']","1419 Buckingham Way, Hayward",37.62131319999999,-122.069679
59,"Hayward, California",rv_park,ChIJN86uDMOPj4ARvrELaepwYR8,San Leandro Court,"['rv_park', 'lodging', 'point_of_interest', 'establishment']","2470 Washington Avenue, San Leandro",37.7140684,-122.1477806
60,"Hayward, California",rv_park,ChIJy6L0pROQj4ARS59z01YumoA,Mission Bay,"['rv_park', 'lodging', 'point_of_interest', 'establishment']","15333 Wicks Boulevard, San Leandro",37.6823613,-122.1597752
61,"Hayward, California",rv_park,ChIJpebL6zOSj4ARleR84VoEwKM,Chetwood Crest Mobile Homes Pk,"['rv_park', 'lodging', 'point_of_interest', 'establishment']","3913 Castro Valley Boulevard, Castro Valley",37.6924062,-122.067765
62,"Hayward, California",rv_park,ChIJ2dBNxTOSj4AR-f5C7Yv-gDk,Wagon Wheel Mobile Home Park,"['rv_park', 'lodging', 'point_of_interest', 'establishment']","3875 Castro Valley Boulevard, Castro Valley",37.6934187,-122.0679981
63,"Hayward, California",rv_park,ChIJ7a9xIzSSj4ARMk4UVdt869g,Avalon Mobile Home Park,"['rv_park', 'lodging', 'point_of_interest', 'establishment']","3970 Castro Valley Boulevard, Castro Valley",37.69360880000001,-122.0649938
64,"Hayward, California",rv_park,ChIJQ2LgG9WVj4ARg_UJgL-ke20,A.R.M. Homes,"['rv_park', 'lodging', 'point_of_interest', 'establishment']","3205 Whipple Road, Union City",37.6063479,-122.081344
65,"Hayward, California",rv_park,ChIJS8Krc0GUj4AR1ysJocRT2EU,Spanish Ranch II,"['rv_park', 'lodging', 'point_of_interest', 'establishment']","121 Ranchero Way, Hayward",37.6310873,-122.0565773
66,"Hayward, California",rv_park,ChIJVawvLsSRj4ARdt0Gjdvk4GE,Del Rio Mobile Home Park,"['rv_park', 'lodging', 'point_of_interest', 'establishment']","1550 162nd Avenue, San Leandro",37.698818,-122.114488
67,"Hayward, California",rv_park,ChIJdzCOOTaUj4AR9zI7HDdKGdQ,New England Village Mobile Home,"['rv_park', 'lodging', 'point_of_interest', 'establishment']","940 New England Village Drive, Hayward",37.62256809999999,-122.0620349
68,"Hayward, California",rv_park,ChIJf6TUeTuRj4ARKpwDDiTkSMg,Eden Gardens Estates,"['rv_park', 'lodging', 'point_of_interest', 'establishment']","1437, 1150 West Winton Avenue, Hayward",37.652336,-122.1134105
69,"Hayward, California",rv_park,ChIJk2EjKZyWj4ARNpY85Qv4pQA,Eden Roc Mobile Home Park,"['rv_park', 'lodging', 'point_of_interest', 'establishment']","28362 Bradshire Road, Hayward",37.6200883,-122.0871367
70,"Hayward, California",rv_park,ChIJ5cLzdcSPj4AR9Jn_qYzVwSQ,Trailer Haven Mobile Home & RV Park,"['rv_park', 'lodging', 'point_of_interest', 'establishment']","2399 East 14th Street, San Leandro",37.7159947,-122.1460405
71,"Hayward, California",rv_park,ChIJndcF9o-Vj4ARuFP2F0-DrY8,Tropics Mobile Home Park,"['rv_park', 'lodging', 'point_of_interest', 'establishment']","33000 Almaden Boulevard, Union City",37.588498,-122.0507621
72,"Hayward, California",rv_park,ChIJiaGEMTSSj4ARV3HL4mTTqAk,Wishing Well Mobile Home Park,"['rv_park', 'lodging', 'point_of_interest', 'establishment']","3998 Castro Valley Boulevard, Castro Valley",37.6935782,-122.0643913
73,"Hayward, California",rv_park,ChIJneJDZTyRj4ARCIWKmPjqVBQ,Hayward Mobile Country Club,"['rv_park', 'lodging', 'point_of_interest', 'establishment']","1200 West Winton Avenue, Hayward",37.6517059,-122.1136575
74,"Hayward, California",rv_park,ChIJswtcd2uQj4ARYyrrtv7CLRU,Sandev Mobile Home Park,"['rv_park', 'lodging', 'point_of_interest', 'establishment']","2100 Lewelling Boulevard, San Leandro",37.67874269999999,-122.1568859
75,"Hayward, California",rv_park,ChIJixIZ_SSUj4ARvPJqwqOYFtw,Spanish Ranch Mobile Home Park,"['rv_park', 'lodging', 'point_of_interest', 'establishment']","28400 Granada Circle, Hayward",37.6224879,-122.0745122
76,"Hayward, California",rv_park,ChIJF7Jr3w2Rj4ARUq5dkM0t34o,Hidden Trailer Park,"['rv_park', 'lodging', 'point_of_interest', 'establishment']","651 W A St, Main Office, Hayward",37.666591,-122.112225
77,"Hayward, California",rv_park,ChIJMy0xeL2Wj4ARISuNAky-28k,Pueblo Springs Mobile Home Park,"['rv_park', 'lodging', 'point_of_interest', 'establishment']","27930 Pueblo Spring, Hayward",37.6223488,-122.0974805
78,"Hayward, California",rv_park,ChIJVd7XbzqUj4ARDO1OdMrbI0o,Georgian Manor Mobile Home Community,"['rv_park', 'lodging', 'point_of_interest', 'establishment']","1419 Buckingham Way, Hayward",37.62131319999999,-122.069679
79,"Hayward, California",rv_park,ChIJN86uDMOPj4ARvrELaepwYR8,San Leandro Court,"['rv_park', 'lodging', 'point_of_interest', 'establishment']","2470 Washington Avenue, San Leandro",37.7140684,-122.1477806
80,"Hayward, California",rv_park,ChIJy6L0pROQj4ARS59z01YumoA,Mission Bay,"['rv_park', 'lodging', 'point_of_interest', 'establishment']","15333 Wicks Boulevard, San Leandro",37.6823613,-122.1597752
81,"Hayward, California",rv_park,ChIJpebL6zOSj4ARleR84VoEwKM,Chetwood Crest Mobile Homes Pk,"['rv_park', 'lodging', 'point_of_interest', 'establishment']","3913 Castro Valley Boulevard, Castro Valley",37.6924062,-122.067765
82,"Hayward, California",rv_park,ChIJ2dBNxTOSj4AR-f5C7Yv-gDk,Wagon Wheel Mobile Home Park,"['rv_park', 'lodging', 'point_of_interest', 'establishment']","3875 Castro Valley Boulevard, Castro Valley",37.6934187,-122.0679981
83,"Hayward, California",rv_park,ChIJ7a9xIzSSj4ARMk4UVdt869g,Avalon Mobile Home Park,"['rv_park', 'lodging', 'point_of_interest', 'establishment']","3970 Castro Valley Boulevard, Castro Valley",37.69360880000001,-122.0649938
84,"Hayward, California",rv_park,ChIJQ2LgG9WVj4ARg_UJgL-ke20,A.R.M. Homes,"['rv_park', 'lodging', 'point_of_interest', 'establishment']","3205 Whipple Road, Union City",37.6063479,-122.081344
85,"Hayward, California",rv_park,ChIJS8Krc0GUj4AR1ysJocRT2EU,Spanish Ranch II,"['rv_park', 'lodging', 'point_of_interest', 'establishment']","121 Ranchero Way, Hayward",37.6310873,-122.0565773
86,"Hayward, California",rv_park,ChIJVawvLsSRj4ARdt0Gjdvk4GE,Del Rio Mobile Home Park,"['rv_park', 'lodging', 'point_of_interest', 'establishment']","1550 162nd Avenue, San Leandro",37.698818,-122.114488
87,"Hayward, California",rv_park,ChIJdzCOOTaUj4AR9zI7HDdKGdQ,New England Village Mobile Home,"['rv_park', 'lodging', 'point_of_interest', 'establishment']","940 New England Village Drive, Hayward",37.62256809999999,-122.0620349
88,"Hayward, California",rv_park,ChIJf6TUeTuRj4ARKpwDDiTkSMg,Eden Gardens Estates,"['rv_park', 'lodging', 'point_of_interest', 'establishment']","1437, 1150 West Winton Avenue, Hayward",37.652336,-122.1134105
89,"Hayward, California",rv_park,ChIJk2EjKZyWj4ARNpY85Qv4pQA,Eden Roc Mobile Home Park,"['rv_park', 'lodging', 'point_of_interest', 'establishment']","28362 Bradshire Road, Hayward",37.6200883,-122.0871367
90,"Hayward, California",rv_park,ChIJ5cLzdcSPj4AR9Jn_qYzVwSQ,Trailer Haven Mobile Home & RV Park,"['rv_park', 'lodging', 'point_of_interest', 'establishment']","2399 East 14th Street, San Leandro",37.7159947,-122.1460405
91,"Hayward, California",rv_park,ChIJndcF9o-Vj4ARuFP2F0-DrY8,Tropics Mobile Home Park,"['rv_park', 'lodging', 'point_of_interest', 'establishment']","33000 Almaden Boulevard, Union City",37.588498,-122.0507621
92,"Hayward, California",rv_park,ChIJiaGEMTSSj4ARV3HL4mTTqAk,Wishing Well Mobile Home Park,"['rv_park', 'lodging', 'point_of_interest', 'establishment']","3998 Castro Valley Boulevard, Castro Valley",37.6935782,-122.0643913
93,"Hayward, California",rv_park,ChIJneJDZTyRj4ARCIWKmPjqVBQ,Hayward Mobile Country Club,"['rv_park', 'lodging', 'point_of_interest', 'establishment']","1200 West Winton Avenue, Hayward",37.6517059,-122.1136575
94,"Hayward, California",rv_park,ChIJswtcd2uQj4ARYyrrtv7CLRU,Sandev Mobile Home Park,"['rv_park', 'lodging', 'point_of_interest', 'establishment']","2100 Lewelling Boulevard, San Leandro",37.67874269999999,-122.1568859
95,"Hayward, California",rv_park,ChIJixIZ_SSUj4ARvPJqwqOYFtw,Spanish Ranch Mobile Home Park,"['rv_park', 'lodging', 'point_of_interest', 'establishment']","28400 Granada Circle, Hayward",37.6224879,-122.0745122
96,"Hayward, California",rv_park,ChIJF7Jr3w2Rj4ARUq5dkM0t34o,Hidden Trailer Park,"['rv_park', 'lodging', 'point_of_interest', 'establishment']","651 W A St, Main Office, Hayward",37.666591,-122.112225
97,"Hayward, California",rv_park,ChIJMy0xeL2Wj4ARISuNAky-28k,Pueblo Springs Mobile Home Park,"['rv_park', 'lodging', 'point_of_interest', 'establishment']","27930 Pueblo Spring, Hayward",37.6223488,-122.0974805
98,"Hayward, California",rv_park,ChIJVd7XbzqUj4ARDO1OdMrbI0o,Georgian Manor Mobile Home Community,"['rv_park', 'lodging', 'point_of_interest', 'establishment']","1419 Buckingham Way, Hayward",37.62131319999999,-122.069679
99,"Hayward, California",rv_park,ChIJN86uDMOPj4ARvrELaepwYR8,San Leandro Court,"['rv_park', 'lodging', 'point_of_interest', 'establishment']","2470 Washington Avenue, San Leandro",37.7140684,-122.1477806
0,"Redwood City, California",rv_park,ChIJXePDbxGjj4ARWBqBjD9Rb-0,Sequoia Trailer Park,"['rv_park', 'lodging', 'point_of_interest', 'establishment']","730 Barron Avenue, Redwood City",37.479995,-122.205046
1,"Redwood City, California",rv_park,ChIJA-25TD2jj4ARfrY984K2M2Y,Harbor Village Mobile Home Pk,"['rv_park', 'lodging', 'point_of_interest', 'establishment']","3015 East Bayshore Road, Redwood City",37.4875557,-122.1961585
2,"Redwood City, California",rv_park,ChIJCTOiozyjj4ARlVkFu2U3Gjg,Trailer Villa,"['rv_park', 'lodging', 'point_of_interest', 'establishment']","3401 East Bayshore Road, Redwood City",37.4871687,-122.1919875
3,"Redwood City, California",rv_park,ChIJlfckbDujj4ARzDj0ebDTFh8,Bayshore Villa,"['rv_park', 'lodging', 'point_of_interest', 'establishment']","3499 East Bayshore Road, Redwood City",37.4870017,-122.1903556
4,"Redwood City, California",rv_park,ChIJPS4Oe02fj4ARsDWubFisg6Q,Belmont Trailer Park,"['rv_park', 'lodging', 'point_of_interest', 'establishment']","100 Harbor Boulevard, Belmont",37.5221653,-122.2667007
5,"Redwood City, California",rv_park,ChIJoQLxUgq7j4ARwSoAiMdEyRA,Palo Mobile Estates,"['rv_park', 'lodging', 'point_of_interest', 'establishment']","1885 East Bayshore Road, East Palo Alto",37.455752,-122.1305596
6,"Redwood City, California",rv_park,ChIJE-eHZBmjj4ARjpTOTod5Rw8,Redwood Mobile Estates,"['rv_park', 'lodging', 'point_of_interest', 'establishment']","2053 East Bayshore Road, Redwood City",37.487648,-122.2005669
7,"Redwood City, California",rv_park,ChIJAVzd7k2ij4ARHkOqaM_7zn8,Shelter Development Corporation Inc,"['rv_park', 'lodging', 'point_of_interest', 'establishment']","600 Allerton Street, Redwood City",37.48944120000001,-122.2322348
8,"Redwood City, California",rv_park,ChIJbbRvfxujj4ARZ_IESQpK7n4,R C Mobilehome Park,"['rv_park', 'lodging', 'point_of_interest', 'establishment']","1903 East Bayshore Road, Redwood City",37.4883229,-122.2057645
9,"Redwood City, California",rv_park,ChIJl9vw3BCjj4ARSztipb4OgTo,Redwood Trailer Village,"['rv_park', 'lodging', 'point_of_interest', 'establishment']","855 Barron Avenue, Redwood City",37.48243799999999,-122.204171
0,"Menlo Park, California",rv_park,ChIJXePDbxGjj4ARWBqBjD9Rb-0,Sequoia Trailer Park,"['rv_park', 'lodging', 'point_of_interest', 'establishment']","730 Barron Avenue, Redwood City",37.479995,-122.205046
1,"Menlo Park, California",rv_park,ChIJoQLxUgq7j4ARwSoAiMdEyRA,Palo Mobile Estates,"['rv_park', 'lodging', 'point_of_interest', 'establishment']","1885 East Bayshore Road, East Palo Alto",37.455752,-122.1305596
2,"Menlo Park, California",rv_park,ChIJA-25TD2jj4ARfrY984K2M2Y,Harbor Village Mobile Home Pk,"['rv_park', 'lodging', 'point_of_interest', 'establishment']","3015 East Bayshore Road, Redwood City",37.4875557,-122.1961585
3,"Menlo Park, California",rv_park,ChIJCTOiozyjj4ARlVkFu2U3Gjg,Trailer Villa,"['rv_park', 'lodging', 'point_of_interest', 'establishment']","3401 East Bayshore Road, Redwood City",37.4871687,-122.1919875
4,"Menlo Park, California",rv_park,ChIJabiv-4m6j4ARSFV3hdsGNwY,Buena Vista Mobile Home Park,"['rv_park', 'lodging', 'point_of_interest', 'establishment']","3980 El Camino Real, Palo Alto",37.41510459999999,-122.1294727
5,"Menlo Park, California",rv_park,ChIJlfckbDujj4ARzDj0ebDTFh8,Bayshore Villa,"['rv_park', 'lodging', 'point_of_interest', 'establishment']","3499 East Bayshore Road, Redwood City",37.4870017,-122.1903556
6,"Menlo Park, California",rv_park,ChIJE-eHZBmjj4ARjpTOTod5Rw8,Redwood Mobile Estates,"['rv_park', 'lodging', 'point_of_interest', 'establishment']","2053 East Bayshore Road, Redwood City",37.487648,-122.2005669
7,"Menlo Park, California",rv_park,ChIJAVzd7k2ij4ARHkOqaM_7zn8,Shelter Development Corporation Inc,"['rv_park', 'lodging', 'point_of_interest', 'establishment']","600 Allerton Street, Redwood City",37.48944120000001,-122.2322348
8,"Menlo Park, California",rv_park,ChIJbbRvfxujj4ARZ_IESQpK7n4,R C Mobilehome Park,"['rv_park', 'lodging', 'point_of_interest', 'establishment']","1903 East Bayshore Road, Redwood City",37.4883229,-122.2057645
9,"Menlo Park, California",rv_park,ChIJl9vw3BCjj4ARSztipb4OgTo,Redwood Trailer Village,"['rv_park', 'lodging', 'point_of_interest', 'establishment']","855 Barron Avenue, Redwood City",37.48243799999999,-122.204171
10,"Menlo Park, California",rv_park,ChIJyQ9Mk6-wj4ARNyoJWlA_QxY,M P Central Park Associates LLC,"['rv_park', 'lodging', 'point_of_interest', 'establishment']","111 Montebello Avenue # 101, Mountain View",37.4039671,-122.0936401
0,"Palo Alto, California",rv_park,ChIJXePDbxGjj4ARWBqBjD9Rb-0,Sequoia Trailer Park,"['rv_park', 'lodging', 'point_of_interest', 'establishment']","730 Barron Avenue, Redwood City",37.479995,-122.205046
1,"Palo Alto, California",rv_park,ChIJc9kJlFe3j4ARH9aNLaokCbc,Santiago Villa,"['rv_park', 'lodging', 'point_of_interest', 'establishment']","1075 Space Park Way, Mountain View",37.4165135,-122.0694754
2,"Palo Alto, California",rv_park,ChIJoQLxUgq7j4ARwSoAiMdEyRA,Palo Mobile Estates,"['rv_park', 'lodging', 'point_of_interest', 'establishment']","1885 East Bayshore Road, East Palo Alto",37.455752,-122.1305596
3,"Palo Alto, California",rv_park,ChIJA-25TD2jj4ARfrY984K2M2Y,Harbor Village Mobile Home Pk,"['rv_park', 'lodging', 'point_of_interest', 'establishment']","3015 East Bayshore Road, Redwood City",37.4875557,-122.1961585
4,"Palo Alto, California",rv_park,ChIJCTOiozyjj4ARlVkFu2U3Gjg,Trailer Villa,"['rv_park', 'lodging', 'point_of_interest', 'establishment']","3401 East Bayshore Road, Redwood City",37.4871687,-122.1919875
5,"Palo Alto, California",rv_park,ChIJabiv-4m6j4ARSFV3hdsGNwY,Buena Vista Mobile Home Park,"['rv_park', 'lodging', 'point_of_interest', 'establishment']","3980 El Camino Real, Palo Alto",37.41510459999999,-122.1294727
6,"Palo Alto, California",rv_park,ChIJ4Ycs0R-3j4AR2NiQGTxXSMA,New Frontier Mobile Home Park,"['rv_park', 'lodging', 'point_of_interest', 'establishment']","325 Sylvan Avenue, Mountain View",37.3849099,-122.0585372
7,"Palo Alto, California",rv_park,ChIJhaLzs0m3j4ARgYr4PmZthJg,Moffett Mobilehome Park,"['rv_park', 'lodging', 'point_of_interest', 'establishment']","440 Moffett Boulevard, Mountain View",37.4000973,-122.0739723
8,"Palo Alto, California",rv_park,ChIJzy54P-C2j4ARhMWgmpWtdNU,Sunset Estates Mobile Home Pk,"['rv_park', 'lodging', 'point_of_interest', 'establishment']","433 Sylvan Avenue, Mountain View",37.3839273,-122.059859
9,"Palo Alto, California",rv_park,ChIJlfckbDujj4ARzDj0ebDTFh8,Bayshore Villa,"['rv_park', 'lodging', 'point_of_interest', 'establishment']","3499 East Bayshore Road, Redwood City",37.4870017,-122.1903556
10,"Palo Alto, California",rv_park,ChIJE-eHZBmjj4ARjpTOTod5Rw8,Redwood Mobile Estates,"['rv_park', 'lodging', 'point_of_interest', 'establishment']","2053 East Bayshore Road, Redwood City",37.487648,-122.2005669
11,"Palo Alto, California",rv_park,ChIJyQ9Mk6-wj4ARNyoJWlA_QxY,M P Central Park Associates LLC,"['rv_park', 'lodging', 'point_of_interest', 'establishment']","111 Montebello Avenue # 101, Mountain View",37.4039671,-122.0936401
12,"Palo Alto, California",rv_park,ChIJbbRvfxujj4ARZ_IESQpK7n4,R C Mobilehome Park,"['rv_park', 'lodging', 'point_of_interest', 'establishment']","1903 East Bayshore Road, Redwood City",37.4883229,-122.2057645
13,"Palo Alto, California",rv_park,ChIJl9vw3BCjj4ARSztipb4OgTo,Redwood Trailer Village,"['rv_park', 'lodging', 'point_of_interest', 'establishment']","855 Barron Avenue, Redwood City",37.48243799999999,-122.204171
14,"Palo Alto, California",rv_park,ChIJsbG-kdm2j4ARkhpNfUPoFb0,Sahara Mobile Village,"['rv_park', 'lodging', 'point_of_interest', 'establishment']","191 East El Camino Real, Mountain View",37.3785654,-122.069854
15,"Palo Alto, California",rv_park,ChIJAVzd7k2ij4ARHkOqaM_7zn8,Shelter Development Corporation Inc,"['rv_park', 'lodging', 'point_of_interest', 'establishment']","600 Allerton Street, Redwood City",37.48944120000001,-122.2322348
16,"Palo Alto, California",rv_park,ChIJCRGDRt-2j4ARwbH-S7BxFFY,Moorpark Mobile Homes,"['rv_park', 'lodging', 'point_of_interest', 'establishment']","501 Moorpark Way, Mountain View",37.3815779,-122.0657658
0,"Mountain View, California",rv_park,ChIJc9kJlFe3j4ARH9aNLaokCbc,Santiago Villa,"['rv_park', 'lodging', 'point_of_interest', 'establishment']","1075 Space Park Way, Mountain View",37.4165135,-122.0694754
1,"Mountain View, California",rv_park,ChIJ19AmQtO3j4ARBbgbh8bctyY,Casa De Amigos Mobile Park,"['rv_park', 'lodging', 'point_of_interest', 'establishment']","1085 Tasman Drive, Sunnyvale",37.4057121,-121.9988719
2,"Mountain View, California",rv_park,ChIJ4Ycs0R-3j4AR2NiQGTxXSMA,New Frontier Mobile Home Park,"['rv_park', 'lodging', 'point_of_interest', 'establishment']","325 Sylvan Avenue, Mountain View",37.3849099,-122.0585372
3,"Mountain View, California",rv_park,ChIJy-Ivk863j4ARFWgtnjAuYM0,Fox Hollow Mobile Home Community,"['rv_park', 'lodging', 'point_of_interest', 'establishment']","690 Persian Drive, Sunnyvale",37.405851,-122.007954
4,"Mountain View, California",rv_park,ChIJzy54P-C2j4ARhMWgmpWtdNU,Sunset Estates Mobile Home Pk,"['rv_park', 'lodging', 'point_of_interest', 'establishment']","433 Sylvan Avenue, Mountain View",37.3839273,-122.059859
5,"Mountain View, California",rv_park,ChIJbc5dksy3j4AR0yskvTDXtbg,El Dorado Mobile Home Park,"['rv_park', 'lodging', 'point_of_interest', 'establishment']","600 East Weddell Drive, Sunnyvale",37.3998136,-122.0105095
6,"Mountain View, California",rv_park,ChIJrydalzW2j4AR-SF4V0R6hp4,VRENT - Fairoaks Mobile Lodge,"['rv_park', 'lodging', 'point_of_interest', 'establishment']","580 Ahwanee Avenue, Sunnyvale",37.395001,-122.015132
7,"Mountain View, California",rv_park,ChIJg-8xHee1j4ARopr4Cl89Ql0,ALOHA Mobile Home Park,"['rv_park', 'lodging', 'point_of_interest', 'establishment']","915 East El Camino Real, Sunnyvale",37.35346069999999,-122.0128953
8,"Mountain View, California",rv_park,ChIJ8RNrU7G3j4ARk1wk5kaytio,Cape Cod Village,"['rv_park', 'lodging', 'point_of_interest', 'establishment']","1050 Borregas Avenue, Sunnyvale",37.40057609999999,-122.0212928
9,"Mountain View, California",rv_park,ChIJKX3GbdXJj4AR1d3fc_gedTA,Adobe Wells,"['rv_park', 'lodging', 'point_of_interest', 'establishment']","1220 Tasman Drive, Sunnyvale",37.4017103,-121.99333
10,"Mountain View, California",rv_park,ChIJI8Q5sPq1j4ARKuOWhTNI66Y,Rancho La Mesa,"['rv_park', 'lodging', 'point_of_interest', 'establishment']","1201 Sycamore Terrace, Sunnyvale",37.3544024,-122.0028495
11,"Mountain View, California",rv_park,ChIJoQLxUgq7j4ARwSoAiMdEyRA,Palo Mobile Estates,"['rv_park', 'lodging', 'point_of_interest', 'establishment']","1885 East Bayshore Road, East Palo Alto",37.455752,-122.1305596
12,"Mountain View, California",rv_park,ChIJoTiH4sm3j4ARSh1sWRy8rlc,Willow Ranch,"['rv_park', 'lodging', 'point_of_interest', 'establishment']","1111 Morse Avenue, Sunnyvale",37.4036586,-122.0175681
13,"Mountain View, California",rv_park,ChIJabiv-4m6j4ARSFV3hdsGNwY,Buena Vista Mobile Home Park,"['rv_park', 'lodging', 'point_of_interest', 'establishment']","3980 El Camino Real, Palo Alto",37.41510459999999,-122.1294727
14,"Mountain View, California",rv_park,ChIJhaLzs0m3j4ARgYr4PmZthJg,Moffett Mobilehome Park,"['rv_park', 'lodging', 'point_of_interest', 'establishment']","440 Moffett Boulevard, Mountain View",37.4000973,-122.0739723
15,"Mountain View, California",rv_park,ChIJsbG-kdm2j4ARkhpNfUPoFb0,Sahara Mobile Village,"['rv_park', 'lodging', 'point_of_interest', 'establishment']","191 East El Camino Real, Mountain View",37.3785654,-122.069854
16,"Mountain View, California",rv_park,ChIJCRGDRt-2j4ARwbH-S7BxFFY,Moorpark Mobile Homes,"['rv_park', 'lodging', 'point_of_interest', 'establishment']","501 Moorpark Way, Mountain View",37.3815779,-122.0657658
17,"Mountain View, California",rv_park,ChIJyQ9Mk6-wj4ARNyoJWlA_QxY,M P Central Park Associates LLC,"['rv_park', 'lodging', 'point_of_interest', 'establishment']","111 Montebello Avenue # 101, Mountain View",37.4039671,-122.0936401
18,"Mountain View, California",rv_park,ChIJc5y8Bfy2j4ARelCwkiICE3g,Mary Manor estates,"['rv_park', 'lodging', 'point_of_interest', 'establishment']","125 North Mary Avenue, Sunnyvale",37.3844362,-122.0445697
19,"Mountain View, California",rv_park,ChIJqXPxUB62j4ARitDsI1isjnc,ECI Mobile Inc,"['rv_park', 'lodging', 'point_of_interest', 'establishment']","510 Lawrence Expressway # 107, Sunnyvale",37.3817313,-121.9953398
20,"Mountain View, California",rv_park,ChIJc9kJlFe3j4ARH9aNLaokCbc,Santiago Villa,"['rv_park', 'lodging', 'point_of_interest', 'establishment']","1075 Space Park Way, Mountain View",37.4165135,-122.0694754
21,"Mountain View, California",rv_park,ChIJ19AmQtO3j4ARBbgbh8bctyY,Casa De Amigos Mobile Park,"['rv_park', 'lodging', 'point_of_interest', 'establishment']","1085 Tasman Drive, Sunnyvale",37.4057121,-121.9988719
22,"Mountain View, California",rv_park,ChIJ4Ycs0R-3j4AR2NiQGTxXSMA,New Frontier Mobile Home Park,"['rv_park', 'lodging', 'point_of_interest', 'establishment']","325 Sylvan Avenue, Mountain View",37.3849099,-122.0585372
23,"Mountain View, California",rv_park,ChIJy-Ivk863j4ARFWgtnjAuYM0,Fox Hollow Mobile Home Community,"['rv_park', 'lodging', 'point_of_interest', 'establishment']","690 Persian Drive, Sunnyvale",37.405851,-122.007954
24,"Mountain View, California",rv_park,ChIJzy54P-C2j4ARhMWgmpWtdNU,Sunset Estates Mobile Home Pk,"['rv_park', 'lodging', 'point_of_interest', 'establishment']","433 Sylvan Avenue, Mountain View",37.3839273,-122.059859
25,"Mountain View, California",rv_park,ChIJbc5dksy3j4AR0yskvTDXtbg,El Dorado Mobile Home Park,"['rv_park', 'lodging', 'point_of_interest', 'establishment']","600 East Weddell Drive, Sunnyvale",37.3998136,-122.0105095
26,"Mountain View, California",rv_park,ChIJrydalzW2j4AR-SF4V0R6hp4,VRENT - Fairoaks Mobile Lodge,"['rv_park', 'lodging', 'point_of_interest', 'establishment']","580 Ahwanee Avenue, Sunnyvale",37.395001,-122.015132
27,"Mountain View, California",rv_park,ChIJg-8xHee1j4ARopr4Cl89Ql0,ALOHA Mobile Home Park,"['rv_park', 'lodging', 'point_of_interest', 'establishment']","915 East El Camino Real, Sunnyvale",37.35346069999999,-122.0128953
28,"Mountain View, California",rv_park,ChIJ8RNrU7G3j4ARk1wk5kaytio,Cape Cod Village,"['rv_park', 'lodging', 'point_of_interest', 'establishment']","1050 Borregas Avenue, Sunnyvale",37.40057609999999,-122.0212928
29,"Mountain View, California",rv_park,ChIJKX3GbdXJj4AR1d3fc_gedTA,Adobe Wells,"['rv_park', 'lodging', 'point_of_interest', 'establishment']","1220 Tasman Drive, Sunnyvale",37.4017103,-121.99333
30,"Mountain View, California",rv_park,ChIJI8Q5sPq1j4ARKuOWhTNI66Y,Rancho La Mesa,"['rv_park', 'lodging', 'point_of_interest', 'establishment']","1201 Sycamore Terrace, Sunnyvale",37.3544024,-122.0028495
31,"Mountain View, California",rv_park,ChIJoQLxUgq7j4ARwSoAiMdEyRA,Palo Mobile Estates,"['rv_park', 'lodging', 'point_of_interest', 'establishment']","1885 East Bayshore Road, East Palo Alto",37.455752,-122.1305596
32,"Mountain View, California",rv_park,ChIJoTiH4sm3j4ARSh1sWRy8rlc,Willow Ranch,"['rv_park', 'lodging', 'point_of_interest', 'establishment']","1111 Morse Avenue, Sunnyvale",37.4036586,-122.0175681
33,"Mountain View, California",rv_park,ChIJabiv-4m6j4ARSFV3hdsGNwY,Buena Vista Mobile Home Park,"['rv_park', 'lodging', 'point_of_interest', 'establishment']","3980 El Camino Real, Palo Alto",37.41510459999999,-122.1294727
34,"Mountain View, California",rv_park,ChIJhaLzs0m3j4ARgYr4PmZthJg,Moffett Mobilehome Park,"['rv_park', 'lodging', 'point_of_interest', 'establishment']","440 Moffett Boulevard, Mountain View",37.4000973,-122.0739723
35,"Mountain View, California",rv_park,ChIJsbG-kdm2j4ARkhpNfUPoFb0,Sahara Mobile Village,"['rv_park', 'lodging', 'point_of_interest', 'establishment']","191 East El Camino Real, Mountain View",37.3785654,-122.069854
36,"Mountain View, California",rv_park,ChIJCRGDRt-2j4ARwbH-S7BxFFY,Moorpark Mobile Homes,"['rv_park', 'lodging', 'point_of_interest', 'establishment']","501 Moorpark Way, Mountain View",37.3815779,-122.0657658
37,"Mountain View, California",rv_park,ChIJyQ9Mk6-wj4ARNyoJWlA_QxY,M P Central Park Associates LLC,"['rv_park', 'lodging', 'point_of_interest', 'establishment']","111 Montebello Avenue # 101, Mountain View",37.4039671,-122.0936401
38,"Mountain View, California",rv_park,ChIJc5y8Bfy2j4ARelCwkiICE3g,Mary Manor estates,"['rv_park', 'lodging', 'point_of_interest', 'establishment']","125 North Mary Avenue, Sunnyvale",37.3844362,-122.0445697
39,"Mountain View, California",rv_park,ChIJqXPxUB62j4ARitDsI1isjnc,ECI Mobile Inc,"['rv_park', 'lodging', 'point_of_interest', 'establishment']","510 Lawrence Expressway # 107, Sunnyvale",37.3817313,-121.9953398
40,"Mountain View, California",rv_park,ChIJc9kJlFe3j4ARH9aNLaokCbc,Santiago Villa,"['rv_park', 'lodging', 'point_of_interest', 'establishment']","1075 Space Park Way, Mountain View",37.4165135,-122.0694754
41,"Mountain View, California",rv_park,ChIJ19AmQtO3j4ARBbgbh8bctyY,Casa De Amigos Mobile Park,"['rv_park', 'lodging', 'point_of_interest', 'establishment']","1085 Tasman Drive, Sunnyvale",37.4057121,-121.9988719
42,"Mountain View, California",rv_park,ChIJ4Ycs0R-3j4AR2NiQGTxXSMA,New Frontier Mobile Home Park,"['rv_park', 'lodging', 'point_of_interest', 'establishment']","325 Sylvan Avenue, Mountain View",37.3849099,-122.0585372
43,"Mountain View, California",rv_park,ChIJy-Ivk863j4ARFWgtnjAuYM0,Fox Hollow Mobile Home Community,"['rv_park', 'lodging', 'point_of_interest', 'establishment']","690 Persian Drive, Sunnyvale",37.405851,-122.007954
44,"Mountain View, California",rv_park,ChIJzy54P-C2j4ARhMWgmpWtdNU,Sunset Estates Mobile Home Pk,"['rv_park', 'lodging', 'point_of_interest', 'establishment']","433 Sylvan Avenue, Mountain View",37.3839273,-122.059859
45,"Mountain View, California",rv_park,ChIJbc5dksy3j4AR0yskvTDXtbg,El Dorado Mobile Home Park,"['rv_park', 'lodging', 'point_of_interest', 'establishment']","600 East Weddell Drive, Sunnyvale",37.3998136,-122.0105095
46,"Mountain View, California",rv_park,ChIJrydalzW2j4AR-SF4V0R6hp4,VRENT - Fairoaks Mobile Lodge,"['rv_park', 'lodging', 'point_of_interest', 'establishment']","580 Ahwanee Avenue, Sunnyvale",37.395001,-122.015132
47,"Mountain View, California",rv_park,ChIJg-8xHee1j4ARopr4Cl89Ql0,ALOHA Mobile Home Park,"['rv_park', 'lodging', 'point_of_interest', 'establishment']","915 East El Camino Real, Sunnyvale",37.35346069999999,-122.0128953
48,"Mountain View, California",rv_park,ChIJ8RNrU7G3j4ARk1wk5kaytio,Cape Cod Village,"['rv_park', 'lodging', 'point_of_interest', 'establishment']","1050 Borregas Avenue, Sunnyvale",37.40057609999999,-122.0212928
49,"Mountain View, California",rv_park,ChIJKX3GbdXJj4AR1d3fc_gedTA,Adobe Wells,"['rv_park', 'lodging', 'point_of_interest', 'establishment']","1220 Tasman Drive, Sunnyvale",37.4017103,-121.99333
50,"Mountain View, California",rv_park,ChIJI8Q5sPq1j4ARKuOWhTNI66Y,Rancho La Mesa,"['rv_park', 'lodging', 'point_of_interest', 'establishment']","1201 Sycamore Terrace, Sunnyvale",37.3544024,-122.0028495
51,"Mountain View, California",rv_park,ChIJoQLxUgq7j4ARwSoAiMdEyRA,Palo Mobile Estates,"['rv_park', 'lodging', 'point_of_interest', 'establishment']","1885 East Bayshore Road, East Palo Alto",37.455752,-122.1305596
52,"Mountain View, California",rv_park,ChIJoTiH4sm3j4ARSh1sWRy8rlc,Willow Ranch,"['rv_park', 'lodging', 'point_of_interest', 'establishment']","1111 Morse Avenue, Sunnyvale",37.4036586,-122.0175681
53,"Mountain View, California",rv_park,ChIJabiv-4m6j4ARSFV3hdsGNwY,Buena Vista Mobile Home Park,"['rv_park', 'lodging', 'point_of_interest', 'establishment']","3980 El Camino Real, Palo Alto",37.41510459999999,-122.1294727
54,"Mountain View, California",rv_park,ChIJhaLzs0m3j4ARgYr4PmZthJg,Moffett Mobilehome Park,"['rv_park', 'lodging', 'point_of_interest', 'establishment']","440 Moffett Boulevard, Mountain View",37.4000973,-122.0739723
55,"Mountain View, California",rv_park,ChIJsbG-kdm2j4ARkhpNfUPoFb0,Sahara Mobile Village,"['rv_park', 'lodging', 'point_of_interest', 'establishment']","191 East El Camino Real, Mountain View",37.3785654,-122.069854
56,"Mountain View, California",rv_park,ChIJCRGDRt-2j4ARwbH-S7BxFFY,Moorpark Mobile Homes,"['rv_park', 'lodging', 'point_of_interest', 'establishment']","501 Moorpark Way, Mountain View",37.3815779,-122.0657658
57,"Mountain View, California",rv_park,ChIJyQ9Mk6-wj4ARNyoJWlA_QxY,M P Central Park Associates LLC,"['rv_park', 'lodging', 'point_of_interest', 'establishment']","111 Montebello Avenue # 101, Mountain View",37.4039671,-122.0936401
58,"Mountain View, California",rv_park,ChIJc5y8Bfy2j4ARelCwkiICE3g,Mary Manor estates,"['rv_park', 'lodging', 'point_of_interest', 'establishment']","125 North Mary Avenue, Sunnyvale",37.3844362,-122.0445697
59,"Mountain View, California",rv_park,ChIJqXPxUB62j4ARitDsI1isjnc,ECI Mobile Inc,"['rv_park', 'lodging', 'point_of_interest', 'establishment']","510 Lawrence Expressway # 107, Sunnyvale",37.3817313,-121.9953398
60,"Mountain View, California",rv_park,ChIJc9kJlFe3j4ARH9aNLaokCbc,Santiago Villa,"['rv_park', 'lodging', 'point_of_interest', 'establishment']","1075 Space Park Way, Mountain View",37.4165135,-122.0694754
61,"Mountain View, California",rv_park,ChIJ19AmQtO3j4ARBbgbh8bctyY,Casa De Amigos Mobile Park,"['rv_park', 'lodging', 'point_of_interest', 'establishment']","1085 Tasman Drive, Sunnyvale",37.4057121,-121.9988719
62,"Mountain View, California",rv_park,ChIJ4Ycs0R-3j4AR2NiQGTxXSMA,New Frontier Mobile Home Park,"['rv_park', 'lodging', 'point_of_interest', 'establishment']","325 Sylvan Avenue, Mountain View",37.3849099,-122.0585372
63,"Mountain View, California",rv_park,ChIJy-Ivk863j4ARFWgtnjAuYM0,Fox Hollow Mobile Home Community,"['rv_park', 'lodging', 'point_of_interest', 'establishment']","690 Persian Drive, Sunnyvale",37.405851,-122.007954
64,"Mountain View, California",rv_park,ChIJzy54P-C2j4ARhMWgmpWtdNU,Sunset Estates Mobile Home Pk,"['rv_park', 'lodging', 'point_of_interest', 'establishment']","433 Sylvan Avenue, Mountain View",37.3839273,-122.059859
65,"Mountain View, California",rv_park,ChIJbc5dksy3j4AR0yskvTDXtbg,El Dorado Mobile Home Park,"['rv_park', 'lodging', 'point_of_interest', 'establishment']","600 East Weddell Drive, Sunnyvale",37.3998136,-122.0105095
66,"Mountain View, California",rv_park,ChIJrydalzW2j4AR-SF4V0R6hp4,VRENT - Fairoaks Mobile Lodge,"['rv_park', 'lodging', 'point_of_interest', 'establishment']","580 Ahwanee Avenue, Sunnyvale",37.395001,-122.015132
67,"Mountain View, California",rv_park,ChIJg-8xHee1j4ARopr4Cl89Ql0,ALOHA Mobile Home Park,"['rv_park', 'lodging', 'point_of_interest', 'establishment']","915 East El Camino Real, Sunnyvale",37.35346069999999,-122.0128953
68,"Mountain View, California",rv_park,ChIJ8RNrU7G3j4ARk1wk5kaytio,Cape Cod Village,"['rv_park', 'lodging', 'point_of_interest', 'establishment']","1050 Borregas Avenue, Sunnyvale",37.40057609999999,-122.0212928
69,"Mountain View, California",rv_park,ChIJKX3GbdXJj4AR1d3fc_gedTA,Adobe Wells,"['rv_park', 'lodging', 'point_of_interest', 'establishment']","1220 Tasman Drive, Sunnyvale",37.4017103,-121.99333
70,"Mountain View, California",rv_park,ChIJI8Q5sPq1j4ARKuOWhTNI66Y,Rancho La Mesa,"['rv_park', 'lodging', 'point_of_interest', 'establishment']","1201 Sycamore Terrace, Sunnyvale",37.3544024,-122.0028495
71,"Mountain View, California",rv_park,ChIJoQLxUgq7j4ARwSoAiMdEyRA,Palo Mobile Estates,"['rv_park', 'lodging', 'point_of_interest', 'establishment']","1885 East Bayshore Road, East Palo Alto",37.455752,-122.1305596
72,"Mountain View, California",rv_park,ChIJoTiH4sm3j4ARSh1sWRy8rlc,Willow Ranch,"['rv_park', 'lodging', 'point_of_interest', 'establishment']","1111 Morse Avenue, Sunnyvale",37.4036586,-122.0175681
73,"Mountain View, California",rv_park,ChIJabiv-4m6j4ARSFV3hdsGNwY,Buena Vista Mobile Home Park,"['rv_park', 'lodging', 'point_of_interest', 'establishment']","3980 El Camino Real, Palo Alto",37.41510459999999,-122.1294727
74,"Mountain View, California",rv_park,ChIJhaLzs0m3j4ARgYr4PmZthJg,Moffett Mobilehome Park,"['rv_park', 'lodging', 'point_of_interest', 'establishment']","440 Moffett Boulevard, Mountain View",37.4000973,-122.0739723
75,"Mountain View, California",rv_park,ChIJsbG-kdm2j4ARkhpNfUPoFb0,Sahara Mobile Village,"['rv_park', 'lodging', 'point_of_interest', 'establishment']","191 East El Camino Real, Mountain View",37.3785654,-122.069854
76,"Mountain View, California",rv_park,ChIJCRGDRt-2j4ARwbH-S7BxFFY,Moorpark Mobile Homes,"['rv_park', 'lodging', 'point_of_interest', 'establishment']","501 Moorpark Way, Mountain View",37.3815779,-122.0657658
77,"Mountain View, California",rv_park,ChIJyQ9Mk6-wj4ARNyoJWlA_QxY,M P Central Park Associates LLC,"['rv_park', 'lodging', 'point_of_interest', 'establishment']","111 Montebello Avenue # 101, Mountain View",37.4039671,-122.0936401
78,"Mountain View, California",rv_park,ChIJc5y8Bfy2j4ARelCwkiICE3g,Mary Manor estates,"['rv_park', 'lodging', 'point_of_interest', 'establishment']","125 North Mary Avenue, Sunnyvale",37.3844362,-122.0445697
79,"Mountain View, California",rv_park,ChIJqXPxUB62j4ARitDsI1isjnc,ECI Mobile Inc,"['rv_park', 'lodging', 'point_of_interest', 'establishment']","510 Lawrence Expressway # 107, Sunnyvale",37.3817313,-121.9953398
80,"Mountain View, California",rv_park,ChIJc9kJlFe3j4ARH9aNLaokCbc,Santiago Villa,"['rv_park', 'lodging', 'point_of_interest', 'establishment']","1075 Space Park Way, Mountain View",37.4165135,-122.0694754
81,"Mountain View, California",rv_park,ChIJ19AmQtO3j4ARBbgbh8bctyY,Casa De Amigos Mobile Park,"['rv_park', 'lodging', 'point_of_interest', 'establishment']","1085 Tasman Drive, Sunnyvale",37.4057121,-121.9988719
82,"Mountain View, California",rv_park,ChIJ4Ycs0R-3j4AR2NiQGTxXSMA,New Frontier Mobile Home Park,"['rv_park', 'lodging', 'point_of_interest', 'establishment']","325 Sylvan Avenue, Mountain View",37.3849099,-122.0585372
83,"Mountain View, California",rv_park,ChIJy-Ivk863j4ARFWgtnjAuYM0,Fox Hollow Mobile Home Community,"['rv_park', 'lodging', 'point_of_interest', 'establishment']","690 Persian Drive, Sunnyvale",37.405851,-122.007954
84,"Mountain View, California",rv_park,ChIJzy54P-C2j4ARhMWgmpWtdNU,Sunset Estates Mobile Home Pk,"['rv_park', 'lodging', 'point_of_interest', 'establishment']","433 Sylvan Avenue, Mountain View",37.3839273,-122.059859
85,"Mountain View, California",rv_park,ChIJbc5dksy3j4AR0yskvTDXtbg,El Dorado Mobile Home Park,"['rv_park', 'lodging', 'point_of_interest', 'establishment']","600 East Weddell Drive, Sunnyvale",37.3998136,-122.0105095
86,"Mountain View, California",rv_park,ChIJrydalzW2j4AR-SF4V0R6hp4,VRENT - Fairoaks Mobile Lodge,"['rv_park', 'lodging', 'point_of_interest', 'establishment']","580 Ahwanee Avenue, Sunnyvale",37.395001,-122.015132
87,"Mountain View, California",rv_park,ChIJg-8xHee1j4ARopr4Cl89Ql0,ALOHA Mobile Home Park,"['rv_park', 'lodging', 'point_of_interest', 'establishment']","915 East El Camino Real, Sunnyvale",37.35346069999999,-122.0128953
88,"Mountain View, California",rv_park,ChIJ8RNrU7G3j4ARk1wk5kaytio,Cape Cod Village,"['rv_park', 'lodging', 'point_of_interest', 'establishment']","1050 Borregas Avenue, Sunnyvale",37.40057609999999,-122.0212928
89,"Mountain View, California",rv_park,ChIJKX3GbdXJj4AR1d3fc_gedTA,Adobe Wells,"['rv_park', 'lodging', 'point_of_interest', 'establishment']","1220 Tasman Drive, Sunnyvale",37.4017103,-121.99333
90,"Mountain View, California",rv_park,ChIJI8Q5sPq1j4ARKuOWhTNI66Y,Rancho La Mesa,"['rv_park', 'lodging', 'point_of_interest', 'establishment']","1201 Sycamore Terrace, Sunnyvale",37.3544024,-122.0028495
91,"Mountain View, California",rv_park,ChIJoQLxUgq7j4ARwSoAiMdEyRA,Palo Mobile Estates,"['rv_park', 'lodging', 'point_of_interest', 'establishment']","1885 East Bayshore Road, East Palo Alto",37.455752,-122.1305596
92,"Mountain View, California",rv_park,ChIJoTiH4sm3j4ARSh1sWRy8rlc,Willow Ranch,"['rv_park', 'lodging', 'point_of_interest', 'establishment']","1111 Morse Avenue, Sunnyvale",37.4036586,-122.0175681
93,"Mountain View, California",rv_park,ChIJabiv-4m6j4ARSFV3hdsGNwY,Buena Vista Mobile Home Park,"['rv_park', 'lodging', 'point_of_interest', 'establishment']","3980 El Camino Real, Palo Alto",37.41510459999999,-122.1294727
94,"Mountain View, California",rv_park,ChIJhaLzs0m3j4ARgYr4PmZthJg,Moffett Mobilehome Park,"['rv_park', 'lodging', 'point_of_interest', 'establishment']","440 Moffett Boulevard, Mountain View",37.4000973,-122.0739723
95,"Mountain View, California",rv_park,ChIJsbG-kdm2j4ARkhpNfUPoFb0,Sahara Mobile Village,"['rv_park', 'lodging', 'point_of_interest', 'establishment']","191 East El Camino Real, Mountain View",37.3785654,-122.069854
96,"Mountain View, California",rv_park,ChIJCRGDRt-2j4ARwbH-S7BxFFY,Moorpark Mobile Homes,"['rv_park', 'lodging', 'point_of_interest', 'establishment']","501 Moorpark Way, Mountain View",37.3815779,-122.0657658
97,"Mountain View, California",rv_park,ChIJyQ9Mk6-wj4ARNyoJWlA_QxY,M P Central Park Associates LLC,"['rv_park', 'lodging', 'point_of_interest', 'establishment']","111 Montebello Avenue # 101, Mountain View",37.4039671,-122.0936401
98,"Mountain View, California",rv_park,ChIJc5y8Bfy2j4ARelCwkiICE3g,Mary Manor estates,"['rv_park', 'lodging', 'point_of_interest', 'establishment']","125 North Mary Avenue, Sunnyvale",37.3844362,-122.0445697
99,"Mountain View, California",rv_park,ChIJqXPxUB62j4ARitDsI1isjnc,ECI Mobile Inc,"['rv_park', 'lodging', 'point_of_interest', 'establishment']","510 Lawrence Expressway # 107, Sunnyvale",37.3817313,-121.9953398
0,"Los Altos, California",rv_park,ChIJc9kJlFe3j4ARH9aNLaokCbc,Santiago Villa,"['rv_park', 'lodging', 'point_of_interest', 'establishment']","1075 Space Park Way, Mountain View",37.4165135,-122.0694754
1,"Los Altos, California",rv_park,ChIJ4Ycs0R-3j4AR2NiQGTxXSMA,New Frontier Mobile Home Park,"['rv_park', 'lodging', 'point_of_interest', 'establishment']","325 Sylvan Avenue, Mountain View",37.3849099,-122.0585372
2,"Los Altos, California",rv_park,ChIJzy54P-C2j4ARhMWgmpWtdNU,Sunset Estates Mobile Home Pk,"['rv_park', 'lodging', 'point_of_interest', 'establishment']","433 Sylvan Avenue, Mountain View",37.3839273,-122.059859
3,"Los Altos, California",rv_park,ChIJoQLxUgq7j4ARwSoAiMdEyRA,Palo Mobile Estates,"['rv_park', 'lodging', 'point_of_interest', 'establishment']","1885 East Bayshore Road, East Palo Alto",37.455752,-122.1305596
4,"Los Altos, California",rv_park,ChIJrydalzW2j4AR-SF4V0R6hp4,VRENT - Fairoaks Mobile Lodge,"['rv_park', 'lodging', 'point_of_interest', 'establishment']","580 Ahwanee Avenue, Sunnyvale",37.395001,-122.015132
5,"Los Altos, California",rv_park,ChIJ8RNrU7G3j4ARk1wk5kaytio,Cape Cod Village,"['rv_park', 'lodging', 'point_of_interest', 'establishment']","1050 Borregas Avenue, Sunnyvale",37.40057609999999,-122.0212928
6,"Los Altos, California",rv_park,ChIJbc5dksy3j4AR0yskvTDXtbg,El Dorado Mobile Home Park,"['rv_park', 'lodging', 'point_of_interest', 'establishment']","600 East Weddell Drive, Sunnyvale",37.3998136,-122.0105095
7,"Los Altos, California",rv_park,ChIJabiv-4m6j4ARSFV3hdsGNwY,Buena Vista Mobile Home Park,"['rv_park', 'lodging', 'point_of_interest', 'establishment']","3980 El Camino Real, Palo Alto",37.41510459999999,-122.1294727
8,"Los Altos, California",rv_park,ChIJy-Ivk863j4ARFWgtnjAuYM0,Fox Hollow Mobile Home Community,"['rv_park', 'lodging', 'point_of_interest', 'establishment']","690 Persian Drive, Sunnyvale",37.405851,-122.007954
9,"Los Altos, California",rv_park,ChIJhaLzs0m3j4ARgYr4PmZthJg,Moffett Mobilehome Park,"['rv_park', 'lodging', 'point_of_interest', 'establishment']","440 Moffett Boulevard, Mountain View",37.4000973,-122.0739723
10,"Los Altos, California",rv_park,ChIJoTiH4sm3j4ARSh1sWRy8rlc,Willow Ranch,"['rv_park', 'lodging', 'point_of_interest', 'establishment']","1111 Morse Avenue, Sunnyvale",37.4036586,-122.0175681
11,"Los Altos, California",rv_park,ChIJg-8xHee1j4ARopr4Cl89Ql0,ALOHA Mobile Home Park,"['rv_park', 'lodging', 'point_of_interest', 'establishment']","915 East El Camino Real, Sunnyvale",37.35346069999999,-122.0128953
12,"Los Altos, California",rv_park,ChIJsbG-kdm2j4ARkhpNfUPoFb0,Sahara Mobile Village,"['rv_park', 'lodging', 'point_of_interest', 'establishment']","191 East El Camino Real, Mountain View",37.3785654,-122.069854
13,"Los Altos, California",rv_park,ChIJCRGDRt-2j4ARwbH-S7BxFFY,Moorpark Mobile Homes,"['rv_park', 'lodging', 'point_of_interest', 'establishment']","501 Moorpark Way, Mountain View",37.3815779,-122.0657658
14,"Los Altos, California",rv_park,ChIJyQ9Mk6-wj4ARNyoJWlA_QxY,M P Central Park Associates LLC,"['rv_park', 'lodging', 'point_of_interest', 'establishment']","111 Montebello Avenue # 101, Mountain View",37.4039671,-122.0936401
15,"Los Altos, California",rv_park,ChIJc5y8Bfy2j4ARelCwkiICE3g,Mary Manor estates,"['rv_park', 'lodging', 'point_of_interest', 'establishment']","125 North Mary Avenue, Sunnyvale",37.3844362,-122.0445697
0,"Sunnyvale, California",rv_park,ChIJ19AmQtO3j4ARBbgbh8bctyY,Casa De Amigos Mobile Park,"['rv_park', 'lodging', 'point_of_interest', 'establishment']","1085 Tasman Drive, Sunnyvale",37.4057121,-121.9988719
1,"Sunnyvale, California",rv_park,ChIJc9kJlFe3j4ARH9aNLaokCbc,Santiago Villa,"['rv_park', 'lodging', 'point_of_interest', 'establishment']","1075 Space Park Way, Mountain View",37.4165135,-122.0694754
2,"Sunnyvale, California",rv_park,ChIJ4Ycs0R-3j4AR2NiQGTxXSMA,New Frontier Mobile Home Park,"['rv_park', 'lodging', 'point_of_interest', 'establishment']","325 Sylvan Avenue, Mountain View",37.3849099,-122.0585372
3,"Sunnyvale, California",rv_park,ChIJy-Ivk863j4ARFWgtnjAuYM0,Fox Hollow Mobile Home Community,"['rv_park', 'lodging', 'point_of_interest', 'establishment']","690 Persian Drive, Sunnyvale",37.405851,-122.007954
4,"Sunnyvale, California",rv_park,ChIJbc5dksy3j4AR0yskvTDXtbg,El Dorado Mobile Home Park,"['rv_park', 'lodging', 'point_of_interest', 'establishment']","600 East Weddell Drive, Sunnyvale",37.3998136,-122.0105095
5,"Sunnyvale, California",rv_park,ChIJzy54P-C2j4ARhMWgmpWtdNU,Sunset Estates Mobile Home Pk,"['rv_park', 'lodging', 'point_of_interest', 'establishment']","433 Sylvan Avenue, Mountain View",37.3839273,-122.059859
6,"Sunnyvale, California",rv_park,ChIJrydalzW2j4AR-SF4V0R6hp4,VRENT - Fairoaks Mobile Lodge,"['rv_park', 'lodging', 'point_of_interest', 'establishment']","580 Ahwanee Avenue, Sunnyvale",37.395001,-122.015132
7,"Sunnyvale, California",rv_park,ChIJg-8xHee1j4ARopr4Cl89Ql0,ALOHA Mobile Home Park,"['rv_park', 'lodging', 'point_of_interest', 'establishment']","915 East El Camino Real, Sunnyvale",37.35346069999999,-122.0128953
8,"Sunnyvale, California",rv_park,ChIJKX3GbdXJj4AR1d3fc_gedTA,Adobe Wells,"['rv_park', 'lodging', 'point_of_interest', 'establishment']","1220 Tasman Drive, Sunnyvale",37.4017103,-121.99333
9,"Sunnyvale, California",rv_park,ChIJ8RNrU7G3j4ARk1wk5kaytio,Cape Cod Village,"['rv_park', 'lodging', 'point_of_interest', 'establishment']","1050 Borregas Avenue, Sunnyvale",37.40057609999999,-122.0212928
10,"Sunnyvale, California",rv_park,ChIJfWIt4gDJj4ARUYI6c4eBSkI,Westwinds,"['rv_park', 'lodging', 'point_of_interest', 'establishment']","500 Nicholson Lane, San Jose",37.415746,-121.9447398
11,"Sunnyvale, California",rv_park,ChIJI8Q5sPq1j4ARKuOWhTNI66Y,Rancho La Mesa,"['rv_park', 'lodging', 'point_of_interest', 'establishment']","1201 Sycamore Terrace, Sunnyvale",37.3544024,-122.0028495
12,"Sunnyvale, California",rv_park,ChIJoTiH4sm3j4ARSh1sWRy8rlc,Willow Ranch,"['rv_park', 'lodging', 'point_of_interest', 'establishment']","1111 Morse Avenue, Sunnyvale",37.4036586,-122.0175681
13,"Sunnyvale, California",rv_park,ChIJhaLzs0m3j4ARgYr4PmZthJg,Moffett Mobilehome Park,"['rv_park', 'lodging', 'point_of_interest', 'establishment']","440 Moffett Boulevard, Mountain View",37.4000973,-122.0739723
14,"Sunnyvale, California",rv_park,ChIJabiv-4m6j4ARSFV3hdsGNwY,Buena Vista Mobile Home Park,"['rv_park', 'lodging', 'point_of_interest', 'establishment']","3980 El Camino Real, Palo Alto",37.41510459999999,-122.1294727
15,"Sunnyvale, California",rv_park,ChIJsbG-kdm2j4ARkhpNfUPoFb0,Sahara Mobile Village,"['rv_park', 'lodging', 'point_of_interest', 'establishment']","191 East El Camino Real, Mountain View",37.3785654,-122.069854
16,"Sunnyvale, California",rv_park,ChIJo26K21LIj4ARX7qnOPLExQU,Lamplighter San Jose,"['rv_park', 'lodging', 'point_of_interest', 'establishment']","4201 North 1st Street, San Jose",37.4167275,-121.9608914
17,"Sunnyvale, California",rv_park,ChIJCRGDRt-2j4ARwbH-S7BxFFY,Moorpark Mobile Homes,"['rv_park', 'lodging', 'point_of_interest', 'establishment']","501 Moorpark Way, Mountain View",37.3815779,-122.0657658
18,"Sunnyvale, California",rv_park,ChIJyQ9Mk6-wj4ARNyoJWlA_QxY,M P Central Park Associates LLC,"['rv_park', 'lodging', 'point_of_interest', 'establishment']","111 Montebello Avenue # 101, Mountain View",37.4039671,-122.0936401
19,"Sunnyvale, California",rv_park,ChIJLwK7bz3Mj4ARHSNb9fJ0Wu4,Summerset Mobile Estates,"['rv_park', 'lodging', 'point_of_interest', 'establishment']","2052 Gold Street, Alviso",37.42119330000001,-121.9729606
20,"Sunnyvale, California",rv_park,ChIJ19AmQtO3j4ARBbgbh8bctyY,Casa De Amigos Mobile Park,"['rv_park', 'lodging', 'point_of_interest', 'establishment']","1085 Tasman Drive, Sunnyvale",37.4057121,-121.9988719
21,"Sunnyvale, California",rv_park,ChIJc9kJlFe3j4ARH9aNLaokCbc,Santiago Villa,"['rv_park', 'lodging', 'point_of_interest', 'establishment']","1075 Space Park Way, Mountain View",37.4165135,-122.0694754
22,"Sunnyvale, California",rv_park,ChIJ4Ycs0R-3j4AR2NiQGTxXSMA,New Frontier Mobile Home Park,"['rv_park', 'lodging', 'point_of_interest', 'establishment']","325 Sylvan Avenue, Mountain View",37.3849099,-122.0585372
23,"Sunnyvale, California",rv_park,ChIJy-Ivk863j4ARFWgtnjAuYM0,Fox Hollow Mobile Home Community,"['rv_park', 'lodging', 'point_of_interest', 'establishment']","690 Persian Drive, Sunnyvale",37.405851,-122.007954
24,"Sunnyvale, California",rv_park,ChIJbc5dksy3j4AR0yskvTDXtbg,El Dorado Mobile Home Park,"['rv_park', 'lodging', 'point_of_interest', 'establishment']","600 East Weddell Drive, Sunnyvale",37.3998136,-122.0105095
25,"Sunnyvale, California",rv_park,ChIJzy54P-C2j4ARhMWgmpWtdNU,Sunset Estates Mobile Home Pk,"['rv_park', 'lodging', 'point_of_interest', 'establishment']","433 Sylvan Avenue, Mountain View",37.3839273,-122.059859
26,"Sunnyvale, California",rv_park,ChIJrydalzW2j4AR-SF4V0R6hp4,VRENT - Fairoaks Mobile Lodge,"['rv_park', 'lodging', 'point_of_interest', 'establishment']","580 Ahwanee Avenue, Sunnyvale",37.395001,-122.015132
27,"Sunnyvale, California",rv_park,ChIJg-8xHee1j4ARopr4Cl89Ql0,ALOHA Mobile Home Park,"['rv_park', 'lodging', 'point_of_interest', 'establishment']","915 East El Camino Real, Sunnyvale",37.35346069999999,-122.0128953
28,"Sunnyvale, California",rv_park,ChIJKX3GbdXJj4AR1d3fc_gedTA,Adobe Wells,"['rv_park', 'lodging', 'point_of_interest', 'establishment']","1220 Tasman Drive, Sunnyvale",37.4017103,-121.99333
29,"Sunnyvale, California",rv_park,ChIJ8RNrU7G3j4ARk1wk5kaytio,Cape Cod Village,"['rv_park', 'lodging', 'point_of_interest', 'establishment']","1050 Borregas Avenue, Sunnyvale",37.40057609999999,-122.0212928
30,"Sunnyvale, California",rv_park,ChIJfWIt4gDJj4ARUYI6c4eBSkI,Westwinds,"['rv_park', 'lodging', 'point_of_interest', 'establishment']","500 Nicholson Lane, San Jose",37.415746,-121.9447398
31,"Sunnyvale, California",rv_park,ChIJI8Q5sPq1j4ARKuOWhTNI66Y,Rancho La Mesa,"['rv_park', 'lodging', 'point_of_interest', 'establishment']","1201 Sycamore Terrace, Sunnyvale",37.3544024,-122.0028495
32,"Sunnyvale, California",rv_park,ChIJoTiH4sm3j4ARSh1sWRy8rlc,Willow Ranch,"['rv_park', 'lodging', 'point_of_interest', 'establishment']","1111 Morse Avenue, Sunnyvale",37.4036586,-122.0175681
33,"Sunnyvale, California",rv_park,ChIJhaLzs0m3j4ARgYr4PmZthJg,Moffett Mobilehome Park,"['rv_park', 'lodging', 'point_of_interest', 'establishment']","440 Moffett Boulevard, Mountain View",37.4000973,-122.0739723
34,"Sunnyvale, California",rv_park,ChIJabiv-4m6j4ARSFV3hdsGNwY,Buena Vista Mobile Home Park,"['rv_park', 'lodging', 'point_of_interest', 'establishment']","3980 El Camino Real, Palo Alto",37.41510459999999,-122.1294727
35,"Sunnyvale, California",rv_park,ChIJsbG-kdm2j4ARkhpNfUPoFb0,Sahara Mobile Village,"['rv_park', 'lodging', 'point_of_interest', 'establishment']","191 East El Camino Real, Mountain View",37.3785654,-122.069854
36,"Sunnyvale, California",rv_park,ChIJo26K21LIj4ARX7qnOPLExQU,Lamplighter San Jose,"['rv_park', 'lodging', 'point_of_interest', 'establishment']","4201 North 1st Street, San Jose",37.4167275,-121.9608914
37,"Sunnyvale, California",rv_park,ChIJCRGDRt-2j4ARwbH-S7BxFFY,Moorpark Mobile Homes,"['rv_park', 'lodging', 'point_of_interest', 'establishment']","501 Moorpark Way, Mountain View",37.3815779,-122.0657658
38,"Sunnyvale, California",rv_park,ChIJyQ9Mk6-wj4ARNyoJWlA_QxY,M P Central Park Associates LLC,"['rv_park', 'lodging', 'point_of_interest', 'establishment']","111 Montebello Avenue # 101, Mountain View",37.4039671,-122.0936401
39,"Sunnyvale, California",rv_park,ChIJLwK7bz3Mj4ARHSNb9fJ0Wu4,Summerset Mobile Estates,"['rv_park', 'lodging', 'point_of_interest', 'establishment']","2052 Gold Street, Alviso",37.42119330000001,-121.9729606
40,"Sunnyvale, California",rv_park,ChIJ19AmQtO3j4ARBbgbh8bctyY,Casa De Amigos Mobile Park,"['rv_park', 'lodging', 'point_of_interest', 'establishment']","1085 Tasman Drive, Sunnyvale",37.4057121,-121.9988719
41,"Sunnyvale, California",rv_park,ChIJc9kJlFe3j4ARH9aNLaokCbc,Santiago Villa,"['rv_park', 'lodging', 'point_of_interest', 'establishment']","1075 Space Park Way, Mountain View",37.4165135,-122.0694754
42,"Sunnyvale, California",rv_park,ChIJ4Ycs0R-3j4AR2NiQGTxXSMA,New Frontier Mobile Home Park,"['rv_park', 'lodging', 'point_of_interest', 'establishment']","325 Sylvan Avenue, Mountain View",37.3849099,-122.0585372
43,"Sunnyvale, California",rv_park,ChIJy-Ivk863j4ARFWgtnjAuYM0,Fox Hollow Mobile Home Community,"['rv_park', 'lodging', 'point_of_interest', 'establishment']","690 Persian Drive, Sunnyvale",37.405851,-122.007954
44,"Sunnyvale, California",rv_park,ChIJbc5dksy3j4AR0yskvTDXtbg,El Dorado Mobile Home Park,"['rv_park', 'lodging', 'point_of_interest', 'establishment']","600 East Weddell Drive, Sunnyvale",37.3998136,-122.0105095
45,"Sunnyvale, California",rv_park,ChIJzy54P-C2j4ARhMWgmpWtdNU,Sunset Estates Mobile Home Pk,"['rv_park', 'lodging', 'point_of_interest', 'establishment']","433 Sylvan Avenue, Mountain View",37.3839273,-122.059859
46,"Sunnyvale, California",rv_park,ChIJrydalzW2j4AR-SF4V0R6hp4,VRENT - Fairoaks Mobile Lodge,"['rv_park', 'lodging', 'point_of_interest', 'establishment']","580 Ahwanee Avenue, Sunnyvale",37.395001,-122.015132
47,"Sunnyvale, California",rv_park,ChIJg-8xHee1j4ARopr4Cl89Ql0,ALOHA Mobile Home Park,"['rv_park', 'lodging', 'point_of_interest', 'establishment']","915 East El Camino Real, Sunnyvale",37.35346069999999,-122.0128953
48,"Sunnyvale, California",rv_park,ChIJKX3GbdXJj4AR1d3fc_gedTA,Adobe Wells,"['rv_park', 'lodging', 'point_of_interest', 'establishment']","1220 Tasman Drive, Sunnyvale",37.4017103,-121.99333
49,"Sunnyvale, California",rv_park,ChIJ8RNrU7G3j4ARk1wk5kaytio,Cape Cod Village,"['rv_park', 'lodging', 'point_of_interest', 'establishment']","1050 Borregas Avenue, Sunnyvale",37.40057609999999,-122.0212928
50,"Sunnyvale, California",rv_park,ChIJfWIt4gDJj4ARUYI6c4eBSkI,Westwinds,"['rv_park', 'lodging', 'point_of_interest', 'establishment']","500 Nicholson Lane, San Jose",37.415746,-121.9447398
51,"Sunnyvale, California",rv_park,ChIJI8Q5sPq1j4ARKuOWhTNI66Y,Rancho La Mesa,"['rv_park', 'lodging', 'point_of_interest', 'establishment']","1201 Sycamore Terrace, Sunnyvale",37.3544024,-122.0028495
52,"Sunnyvale, California",rv_park,ChIJoTiH4sm3j4ARSh1sWRy8rlc,Willow Ranch,"['rv_park', 'lodging', 'point_of_interest', 'establishment']","1111 Morse Avenue, Sunnyvale",37.4036586,-122.0175681
53,"Sunnyvale, California",rv_park,ChIJhaLzs0m3j4ARgYr4PmZthJg,Moffett Mobilehome Park,"['rv_park', 'lodging', 'point_of_interest', 'establishment']","440 Moffett Boulevard, Mountain View",37.4000973,-122.0739723
54,"Sunnyvale, California",rv_park,ChIJabiv-4m6j4ARSFV3hdsGNwY,Buena Vista Mobile Home Park,"['rv_park', 'lodging', 'point_of_interest', 'establishment']","3980 El Camino Real, Palo Alto",37.41510459999999,-122.1294727
55,"Sunnyvale, California",rv_park,ChIJsbG-kdm2j4ARkhpNfUPoFb0,Sahara Mobile Village,"['rv_park', 'lodging', 'point_of_interest', 'establishment']","191 East El Camino Real, Mountain View",37.3785654,-122.069854
56,"Sunnyvale, California",rv_park,ChIJo26K21LIj4ARX7qnOPLExQU,Lamplighter San Jose,"['rv_park', 'lodging', 'point_of_interest', 'establishment']","4201 North 1st Street, San Jose",37.4167275,-121.9608914
57,"Sunnyvale, California",rv_park,ChIJCRGDRt-2j4ARwbH-S7BxFFY,Moorpark Mobile Homes,"['rv_park', 'lodging', 'point_of_interest', 'establishment']","501 Moorpark Way, Mountain View",37.3815779,-122.0657658
58,"Sunnyvale, California",rv_park,ChIJyQ9Mk6-wj4ARNyoJWlA_QxY,M P Central Park Associates LLC,"['rv_park', 'lodging', 'point_of_interest', 'establishment']","111 Montebello Avenue # 101, Mountain View",37.4039671,-122.0936401
59,"Sunnyvale, California",rv_park,ChIJLwK7bz3Mj4ARHSNb9fJ0Wu4,Summerset Mobile Estates,"['rv_park', 'lodging', 'point_of_interest', 'establishment']","2052 Gold Street, Alviso",37.42119330000001,-121.9729606
60,"Sunnyvale, California",rv_park,ChIJ19AmQtO3j4ARBbgbh8bctyY,Casa De Amigos Mobile Park,"['rv_park', 'lodging', 'point_of_interest', 'establishment']","1085 Tasman Drive, Sunnyvale",37.4057121,-121.9988719
61,"Sunnyvale, California",rv_park,ChIJc9kJlFe3j4ARH9aNLaokCbc,Santiago Villa,"['rv_park', 'lodging', 'point_of_interest', 'establishment']","1075 Space Park Way, Mountain View",37.4165135,-122.0694754
62,"Sunnyvale, California",rv_park,ChIJ4Ycs0R-3j4AR2NiQGTxXSMA,New Frontier Mobile Home Park,"['rv_park', 'lodging', 'point_of_interest', 'establishment']","325 Sylvan Avenue, Mountain View",37.3849099,-122.0585372
63,"Sunnyvale, California",rv_park,ChIJy-Ivk863j4ARFWgtnjAuYM0,Fox Hollow Mobile Home Community,"['rv_park', 'lodging', 'point_of_interest', 'establishment']","690 Persian Drive, Sunnyvale",37.405851,-122.007954
64,"Sunnyvale, California",rv_park,ChIJbc5dksy3j4AR0yskvTDXtbg,El Dorado Mobile Home Park,"['rv_park', 'lodging', 'point_of_interest', 'establishment']","600 East Weddell Drive, Sunnyvale",37.3998136,-122.0105095
65,"Sunnyvale, California",rv_park,ChIJzy54P-C2j4ARhMWgmpWtdNU,Sunset Estates Mobile Home Pk,"['rv_park', 'lodging', 'point_of_interest', 'establishment']","433 Sylvan Avenue, Mountain View",37.3839273,-122.059859
66,"Sunnyvale, California",rv_park,ChIJrydalzW2j4AR-SF4V0R6hp4,VRENT - Fairoaks Mobile Lodge,"['rv_park', 'lodging', 'point_of_interest', 'establishment']","580 Ahwanee Avenue, Sunnyvale",37.395001,-122.015132
67,"Sunnyvale, California",rv_park,ChIJg-8xHee1j4ARopr4Cl89Ql0,ALOHA Mobile Home Park,"['rv_park', 'lodging', 'point_of_interest', 'establishment']","915 East El Camino Real, Sunnyvale",37.35346069999999,-122.0128953
68,"Sunnyvale, California",rv_park,ChIJKX3GbdXJj4AR1d3fc_gedTA,Adobe Wells,"['rv_park', 'lodging', 'point_of_interest', 'establishment']","1220 Tasman Drive, Sunnyvale",37.4017103,-121.99333
69,"Sunnyvale, California",rv_park,ChIJ8RNrU7G3j4ARk1wk5kaytio,Cape Cod Village,"['rv_park', 'lodging', 'point_of_interest', 'establishment']","1050 Borregas Avenue, Sunnyvale",37.40057609999999,-122.0212928
70,"Sunnyvale, California",rv_park,ChIJfWIt4gDJj4ARUYI6c4eBSkI,Westwinds,"['rv_park', 'lodging', 'point_of_interest', 'establishment']","500 Nicholson Lane, San Jose",37.415746,-121.9447398
71,"Sunnyvale, California",rv_park,ChIJI8Q5sPq1j4ARKuOWhTNI66Y,Rancho La Mesa,"['rv_park', 'lodging', 'point_of_interest', 'establishment']","1201 Sycamore Terrace, Sunnyvale",37.3544024,-122.0028495
72,"Sunnyvale, California",rv_park,ChIJoTiH4sm3j4ARSh1sWRy8rlc,Willow Ranch,"['rv_park', 'lodging', 'point_of_interest', 'establishment']","1111 Morse Avenue, Sunnyvale",37.4036586,-122.0175681
73,"Sunnyvale, California",rv_park,ChIJhaLzs0m3j4ARgYr4PmZthJg,Moffett Mobilehome Park,"['rv_park', 'lodging', 'point_of_interest', 'establishment']","440 Moffett Boulevard, Mountain View",37.4000973,-122.0739723
74,"Sunnyvale, California",rv_park,ChIJabiv-4m6j4ARSFV3hdsGNwY,Buena Vista Mobile Home Park,"['rv_park', 'lodging', 'point_of_interest', 'establishment']","3980 El Camino Real, Palo Alto",37.41510459999999,-122.1294727
75,"Sunnyvale, California",rv_park,ChIJsbG-kdm2j4ARkhpNfUPoFb0,Sahara Mobile Village,"['rv_park', 'lodging', 'point_of_interest', 'establishment']","191 East El Camino Real, Mountain View",37.3785654,-122.069854
76,"Sunnyvale, California",rv_park,ChIJo26K21LIj4ARX7qnOPLExQU,Lamplighter San Jose,"['rv_park', 'lodging', 'point_of_interest', 'establishment']","4201 North 1st Street, San Jose",37.4167275,-121.9608914
77,"Sunnyvale, California",rv_park,ChIJCRGDRt-2j4ARwbH-S7BxFFY,Moorpark Mobile Homes,"['rv_park', 'lodging', 'point_of_interest', 'establishment']","501 Moorpark Way, Mountain View",37.3815779,-122.0657658
78,"Sunnyvale, California",rv_park,ChIJyQ9Mk6-wj4ARNyoJWlA_QxY,M P Central Park Associates LLC,"['rv_park', 'lodging', 'point_of_interest', 'establishment']","111 Montebello Avenue # 101, Mountain View",37.4039671,-122.0936401
79,"Sunnyvale, California",rv_park,ChIJLwK7bz3Mj4ARHSNb9fJ0Wu4,Summerset Mobile Estates,"['rv_park', 'lodging', 'point_of_interest', 'establishment']","2052 Gold Street, Alviso",37.42119330000001,-121.9729606
80,"Sunnyvale, California",rv_park,ChIJ19AmQtO3j4ARBbgbh8bctyY,Casa De Amigos Mobile Park,"['rv_park', 'lodging', 'point_of_interest', 'establishment']","1085 Tasman Drive, Sunnyvale",37.4057121,-121.9988719
81,"Sunnyvale, California",rv_park,ChIJc9kJlFe3j4ARH9aNLaokCbc,Santiago Villa,"['rv_park', 'lodging', 'point_of_interest', 'establishment']","1075 Space Park Way, Mountain View",37.4165135,-122.0694754
82,"Sunnyvale, California",rv_park,ChIJ4Ycs0R-3j4AR2NiQGTxXSMA,New Frontier Mobile Home Park,"['rv_park', 'lodging', 'point_of_interest', 'establishment']","325 Sylvan Avenue, Mountain View",37.3849099,-122.0585372
83,"Sunnyvale, California",rv_park,ChIJy-Ivk863j4ARFWgtnjAuYM0,Fox Hollow Mobile Home Community,"['rv_park', 'lodging', 'point_of_interest', 'establishment']","690 Persian Drive, Sunnyvale",37.405851,-122.007954
84,"Sunnyvale, California",rv_park,ChIJbc5dksy3j4AR0yskvTDXtbg,El Dorado Mobile Home Park,"['rv_park', 'lodging', 'point_of_interest', 'establishment']","600 East Weddell Drive, Sunnyvale",37.3998136,-122.0105095
85,"Sunnyvale, California",rv_park,ChIJzy54P-C2j4ARhMWgmpWtdNU,Sunset Estates Mobile Home Pk,"['rv_park', 'lodging', 'point_of_interest', 'establishment']","433 Sylvan Avenue, Mountain View",37.3839273,-122.059859
86,"Sunnyvale, California",rv_park,ChIJrydalzW2j4AR-SF4V0R6hp4,VRENT - Fairoaks Mobile Lodge,"['rv_park', 'lodging', 'point_of_interest', 'establishment']","580 Ahwanee Avenue, Sunnyvale",37.395001,-122.015132
87,"Sunnyvale, California",rv_park,ChIJg-8xHee1j4ARopr4Cl89Ql0,ALOHA Mobile Home Park,"['rv_park', 'lodging', 'point_of_interest', 'establishment']","915 East El Camino Real, Sunnyvale",37.35346069999999,-122.0128953
88,"Sunnyvale, California",rv_park,ChIJKX3GbdXJj4AR1d3fc_gedTA,Adobe Wells,"['rv_park', 'lodging', 'point_of_interest', 'establishment']","1220 Tasman Drive, Sunnyvale",37.4017103,-121.99333
89,"Sunnyvale, California",rv_park,ChIJ8RNrU7G3j4ARk1wk5kaytio,Cape Cod Village,"['rv_park', 'lodging', 'point_of_interest', 'establishment']","1050 Borregas Avenue, Sunnyvale",37.40057609999999,-122.0212928
90,"Sunnyvale, California",rv_park,ChIJfWIt4gDJj4ARUYI6c4eBSkI,Westwinds,"['rv_park', 'lodging', 'point_of_interest', 'establishment']","500 Nicholson Lane, San Jose",37.415746,-121.9447398
91,"Sunnyvale, California",rv_park,ChIJI8Q5sPq1j4ARKuOWhTNI66Y,Rancho La Mesa,"['rv_park', 'lodging', 'point_of_interest', 'establishment']","1201 Sycamore Terrace, Sunnyvale",37.3544024,-122.0028495
92,"Sunnyvale, California",rv_park,ChIJoTiH4sm3j4ARSh1sWRy8rlc,Willow Ranch,"['rv_park', 'lodging', 'point_of_interest', 'establishment']","1111 Morse Avenue, Sunnyvale",37.4036586,-122.0175681
93,"Sunnyvale, California",rv_park,ChIJhaLzs0m3j4ARgYr4PmZthJg,Moffett Mobilehome Park,"['rv_park', 'lodging', 'point_of_interest', 'establishment']","440 Moffett Boulevard, Mountain View",37.4000973,-122.0739723
94,"Sunnyvale, California",rv_park,ChIJabiv-4m6j4ARSFV3hdsGNwY,Buena Vista Mobile Home Park,"['rv_park', 'lodging', 'point_of_interest', 'establishment']","3980 El Camino Real, Palo Alto",37.41510459999999,-122.1294727
95,"Sunnyvale, California",rv_park,ChIJsbG-kdm2j4ARkhpNfUPoFb0,Sahara Mobile Village,"['rv_park', 'lodging', 'point_of_interest', 'establishment']","191 East El Camino Real, Mountain View",37.3785654,-122.069854
96,"Sunnyvale, California",rv_park,ChIJo26K21LIj4ARX7qnOPLExQU,Lamplighter San Jose,"['rv_park', 'lodging', 'point_of_interest', 'establishment']","4201 North 1st Street, San Jose",37.4167275,-121.9608914
97,"Sunnyvale, California",rv_park,ChIJCRGDRt-2j4ARwbH-S7BxFFY,Moorpark Mobile Homes,"['rv_park', 'lodging', 'point_of_interest', 'establishment']","501 Moorpark Way, Mountain View",37.3815779,-122.0657658
98,"Sunnyvale, California",rv_park,ChIJyQ9Mk6-wj4ARNyoJWlA_QxY,M P Central Park Associates LLC,"['rv_park', 'lodging', 'point_of_interest', 'establishment']","111 Montebello Avenue # 101, Mountain View",37.4039671,-122.0936401
99,"Sunnyvale, California",rv_park,ChIJLwK7bz3Mj4ARHSNb9fJ0Wu4,Summerset Mobile Estates,"['rv_park', 'lodging', 'point_of_interest', 'establishment']","2052 Gold Street, Alviso",37.42119330000001,-121.9729606
0,"Cupertino, California",rv_park,ChIJ4Ycs0R-3j4AR2NiQGTxXSMA,New Frontier Mobile Home Park,"['rv_park', 'lodging', 'point_of_interest', 'establishment']","325 Sylvan Avenue, Mountain View",37.3849099,-122.0585372
1,"Cupertino, California",rv_park,ChIJzy54P-C2j4ARhMWgmpWtdNU,Sunset Estates Mobile Home Pk,"['rv_park', 'lodging', 'point_of_interest', 'establishment']","433 Sylvan Avenue, Mountain View",37.3839273,-122.059859
2,"Cupertino, California",rv_park,ChIJg-8xHee1j4ARopr4Cl89Ql0,ALOHA Mobile Home Park,"['rv_park', 'lodging', 'point_of_interest', 'establishment']","915 East El Camino Real, Sunnyvale",37.35346069999999,-122.0128953
3,"Cupertino, California",rv_park,ChIJrydalzW2j4AR-SF4V0R6hp4,VRENT - Fairoaks Mobile Lodge,"['rv_park', 'lodging', 'point_of_interest', 'establishment']","580 Ahwanee Avenue, Sunnyvale",37.395001,-122.015132
4,"Cupertino, California",rv_park,ChIJbc5dksy3j4AR0yskvTDXtbg,El Dorado Mobile Home Park,"['rv_park', 'lodging', 'point_of_interest', 'establishment']","600 East Weddell Drive, Sunnyvale",37.3998136,-122.0105095
5,"Cupertino, California",rv_park,ChIJI8Q5sPq1j4ARKuOWhTNI66Y,Rancho La Mesa,"['rv_park', 'lodging', 'point_of_interest', 'establishment']","1201 Sycamore Terrace, Sunnyvale",37.3544024,-122.0028495
6,"Cupertino, California",rv_park,ChIJ19AmQtO3j4ARBbgbh8bctyY,Casa De Amigos Mobile Park,"['rv_park', 'lodging', 'point_of_interest', 'establishment']","1085 Tasman Drive, Sunnyvale",37.4057121,-121.9988719
7,"Cupertino, California",rv_park,ChIJ8RNrU7G3j4ARk1wk5kaytio,Cape Cod Village,"['rv_park', 'lodging', 'point_of_interest', 'establishment']","1050 Borregas Avenue, Sunnyvale",37.40057609999999,-122.0212928
8,"Cupertino, California",rv_park,ChIJy-Ivk863j4ARFWgtnjAuYM0,Fox Hollow Mobile Home Community,"['rv_park', 'lodging', 'point_of_interest', 'establishment']","690 Persian Drive, Sunnyvale",37.405851,-122.007954
9,"Cupertino, California",rv_park,ChIJcScwfOozjoAR4V-npP-21i0,California Southwestern Insurance Agency,"['rv_park', 'insurance_agency', 'lodging', 'point_of_interest', 'establishment']","51 East Campbell Avenue #106h, Campbell",37.2877837,-121.9488924
10,"Cupertino, California",rv_park,ChIJD2TaguY0joAR3pJBta0fcq4,Paseo De Palomas Inc,"['rv_park', 'lodging', 'point_of_interest', 'establishment']","295 Union Avenue, Campbell",37.28120099999999,-121.939441
11,"Cupertino, California",rv_park,ChIJKX3GbdXJj4AR1d3fc_gedTA,Adobe Wells,"['rv_park', 'lodging', 'point_of_interest', 'establishment']","1220 Tasman Drive, Sunnyvale",37.4017103,-121.99333
12,"Cupertino, California",rv_park,ChIJoTiH4sm3j4ARSh1sWRy8rlc,Willow Ranch,"['rv_park', 'lodging', 'point_of_interest', 'establishment']","1111 Morse Avenue, Sunnyvale",37.4036586,-122.0175681
13,"Cupertino, California",rv_park,ChIJC-l-VcU0joAReVH3O9_ZXM0,Quail Hollow,"['rv_park', 'lodging', 'point_of_interest', 'establishment']","1445 South Bascom Avenue, San Jose",37.2984809,-121.9321339
14,"Cupertino, California",rv_park,ChIJu9xqzwI1joARdrPR9f1_ygo,Timber Cove,"['rv_park', 'lodging', 'point_of_interest', 'establishment']","870 Camden Avenue, Campbell",37.2744427,-121.9484442
15,"Cupertino, California",rv_park,ChIJhaLzs0m3j4ARgYr4PmZthJg,Moffett Mobilehome Park,"['rv_park', 'lodging', 'point_of_interest', 'establishment']","440 Moffett Boulevard, Mountain View",37.4000973,-122.0739723
16,"Cupertino, California",rv_park,ChIJ-xcMdaY1joAR8tOPuMrcGqE,Bonnie View Park,"['rv_park', 'lodging', 'point_of_interest', 'establishment']","14685 Oka Road, Los Gatos",37.2550949,-121.9592037
17,"Cupertino, California",rv_park,ChIJsbG-kdm2j4ARkhpNfUPoFb0,Sahara Mobile Village,"['rv_park', 'lodging', 'point_of_interest', 'establishment']","191 East El Camino Real, Mountain View",37.3785654,-122.069854
18,"Cupertino, California",rv_park,ChIJCRGDRt-2j4ARwbH-S7BxFFY,Moorpark Mobile Homes,"['rv_park', 'lodging', 'point_of_interest', 'establishment']","501 Moorpark Way, Mountain View",37.3815779,-122.0657658
19,"Cupertino, California",rv_park,ChIJ7ZIRjd7Kj4ARhTgxziAeNOA,Winchester Ranch Mobile Home,"['rv_park', 'lodging', 'point_of_interest', 'establishment']","500 Charles Cali Drive, San Jose",37.31777429999999,-121.9536388
20,"Cupertino, California",rv_park,ChIJ4Ycs0R-3j4AR2NiQGTxXSMA,New Frontier Mobile Home Park,"['rv_park', 'lodging', 'point_of_interest', 'establishment']","325 Sylvan Avenue, Mountain View",37.3849099,-122.0585372
21,"Cupertino, California",rv_park,ChIJzy54P-C2j4ARhMWgmpWtdNU,Sunset Estates Mobile Home Pk,"['rv_park', 'lodging', 'point_of_interest', 'establishment']","433 Sylvan Avenue, Mountain View",37.3839273,-122.059859
22,"Cupertino, California",rv_park,ChIJg-8xHee1j4ARopr4Cl89Ql0,ALOHA Mobile Home Park,"['rv_park', 'lodging', 'point_of_interest', 'establishment']","915 East El Camino Real, Sunnyvale",37.35346069999999,-122.0128953
23,"Cupertino, California",rv_park,ChIJrydalzW2j4AR-SF4V0R6hp4,VRENT - Fairoaks Mobile Lodge,"['rv_park', 'lodging', 'point_of_interest', 'establishment']","580 Ahwanee Avenue, Sunnyvale",37.395001,-122.015132
24,"Cupertino, California",rv_park,ChIJbc5dksy3j4AR0yskvTDXtbg,El Dorado Mobile Home Park,"['rv_park', 'lodging', 'point_of_interest', 'establishment']","600 East Weddell Drive, Sunnyvale",37.3998136,-122.0105095
25,"Cupertino, California",rv_park,ChIJI8Q5sPq1j4ARKuOWhTNI66Y,Rancho La Mesa,"['rv_park', 'lodging', 'point_of_interest', 'establishment']","1201 Sycamore Terrace, Sunnyvale",37.3544024,-122.0028495
26,"Cupertino, California",rv_park,ChIJ19AmQtO3j4ARBbgbh8bctyY,Casa De Amigos Mobile Park,"['rv_park', 'lodging', 'point_of_interest', 'establishment']","1085 Tasman Drive, Sunnyvale",37.4057121,-121.9988719
27,"Cupertino, California",rv_park,ChIJ8RNrU7G3j4ARk1wk5kaytio,Cape Cod Village,"['rv_park', 'lodging', 'point_of_interest', 'establishment']","1050 Borregas Avenue, Sunnyvale",37.40057609999999,-122.0212928
28,"Cupertino, California",rv_park,ChIJy-Ivk863j4ARFWgtnjAuYM0,Fox Hollow Mobile Home Community,"['rv_park', 'lodging', 'point_of_interest', 'establishment']","690 Persian Drive, Sunnyvale",37.405851,-122.007954
29,"Cupertino, California",rv_park,ChIJcScwfOozjoAR4V-npP-21i0,California Southwestern Insurance Agency,"['rv_park', 'insurance_agency', 'lodging', 'point_of_interest', 'establishment']","51 East Campbell Avenue #106h, Campbell",37.2877837,-121.9488924
30,"Cupertino, California",rv_park,ChIJD2TaguY0joAR3pJBta0fcq4,Paseo De Palomas Inc,"['rv_park', 'lodging', 'point_of_interest', 'establishment']","295 Union Avenue, Campbell",37.28120099999999,-121.939441
31,"Cupertino, California",rv_park,ChIJKX3GbdXJj4AR1d3fc_gedTA,Adobe Wells,"['rv_park', 'lodging', 'point_of_interest', 'establishment']","1220 Tasman Drive, Sunnyvale",37.4017103,-121.99333
32,"Cupertino, California",rv_park,ChIJoTiH4sm3j4ARSh1sWRy8rlc,Willow Ranch,"['rv_park', 'lodging', 'point_of_interest', 'establishment']","1111 Morse Avenue, Sunnyvale",37.4036586,-122.0175681
33,"Cupertino, California",rv_park,ChIJC-l-VcU0joAReVH3O9_ZXM0,Quail Hollow,"['rv_park', 'lodging', 'point_of_interest', 'establishment']","1445 South Bascom Avenue, San Jose",37.2984809,-121.9321339
34,"Cupertino, California",rv_park,ChIJu9xqzwI1joARdrPR9f1_ygo,Timber Cove,"['rv_park', 'lodging', 'point_of_interest', 'establishment']","870 Camden Avenue, Campbell",37.2744427,-121.9484442
35,"Cupertino, California",rv_park,ChIJhaLzs0m3j4ARgYr4PmZthJg,Moffett Mobilehome Park,"['rv_park', 'lodging', 'point_of_interest', 'establishment']","440 Moffett Boulevard, Mountain View",37.4000973,-122.0739723
36,"Cupertino, California",rv_park,ChIJ-xcMdaY1joAR8tOPuMrcGqE,Bonnie View Park,"['rv_park', 'lodging', 'point_of_interest', 'establishment']","14685 Oka Road, Los Gatos",37.2550949,-121.9592037
37,"Cupertino, California",rv_park,ChIJsbG-kdm2j4ARkhpNfUPoFb0,Sahara Mobile Village,"['rv_park', 'lodging', 'point_of_interest', 'establishment']","191 East El Camino Real, Mountain View",37.3785654,-122.069854
38,"Cupertino, California",rv_park,ChIJCRGDRt-2j4ARwbH-S7BxFFY,Moorpark Mobile Homes,"['rv_park', 'lodging', 'point_of_interest', 'establishment']","501 Moorpark Way, Mountain View",37.3815779,-122.0657658
39,"Cupertino, California",rv_park,ChIJ7ZIRjd7Kj4ARhTgxziAeNOA,Winchester Ranch Mobile Home,"['rv_park', 'lodging', 'point_of_interest', 'establishment']","500 Charles Cali Drive, San Jose",37.31777429999999,-121.9536388
40,"Cupertino, California",rv_park,ChIJ4Ycs0R-3j4AR2NiQGTxXSMA,New Frontier Mobile Home Park,"['rv_park', 'lodging', 'point_of_interest', 'establishment']","325 Sylvan Avenue, Mountain View",37.3849099,-122.0585372
41,"Cupertino, California",rv_park,ChIJzy54P-C2j4ARhMWgmpWtdNU,Sunset Estates Mobile Home Pk,"['rv_park', 'lodging', 'point_of_interest', 'establishment']","433 Sylvan Avenue, Mountain View",37.3839273,-122.059859
42,"Cupertino, California",rv_park,ChIJg-8xHee1j4ARopr4Cl89Ql0,ALOHA Mobile Home Park,"['rv_park', 'lodging', 'point_of_interest', 'establishment']","915 East El Camino Real, Sunnyvale",37.35346069999999,-122.0128953
43,"Cupertino, California",rv_park,ChIJrydalzW2j4AR-SF4V0R6hp4,VRENT - Fairoaks Mobile Lodge,"['rv_park', 'lodging', 'point_of_interest', 'establishment']","580 Ahwanee Avenue, Sunnyvale",37.395001,-122.015132
44,"Cupertino, California",rv_park,ChIJbc5dksy3j4AR0yskvTDXtbg,El Dorado Mobile Home Park,"['rv_park', 'lodging', 'point_of_interest', 'establishment']","600 East Weddell Drive, Sunnyvale",37.3998136,-122.0105095
45,"Cupertino, California",rv_park,ChIJI8Q5sPq1j4ARKuOWhTNI66Y,Rancho La Mesa,"['rv_park', 'lodging', 'point_of_interest', 'establishment']","1201 Sycamore Terrace, Sunnyvale",37.3544024,-122.0028495
46,"Cupertino, California",rv_park,ChIJ19AmQtO3j4ARBbgbh8bctyY,Casa De Amigos Mobile Park,"['rv_park', 'lodging', 'point_of_interest', 'establishment']","1085 Tasman Drive, Sunnyvale",37.4057121,-121.9988719
47,"Cupertino, California",rv_park,ChIJ8RNrU7G3j4ARk1wk5kaytio,Cape Cod Village,"['rv_park', 'lodging', 'point_of_interest', 'establishment']","1050 Borregas Avenue, Sunnyvale",37.40057609999999,-122.0212928
48,"Cupertino, California",rv_park,ChIJy-Ivk863j4ARFWgtnjAuYM0,Fox Hollow Mobile Home Community,"['rv_park', 'lodging', 'point_of_interest', 'establishment']","690 Persian Drive, Sunnyvale",37.405851,-122.007954
49,"Cupertino, California",rv_park,ChIJcScwfOozjoAR4V-npP-21i0,California Southwestern Insurance Agency,"['rv_park', 'insurance_agency', 'lodging', 'point_of_interest', 'establishment']","51 East Campbell Avenue #106h, Campbell",37.2877837,-121.9488924
50,"Cupertino, California",rv_park,ChIJD2TaguY0joAR3pJBta0fcq4,Paseo De Palomas Inc,"['rv_park', 'lodging', 'point_of_interest', 'establishment']","295 Union Avenue, Campbell",37.28120099999999,-121.939441
51,"Cupertino, California",rv_park,ChIJKX3GbdXJj4AR1d3fc_gedTA,Adobe Wells,"['rv_park', 'lodging', 'point_of_interest', 'establishment']","1220 Tasman Drive, Sunnyvale",37.4017103,-121.99333
52,"Cupertino, California",rv_park,ChIJoTiH4sm3j4ARSh1sWRy8rlc,Willow Ranch,"['rv_park', 'lodging', 'point_of_interest', 'establishment']","1111 Morse Avenue, Sunnyvale",37.4036586,-122.0175681
53,"Cupertino, California",rv_park,ChIJC-l-VcU0joAReVH3O9_ZXM0,Quail Hollow,"['rv_park', 'lodging', 'point_of_interest', 'establishment']","1445 South Bascom Avenue, San Jose",37.2984809,-121.9321339
54,"Cupertino, California",rv_park,ChIJu9xqzwI1joARdrPR9f1_ygo,Timber Cove,"['rv_park', 'lodging', 'point_of_interest', 'establishment']","870 Camden Avenue, Campbell",37.2744427,-121.9484442
55,"Cupertino, California",rv_park,ChIJhaLzs0m3j4ARgYr4PmZthJg,Moffett Mobilehome Park,"['rv_park', 'lodging', 'point_of_interest', 'establishment']","440 Moffett Boulevard, Mountain View",37.4000973,-122.0739723
56,"Cupertino, California",rv_park,ChIJ-xcMdaY1joAR8tOPuMrcGqE,Bonnie View Park,"['rv_park', 'lodging', 'point_of_interest', 'establishment']","14685 Oka Road, Los Gatos",37.2550949,-121.9592037
57,"Cupertino, California",rv_park,ChIJsbG-kdm2j4ARkhpNfUPoFb0,Sahara Mobile Village,"['rv_park', 'lodging', 'point_of_interest', 'establishment']","191 East El Camino Real, Mountain View",37.3785654,-122.069854
58,"Cupertino, California",rv_park,ChIJCRGDRt-2j4ARwbH-S7BxFFY,Moorpark Mobile Homes,"['rv_park', 'lodging', 'point_of_interest', 'establishment']","501 Moorpark Way, Mountain View",37.3815779,-122.0657658
59,"Cupertino, California",rv_park,ChIJ7ZIRjd7Kj4ARhTgxziAeNOA,Winchester Ranch Mobile Home,"['rv_park', 'lodging', 'point_of_interest', 'establishment']","500 Charles Cali Drive, San Jose",37.31777429999999,-121.9536388
60,"Cupertino, California",rv_park,ChIJ4Ycs0R-3j4AR2NiQGTxXSMA,New Frontier Mobile Home Park,"['rv_park', 'lodging', 'point_of_interest', 'establishment']","325 Sylvan Avenue, Mountain View",37.3849099,-122.0585372
61,"Cupertino, California",rv_park,ChIJzy54P-C2j4ARhMWgmpWtdNU,Sunset Estates Mobile Home Pk,"['rv_park', 'lodging', 'point_of_interest', 'establishment']","433 Sylvan Avenue, Mountain View",37.3839273,-122.059859
62,"Cupertino, California",rv_park,ChIJg-8xHee1j4ARopr4Cl89Ql0,ALOHA Mobile Home Park,"['rv_park', 'lodging', 'point_of_interest', 'establishment']","915 East El Camino Real, Sunnyvale",37.35346069999999,-122.0128953
63,"Cupertino, California",rv_park,ChIJrydalzW2j4AR-SF4V0R6hp4,VRENT - Fairoaks Mobile Lodge,"['rv_park', 'lodging', 'point_of_interest', 'establishment']","580 Ahwanee Avenue, Sunnyvale",37.395001,-122.015132
64,"Cupertino, California",rv_park,ChIJbc5dksy3j4AR0yskvTDXtbg,El Dorado Mobile Home Park,"['rv_park', 'lodging', 'point_of_interest', 'establishment']","600 East Weddell Drive, Sunnyvale",37.3998136,-122.0105095
65,"Cupertino, California",rv_park,ChIJI8Q5sPq1j4ARKuOWhTNI66Y,Rancho La Mesa,"['rv_park', 'lodging', 'point_of_interest', 'establishment']","1201 Sycamore Terrace, Sunnyvale",37.3544024,-122.0028495
66,"Cupertino, California",rv_park,ChIJ19AmQtO3j4ARBbgbh8bctyY,Casa De Amigos Mobile Park,"['rv_park', 'lodging', 'point_of_interest', 'establishment']","1085 Tasman Drive, Sunnyvale",37.4057121,-121.9988719
67,"Cupertino, California",rv_park,ChIJ8RNrU7G3j4ARk1wk5kaytio,Cape Cod Village,"['rv_park', 'lodging', 'point_of_interest', 'establishment']","1050 Borregas Avenue, Sunnyvale",37.40057609999999,-122.0212928
68,"Cupertino, California",rv_park,ChIJy-Ivk863j4ARFWgtnjAuYM0,Fox Hollow Mobile Home Community,"['rv_park', 'lodging', 'point_of_interest', 'establishment']","690 Persian Drive, Sunnyvale",37.405851,-122.007954
69,"Cupertino, California",rv_park,ChIJcScwfOozjoAR4V-npP-21i0,California Southwestern Insurance Agency,"['rv_park', 'insurance_agency', 'lodging', 'point_of_interest', 'establishment']","51 East Campbell Avenue #106h, Campbell",37.2877837,-121.9488924
70,"Cupertino, California",rv_park,ChIJD2TaguY0joAR3pJBta0fcq4,Paseo De Palomas Inc,"['rv_park', 'lodging', 'point_of_interest', 'establishment']","295 Union Avenue, Campbell",37.28120099999999,-121.939441
71,"Cupertino, California",rv_park,ChIJKX3GbdXJj4AR1d3fc_gedTA,Adobe Wells,"['rv_park', 'lodging', 'point_of_interest', 'establishment']","1220 Tasman Drive, Sunnyvale",37.4017103,-121.99333
72,"Cupertino, California",rv_park,ChIJoTiH4sm3j4ARSh1sWRy8rlc,Willow Ranch,"['rv_park', 'lodging', 'point_of_interest', 'establishment']","1111 Morse Avenue, Sunnyvale",37.4036586,-122.0175681
73,"Cupertino, California",rv_park,ChIJC-l-VcU0joAReVH3O9_ZXM0,Quail Hollow,"['rv_park', 'lodging', 'point_of_interest', 'establishment']","1445 South Bascom Avenue, San Jose",37.2984809,-121.9321339
74,"Cupertino, California",rv_park,ChIJu9xqzwI1joARdrPR9f1_ygo,Timber Cove,"['rv_park', 'lodging', 'point_of_interest', 'establishment']","870 Camden Avenue, Campbell",37.2744427,-121.9484442
75,"Cupertino, California",rv_park,ChIJhaLzs0m3j4ARgYr4PmZthJg,Moffett Mobilehome Park,"['rv_park', 'lodging', 'point_of_interest', 'establishment']","440 Moffett Boulevard, Mountain View",37.4000973,-122.0739723
76,"Cupertino, California",rv_park,ChIJ-xcMdaY1joAR8tOPuMrcGqE,Bonnie View Park,"['rv_park', 'lodging', 'point_of_interest', 'establishment']","14685 Oka Road, Los Gatos",37.2550949,-121.9592037
77,"Cupertino, California",rv_park,ChIJsbG-kdm2j4ARkhpNfUPoFb0,Sahara Mobile Village,"['rv_park', 'lodging', 'point_of_interest', 'establishment']","191 East El Camino Real, Mountain View",37.3785654,-122.069854
78,"Cupertino, California",rv_park,ChIJCRGDRt-2j4ARwbH-S7BxFFY,Moorpark Mobile Homes,"['rv_park', 'lodging', 'point_of_interest', 'establishment']","501 Moorpark Way, Mountain View",37.3815779,-122.0657658
79,"Cupertino, California",rv_park,ChIJ7ZIRjd7Kj4ARhTgxziAeNOA,Winchester Ranch Mobile Home,"['rv_park', 'lodging', 'point_of_interest', 'establishment']","500 Charles Cali Drive, San Jose",37.31777429999999,-121.9536388
80,"Cupertino, California",rv_park,ChIJ4Ycs0R-3j4AR2NiQGTxXSMA,New Frontier Mobile Home Park,"['rv_park', 'lodging', 'point_of_interest', 'establishment']","325 Sylvan Avenue, Mountain View",37.3849099,-122.0585372
81,"Cupertino, California",rv_park,ChIJzy54P-C2j4ARhMWgmpWtdNU,Sunset Estates Mobile Home Pk,"['rv_park', 'lodging', 'point_of_interest', 'establishment']","433 Sylvan Avenue, Mountain View",37.3839273,-122.059859
82,"Cupertino, California",rv_park,ChIJg-8xHee1j4ARopr4Cl89Ql0,ALOHA Mobile Home Park,"['rv_park', 'lodging', 'point_of_interest', 'establishment']","915 East El Camino Real, Sunnyvale",37.35346069999999,-122.0128953
83,"Cupertino, California",rv_park,ChIJrydalzW2j4AR-SF4V0R6hp4,VRENT - Fairoaks Mobile Lodge,"['rv_park', 'lodging', 'point_of_interest', 'establishment']","580 Ahwanee Avenue, Sunnyvale",37.395001,-122.015132
84,"Cupertino, California",rv_park,ChIJbc5dksy3j4AR0yskvTDXtbg,El Dorado Mobile Home Park,"['rv_park', 'lodging', 'point_of_interest', 'establishment']","600 East Weddell Drive, Sunnyvale",37.3998136,-122.0105095
85,"Cupertino, California",rv_park,ChIJI8Q5sPq1j4ARKuOWhTNI66Y,Rancho La Mesa,"['rv_park', 'lodging', 'point_of_interest', 'establishment']","1201 Sycamore Terrace, Sunnyvale",37.3544024,-122.0028495
86,"Cupertino, California",rv_park,ChIJ19AmQtO3j4ARBbgbh8bctyY,Casa De Amigos Mobile Park,"['rv_park', 'lodging', 'point_of_interest', 'establishment']","1085 Tasman Drive, Sunnyvale",37.4057121,-121.9988719
87,"Cupertino, California",rv_park,ChIJ8RNrU7G3j4ARk1wk5kaytio,Cape Cod Village,"['rv_park', 'lodging', 'point_of_interest', 'establishment']","1050 Borregas Avenue, Sunnyvale",37.40057609999999,-122.0212928
88,"Cupertino, California",rv_park,ChIJy-Ivk863j4ARFWgtnjAuYM0,Fox Hollow Mobile Home Community,"['rv_park', 'lodging', 'point_of_interest', 'establishment']","690 Persian Drive, Sunnyvale",37.405851,-122.007954
89,"Cupertino, California",rv_park,ChIJcScwfOozjoAR4V-npP-21i0,California Southwestern Insurance Agency,"['rv_park', 'insurance_agency', 'lodging', 'point_of_interest', 'establishment']","51 East Campbell Avenue #106h, Campbell",37.2877837,-121.9488924
90,"Cupertino, California",rv_park,ChIJD2TaguY0joAR3pJBta0fcq4,Paseo De Palomas Inc,"['rv_park', 'lodging', 'point_of_interest', 'establishment']","295 Union Avenue, Campbell",37.28120099999999,-121.939441
91,"Cupertino, California",rv_park,ChIJKX3GbdXJj4AR1d3fc_gedTA,Adobe Wells,"['rv_park', 'lodging', 'point_of_interest', 'establishment']","1220 Tasman Drive, Sunnyvale",37.4017103,-121.99333
92,"Cupertino, California",rv_park,ChIJoTiH4sm3j4ARSh1sWRy8rlc,Willow Ranch,"['rv_park', 'lodging', 'point_of_interest', 'establishment']","1111 Morse Avenue, Sunnyvale",37.4036586,-122.0175681
93,"Cupertino, California",rv_park,ChIJC-l-VcU0joAReVH3O9_ZXM0,Quail Hollow,"['rv_park', 'lodging', 'point_of_interest', 'establishment']","1445 South Bascom Avenue, San Jose",37.2984809,-121.9321339
94,"Cupertino, California",rv_park,ChIJu9xqzwI1joARdrPR9f1_ygo,Timber Cove,"['rv_park', 'lodging', 'point_of_interest', 'establishment']","870 Camden Avenue, Campbell",37.2744427,-121.9484442
95,"Cupertino, California",rv_park,ChIJhaLzs0m3j4ARgYr4PmZthJg,Moffett Mobilehome Park,"['rv_park', 'lodging', 'point_of_interest', 'establishment']","440 Moffett Boulevard, Mountain View",37.4000973,-122.0739723
96,"Cupertino, California",rv_park,ChIJ-xcMdaY1joAR8tOPuMrcGqE,Bonnie View Park,"['rv_park', 'lodging', 'point_of_interest', 'establishment']","14685 Oka Road, Los Gatos",37.2550949,-121.9592037
97,"Cupertino, California",rv_park,ChIJsbG-kdm2j4ARkhpNfUPoFb0,Sahara Mobile Village,"['rv_park', 'lodging', 'point_of_interest', 'establishment']","191 East El Camino Real, Mountain View",37.3785654,-122.069854
98,"Cupertino, California",rv_park,ChIJCRGDRt-2j4ARwbH-S7BxFFY,Moorpark Mobile Homes,"['rv_park', 'lodging', 'point_of_interest', 'establishment']","501 Moorpark Way, Mountain View",37.3815779,-122.0657658
99,"Cupertino, California",rv_park,ChIJ7ZIRjd7Kj4ARhTgxziAeNOA,Winchester Ranch Mobile Home,"['rv_park', 'lodging', 'point_of_interest', 'establishment']","500 Charles Cali Drive, San Jose",37.31777429999999,-121.9536388
0,"Santa Clara, California",rv_park,ChIJqaptUmXMj4ARMnTW11EpT3U,Trailer Tel RV Park,"['rv_park', 'lodging', 'point_of_interest', 'establishment']","1212 Oakland Road, San Jose",37.3672712,-121.8903324
1,"Santa Clara, California",rv_park,ChIJfWIt4gDJj4ARUYI6c4eBSkI,Westwinds,"['rv_park', 'lodging', 'point_of_interest', 'establishment']","500 Nicholson Lane, San Jose",37.415746,-121.9447398
2,"Santa Clara, California",rv_park,ChIJ19AmQtO3j4ARBbgbh8bctyY,Casa De Amigos Mobile Park,"['rv_park', 'lodging', 'point_of_interest', 'establishment']","1085 Tasman Drive, Sunnyvale",37.4057121,-121.9988719
3,"Santa Clara, California",rv_park,ChIJMQO9Rm7Mj4ARkZSLhwzBEVc,South Bay Mobile Home Park,"['rv_park', 'lodging', 'point_of_interest', 'establishment']","1350 Oakland Road, San Jose",37.3705737,-121.8918363
4,"Santa Clara, California",rv_park,ChIJy-Ivk863j4ARFWgtnjAuYM0,Fox Hollow Mobile Home Community,"['rv_park', 'lodging', 'point_of_interest', 'establishment']","690 Persian Drive, Sunnyvale",37.405851,-122.007954
5,"Santa Clara, California",rv_park,ChIJbc5dksy3j4AR0yskvTDXtbg,El Dorado Mobile Home Park,"['rv_park', 'lodging', 'point_of_interest', 'establishment']","600 East Weddell Drive, Sunnyvale",37.3998136,-122.0105095
6,"Santa Clara, California",rv_park,ChIJrydalzW2j4AR-SF4V0R6hp4,VRENT - Fairoaks Mobile Lodge,"['rv_park', 'lodging', 'point_of_interest', 'establishment']","580 Ahwanee Avenue, Sunnyvale",37.395001,-122.015132
7,"Santa Clara, California",rv_park,ChIJg-8xHee1j4ARopr4Cl89Ql0,ALOHA Mobile Home Park,"['rv_park', 'lodging', 'point_of_interest', 'establishment']","915 East El Camino Real, Sunnyvale",37.35346069999999,-122.0128953
8,"Santa Clara, California",rv_park,ChIJKX3GbdXJj4AR1d3fc_gedTA,Adobe Wells,"['rv_park', 'lodging', 'point_of_interest', 'establishment']","1220 Tasman Drive, Sunnyvale",37.4017103,-121.99333
9,"Santa Clara, California",rv_park,ChIJI8Q5sPq1j4ARKuOWhTNI66Y,Rancho La Mesa,"['rv_park', 'lodging', 'point_of_interest', 'establishment']","1201 Sycamore Terrace, Sunnyvale",37.3544024,-122.0028495
10,"Santa Clara, California",rv_park,ChIJ8RNrU7G3j4ARk1wk5kaytio,Cape Cod Village,"['rv_park', 'lodging', 'point_of_interest', 'establishment']","1050 Borregas Avenue, Sunnyvale",37.40057609999999,-122.0212928
11,"Santa Clara, California",rv_park,ChIJD2TaguY0joAR3pJBta0fcq4,Paseo De Palomas Inc,"['rv_park', 'lodging', 'point_of_interest', 'establishment']","295 Union Avenue, Campbell",37.28120099999999,-121.939441
12,"Santa Clara, California",rv_park,ChIJexT4fnDMj4ARDx0Njk_L1oI,Garden City RV Park,"['rv_park', 'lodging', 'point_of_interest', 'establishment']","1309 Oakland Road, San Jose",37.3677623,-121.8923382
13,"Santa Clara, California",rv_park,ChIJC-l-VcU0joAReVH3O9_ZXM0,Quail Hollow,"['rv_park', 'lodging', 'point_of_interest', 'establishment']","1445 South Bascom Avenue, San Jose",37.2984809,-121.9321339
14,"Santa Clara, California",rv_park,ChIJcScwfOozjoAR4V-npP-21i0,California Southwestern Insurance Agency,"['rv_park', 'insurance_agency', 'lodging', 'point_of_interest', 'establishment']","51 East Campbell Avenue #106h, Campbell",37.2877837,-121.9488924
15,"Santa Clara, California",rv_park,ChIJoTiH4sm3j4ARSh1sWRy8rlc,Willow Ranch,"['rv_park', 'lodging', 'point_of_interest', 'establishment']","1111 Morse Avenue, Sunnyvale",37.4036586,-122.0175681
16,"Santa Clara, California",rv_park,ChIJ4Ycs0R-3j4AR2NiQGTxXSMA,New Frontier Mobile Home Park,"['rv_park', 'lodging', 'point_of_interest', 'establishment']","325 Sylvan Avenue, Mountain View",37.3849099,-122.0585372
17,"Santa Clara, California",rv_park,ChIJzy54P-C2j4ARhMWgmpWtdNU,Sunset Estates Mobile Home Pk,"['rv_park', 'lodging', 'point_of_interest', 'establishment']","433 Sylvan Avenue, Mountain View",37.3839273,-122.059859
18,"Santa Clara, California",rv_park,ChIJu9xqzwI1joARdrPR9f1_ygo,Timber Cove,"['rv_park', 'lodging', 'point_of_interest', 'establishment']","870 Camden Avenue, Campbell",37.2744427,-121.9484442
19,"Santa Clara, California",rv_park,ChIJ2yyN6izNj4AR6G0ZmZsopAc,Sunshadow,"['rv_park', 'lodging', 'point_of_interest', 'establishment']","1350 Panoche Avenue, San Jose",37.3329224,-121.8488414
20,"Santa Clara, California",rv_park,ChIJqaptUmXMj4ARMnTW11EpT3U,Trailer Tel RV Park,"['rv_park', 'lodging', 'point_of_interest', 'establishment']","1212 Oakland Road, San Jose",37.3672712,-121.8903324
21,"Santa Clara, California",rv_park,ChIJfWIt4gDJj4ARUYI6c4eBSkI,Westwinds,"['rv_park', 'lodging', 'point_of_interest', 'establishment']","500 Nicholson Lane, San Jose",37.415746,-121.9447398
22,"Santa Clara, California",rv_park,ChIJ19AmQtO3j4ARBbgbh8bctyY,Casa De Amigos Mobile Park,"['rv_park', 'lodging', 'point_of_interest', 'establishment']","1085 Tasman Drive, Sunnyvale",37.4057121,-121.9988719
23,"Santa Clara, California",rv_park,ChIJMQO9Rm7Mj4ARkZSLhwzBEVc,South Bay Mobile Home Park,"['rv_park', 'lodging', 'point_of_interest', 'establishment']","1350 Oakland Road, San Jose",37.3705737,-121.8918363
24,"Santa Clara, California",rv_park,ChIJy-Ivk863j4ARFWgtnjAuYM0,Fox Hollow Mobile Home Community,"['rv_park', 'lodging', 'point_of_interest', 'establishment']","690 Persian Drive, Sunnyvale",37.405851,-122.007954
25,"Santa Clara, California",rv_park,ChIJbc5dksy3j4AR0yskvTDXtbg,El Dorado Mobile Home Park,"['rv_park', 'lodging', 'point_of_interest', 'establishment']","600 East Weddell Drive, Sunnyvale",37.3998136,-122.0105095
26,"Santa Clara, California",rv_park,ChIJrydalzW2j4AR-SF4V0R6hp4,VRENT - Fairoaks Mobile Lodge,"['rv_park', 'lodging', 'point_of_interest', 'establishment']","580 Ahwanee Avenue, Sunnyvale",37.395001,-122.015132
27,"Santa Clara, California",rv_park,ChIJg-8xHee1j4ARopr4Cl89Ql0,ALOHA Mobile Home Park,"['rv_park', 'lodging', 'point_of_interest', 'establishment']","915 East El Camino Real, Sunnyvale",37.35346069999999,-122.0128953
28,"Santa Clara, California",rv_park,ChIJKX3GbdXJj4AR1d3fc_gedTA,Adobe Wells,"['rv_park', 'lodging', 'point_of_interest', 'establishment']","1220 Tasman Drive, Sunnyvale",37.4017103,-121.99333
29,"Santa Clara, California",rv_park,ChIJI8Q5sPq1j4ARKuOWhTNI66Y,Rancho La Mesa,"['rv_park', 'lodging', 'point_of_interest', 'establishment']","1201 Sycamore Terrace, Sunnyvale",37.3544024,-122.0028495
30,"Santa Clara, California",rv_park,ChIJ8RNrU7G3j4ARk1wk5kaytio,Cape Cod Village,"['rv_park', 'lodging', 'point_of_interest', 'establishment']","1050 Borregas Avenue, Sunnyvale",37.40057609999999,-122.0212928
31,"Santa Clara, California",rv_park,ChIJD2TaguY0joAR3pJBta0fcq4,Paseo De Palomas Inc,"['rv_park', 'lodging', 'point_of_interest', 'establishment']","295 Union Avenue, Campbell",37.28120099999999,-121.939441
32,"Santa Clara, California",rv_park,ChIJexT4fnDMj4ARDx0Njk_L1oI,Garden City RV Park,"['rv_park', 'lodging', 'point_of_interest', 'establishment']","1309 Oakland Road, San Jose",37.3677623,-121.8923382
33,"Santa Clara, California",rv_park,ChIJC-l-VcU0joAReVH3O9_ZXM0,Quail Hollow,"['rv_park', 'lodging', 'point_of_interest', 'establishment']","1445 South Bascom Avenue, San Jose",37.2984809,-121.9321339
34,"Santa Clara, California",rv_park,ChIJcScwfOozjoAR4V-npP-21i0,California Southwestern Insurance Agency,"['rv_park', 'insurance_agency', 'lodging', 'point_of_interest', 'establishment']","51 East Campbell Avenue #106h, Campbell",37.2877837,-121.9488924
35,"Santa Clara, California",rv_park,ChIJoTiH4sm3j4ARSh1sWRy8rlc,Willow Ranch,"['rv_park', 'lodging', 'point_of_interest', 'establishment']","1111 Morse Avenue, Sunnyvale",37.4036586,-122.0175681
36,"Santa Clara, California",rv_park,ChIJ4Ycs0R-3j4AR2NiQGTxXSMA,New Frontier Mobile Home Park,"['rv_park', 'lodging', 'point_of_interest', 'establishment']","325 Sylvan Avenue, Mountain View",37.3849099,-122.0585372
37,"Santa Clara, California",rv_park,ChIJzy54P-C2j4ARhMWgmpWtdNU,Sunset Estates Mobile Home Pk,"['rv_park', 'lodging', 'point_of_interest', 'establishment']","433 Sylvan Avenue, Mountain View",37.3839273,-122.059859
38,"Santa Clara, California",rv_park,ChIJu9xqzwI1joARdrPR9f1_ygo,Timber Cove,"['rv_park', 'lodging', 'point_of_interest', 'establishment']","870 Camden Avenue, Campbell",37.2744427,-121.9484442
39,"Santa Clara, California",rv_park,ChIJ2yyN6izNj4AR6G0ZmZsopAc,Sunshadow,"['rv_park', 'lodging', 'point_of_interest', 'establishment']","1350 Panoche Avenue, San Jose",37.3329224,-121.8488414
40,"Santa Clara, California",rv_park,ChIJqaptUmXMj4ARMnTW11EpT3U,Trailer Tel RV Park,"['rv_park', 'lodging', 'point_of_interest', 'establishment']","1212 Oakland Road, San Jose",37.3672712,-121.8903324
41,"Santa Clara, California",rv_park,ChIJfWIt4gDJj4ARUYI6c4eBSkI,Westwinds,"['rv_park', 'lodging', 'point_of_interest', 'establishment']","500 Nicholson Lane, San Jose",37.415746,-121.9447398
42,"Santa Clara, California",rv_park,ChIJ19AmQtO3j4ARBbgbh8bctyY,Casa De Amigos Mobile Park,"['rv_park', 'lodging', 'point_of_interest', 'establishment']","1085 Tasman Drive, Sunnyvale",37.4057121,-121.9988719
43,"Santa Clara, California",rv_park,ChIJMQO9Rm7Mj4ARkZSLhwzBEVc,South Bay Mobile Home Park,"['rv_park', 'lodging', 'point_of_interest', 'establishment']","1350 Oakland Road, San Jose",37.3705737,-121.8918363
44,"Santa Clara, California",rv_park,ChIJy-Ivk863j4ARFWgtnjAuYM0,Fox Hollow Mobile Home Community,"['rv_park', 'lodging', 'point_of_interest', 'establishment']","690 Persian Drive, Sunnyvale",37.405851,-122.007954
45,"Santa Clara, California",rv_park,ChIJbc5dksy3j4AR0yskvTDXtbg,El Dorado Mobile Home Park,"['rv_park', 'lodging', 'point_of_interest', 'establishment']","600 East Weddell Drive, Sunnyvale",37.3998136,-122.0105095
46,"Santa Clara, California",rv_park,ChIJrydalzW2j4AR-SF4V0R6hp4,VRENT - Fairoaks Mobile Lodge,"['rv_park', 'lodging', 'point_of_interest', 'establishment']","580 Ahwanee Avenue, Sunnyvale",37.395001,-122.015132
47,"Santa Clara, California",rv_park,ChIJg-8xHee1j4ARopr4Cl89Ql0,ALOHA Mobile Home Park,"['rv_park', 'lodging', 'point_of_interest', 'establishment']","915 East El Camino Real, Sunnyvale",37.35346069999999,-122.0128953
48,"Santa Clara, California",rv_park,ChIJKX3GbdXJj4AR1d3fc_gedTA,Adobe Wells,"['rv_park', 'lodging', 'point_of_interest', 'establishment']","1220 Tasman Drive, Sunnyvale",37.4017103,-121.99333
49,"Santa Clara, California",rv_park,ChIJI8Q5sPq1j4ARKuOWhTNI66Y,Rancho La Mesa,"['rv_park', 'lodging', 'point_of_interest', 'establishment']","1201 Sycamore Terrace, Sunnyvale",37.3544024,-122.0028495
50,"Santa Clara, California",rv_park,ChIJ8RNrU7G3j4ARk1wk5kaytio,Cape Cod Village,"['rv_park', 'lodging', 'point_of_interest', 'establishment']","1050 Borregas Avenue, Sunnyvale",37.40057609999999,-122.0212928
51,"Santa Clara, California",rv_park,ChIJD2TaguY0joAR3pJBta0fcq4,Paseo De Palomas Inc,"['rv_park', 'lodging', 'point_of_interest', 'establishment']","295 Union Avenue, Campbell",37.28120099999999,-121.939441
52,"Santa Clara, California",rv_park,ChIJexT4fnDMj4ARDx0Njk_L1oI,Garden City RV Park,"['rv_park', 'lodging', 'point_of_interest', 'establishment']","1309 Oakland Road, San Jose",37.3677623,-121.8923382
53,"Santa Clara, California",rv_park,ChIJC-l-VcU0joAReVH3O9_ZXM0,Quail Hollow,"['rv_park', 'lodging', 'point_of_interest', 'establishment']","1445 South Bascom Avenue, San Jose",37.2984809,-121.9321339
54,"Santa Clara, California",rv_park,ChIJcScwfOozjoAR4V-npP-21i0,California Southwestern Insurance Agency,"['rv_park', 'insurance_agency', 'lodging', 'point_of_interest', 'establishment']","51 East Campbell Avenue #106h, Campbell",37.2877837,-121.9488924
55,"Santa Clara, California",rv_park,ChIJoTiH4sm3j4ARSh1sWRy8rlc,Willow Ranch,"['rv_park', 'lodging', 'point_of_interest', 'establishment']","1111 Morse Avenue, Sunnyvale",37.4036586,-122.0175681
56,"Santa Clara, California",rv_park,ChIJ4Ycs0R-3j4AR2NiQGTxXSMA,New Frontier Mobile Home Park,"['rv_park', 'lodging', 'point_of_interest', 'establishment']","325 Sylvan Avenue, Mountain View",37.3849099,-122.0585372
57,"Santa Clara, California",rv_park,ChIJzy54P-C2j4ARhMWgmpWtdNU,Sunset Estates Mobile Home Pk,"['rv_park', 'lodging', 'point_of_interest', 'establishment']","433 Sylvan Avenue, Mountain View",37.3839273,-122.059859
58,"Santa Clara, California",rv_park,ChIJu9xqzwI1joARdrPR9f1_ygo,Timber Cove,"['rv_park', 'lodging', 'point_of_interest', 'establishment']","870 Camden Avenue, Campbell",37.2744427,-121.9484442
59,"Santa Clara, California",rv_park,ChIJ2yyN6izNj4AR6G0ZmZsopAc,Sunshadow,"['rv_park', 'lodging', 'point_of_interest', 'establishment']","1350 Panoche Avenue, San Jose",37.3329224,-121.8488414
60,"Santa Clara, California",rv_park,ChIJqaptUmXMj4ARMnTW11EpT3U,Trailer Tel RV Park,"['rv_park', 'lodging', 'point_of_interest', 'establishment']","1212 Oakland Road, San Jose",37.3672712,-121.8903324
61,"Santa Clara, California",rv_park,ChIJfWIt4gDJj4ARUYI6c4eBSkI,Westwinds,"['rv_park', 'lodging', 'point_of_interest', 'establishment']","500 Nicholson Lane, San Jose",37.415746,-121.9447398
62,"Santa Clara, California",rv_park,ChIJ19AmQtO3j4ARBbgbh8bctyY,Casa De Amigos Mobile Park,"['rv_park', 'lodging', 'point_of_interest', 'establishment']","1085 Tasman Drive, Sunnyvale",37.4057121,-121.9988719
63,"Santa Clara, California",rv_park,ChIJMQO9Rm7Mj4ARkZSLhwzBEVc,South Bay Mobile Home Park,"['rv_park', 'lodging', 'point_of_interest', 'establishment']","1350 Oakland Road, San Jose",37.3705737,-121.8918363
64,"Santa Clara, California",rv_park,ChIJy-Ivk863j4ARFWgtnjAuYM0,Fox Hollow Mobile Home Community,"['rv_park', 'lodging', 'point_of_interest', 'establishment']","690 Persian Drive, Sunnyvale",37.405851,-122.007954
65,"Santa Clara, California",rv_park,ChIJbc5dksy3j4AR0yskvTDXtbg,El Dorado Mobile Home Park,"['rv_park', 'lodging', 'point_of_interest', 'establishment']","600 East Weddell Drive, Sunnyvale",37.3998136,-122.0105095
66,"Santa Clara, California",rv_park,ChIJrydalzW2j4AR-SF4V0R6hp4,VRENT - Fairoaks Mobile Lodge,"['rv_park', 'lodging', 'point_of_interest', 'establishment']","580 Ahwanee Avenue, Sunnyvale",37.395001,-122.015132
67,"Santa Clara, California",rv_park,ChIJg-8xHee1j4ARopr4Cl89Ql0,ALOHA Mobile Home Park,"['rv_park', 'lodging', 'point_of_interest', 'establishment']","915 East El Camino Real, Sunnyvale",37.35346069999999,-122.0128953
68,"Santa Clara, California",rv_park,ChIJKX3GbdXJj4AR1d3fc_gedTA,Adobe Wells,"['rv_park', 'lodging', 'point_of_interest', 'establishment']","1220 Tasman Drive, Sunnyvale",37.4017103,-121.99333
69,"Santa Clara, California",rv_park,ChIJI8Q5sPq1j4ARKuOWhTNI66Y,Rancho La Mesa,"['rv_park', 'lodging', 'point_of_interest', 'establishment']","1201 Sycamore Terrace, Sunnyvale",37.3544024,-122.0028495
70,"Santa Clara, California",rv_park,ChIJ8RNrU7G3j4ARk1wk5kaytio,Cape Cod Village,"['rv_park', 'lodging', 'point_of_interest', 'establishment']","1050 Borregas Avenue, Sunnyvale",37.40057609999999,-122.0212928
71,"Santa Clara, California",rv_park,ChIJD2TaguY0joAR3pJBta0fcq4,Paseo De Palomas Inc,"['rv_park', 'lodging', 'point_of_interest', 'establishment']","295 Union Avenue, Campbell",37.28120099999999,-121.939441
72,"Santa Clara, California",rv_park,ChIJexT4fnDMj4ARDx0Njk_L1oI,Garden City RV Park,"['rv_park', 'lodging', 'point_of_interest', 'establishment']","1309 Oakland Road, San Jose",37.3677623,-121.8923382
73,"Santa Clara, California",rv_park,ChIJC-l-VcU0joAReVH3O9_ZXM0,Quail Hollow,"['rv_park', 'lodging', 'point_of_interest', 'establishment']","1445 South Bascom Avenue, San Jose",37.2984809,-121.9321339
74,"Santa Clara, California",rv_park,ChIJcScwfOozjoAR4V-npP-21i0,California Southwestern Insurance Agency,"['rv_park', 'insurance_agency', 'lodging', 'point_of_interest', 'establishment']","51 East Campbell Avenue #106h, Campbell",37.2877837,-121.9488924
75,"Santa Clara, California",rv_park,ChIJoTiH4sm3j4ARSh1sWRy8rlc,Willow Ranch,"['rv_park', 'lodging', 'point_of_interest', 'establishment']","1111 Morse Avenue, Sunnyvale",37.4036586,-122.0175681
76,"Santa Clara, California",rv_park,ChIJ4Ycs0R-3j4AR2NiQGTxXSMA,New Frontier Mobile Home Park,"['rv_park', 'lodging', 'point_of_interest', 'establishment']","325 Sylvan Avenue, Mountain View",37.3849099,-122.0585372
77,"Santa Clara, California",rv_park,ChIJzy54P-C2j4ARhMWgmpWtdNU,Sunset Estates Mobile Home Pk,"['rv_park', 'lodging', 'point_of_interest', 'establishment']","433 Sylvan Avenue, Mountain View",37.3839273,-122.059859
78,"Santa Clara, California",rv_park,ChIJu9xqzwI1joARdrPR9f1_ygo,Timber Cove,"['rv_park', 'lodging', 'point_of_interest', 'establishment']","870 Camden Avenue, Campbell",37.2744427,-121.9484442
79,"Santa Clara, California",rv_park,ChIJ2yyN6izNj4AR6G0ZmZsopAc,Sunshadow,"['rv_park', 'lodging', 'point_of_interest', 'establishment']","1350 Panoche Avenue, San Jose",37.3329224,-121.8488414
80,"Santa Clara, California",rv_park,ChIJqaptUmXMj4ARMnTW11EpT3U,Trailer Tel RV Park,"['rv_park', 'lodging', 'point_of_interest', 'establishment']","1212 Oakland Road, San Jose",37.3672712,-121.8903324
81,"Santa Clara, California",rv_park,ChIJfWIt4gDJj4ARUYI6c4eBSkI,Westwinds,"['rv_park', 'lodging', 'point_of_interest', 'establishment']","500 Nicholson Lane, San Jose",37.415746,-121.9447398
82,"Santa Clara, California",rv_park,ChIJ19AmQtO3j4ARBbgbh8bctyY,Casa De Amigos Mobile Park,"['rv_park', 'lodging', 'point_of_interest', 'establishment']","1085 Tasman Drive, Sunnyvale",37.4057121,-121.9988719
83,"Santa Clara, California",rv_park,ChIJMQO9Rm7Mj4ARkZSLhwzBEVc,South Bay Mobile Home Park,"['rv_park', 'lodging', 'point_of_interest', 'establishment']","1350 Oakland Road, San Jose",37.3705737,-121.8918363
84,"Santa Clara, California",rv_park,ChIJy-Ivk863j4ARFWgtnjAuYM0,Fox Hollow Mobile Home Community,"['rv_park', 'lodging', 'point_of_interest', 'establishment']","690 Persian Drive, Sunnyvale",37.405851,-122.007954
85,"Santa Clara, California",rv_park,ChIJbc5dksy3j4AR0yskvTDXtbg,El Dorado Mobile Home Park,"['rv_park', 'lodging', 'point_of_interest', 'establishment']","600 East Weddell Drive, Sunnyvale",37.3998136,-122.0105095
86,"Santa Clara, California",rv_park,ChIJrydalzW2j4AR-SF4V0R6hp4,VRENT - Fairoaks Mobile Lodge,"['rv_park', 'lodging', 'point_of_interest', 'establishment']","580 Ahwanee Avenue, Sunnyvale",37.395001,-122.015132
87,"Santa Clara, California",rv_park,ChIJg-8xHee1j4ARopr4Cl89Ql0,ALOHA Mobile Home Park,"['rv_park', 'lodging', 'point_of_interest', 'establishment']","915 East El Camino Real, Sunnyvale",37.35346069999999,-122.0128953
88,"Santa Clara, California",rv_park,ChIJKX3GbdXJj4AR1d3fc_gedTA,Adobe Wells,"['rv_park', 'lodging', 'point_of_interest', 'establishment']","1220 Tasman Drive, Sunnyvale",37.4017103,-121.99333
89,"Santa Clara, California",rv_park,ChIJI8Q5sPq1j4ARKuOWhTNI66Y,Rancho La Mesa,"['rv_park', 'lodging', 'point_of_interest', 'establishment']","1201 Sycamore Terrace, Sunnyvale",37.3544024,-122.0028495
90,"Santa Clara, California",rv_park,ChIJ8RNrU7G3j4ARk1wk5kaytio,Cape Cod Village,"['rv_park', 'lodging', 'point_of_interest', 'establishment']","1050 Borregas Avenue, Sunnyvale",37.40057609999999,-122.0212928
91,"Santa Clara, California",rv_park,ChIJD2TaguY0joAR3pJBta0fcq4,Paseo De Palomas Inc,"['rv_park', 'lodging', 'point_of_interest', 'establishment']","295 Union Avenue, Campbell",37.28120099999999,-121.939441
92,"Santa Clara, California",rv_park,ChIJexT4fnDMj4ARDx0Njk_L1oI,Garden City RV Park,"['rv_park', 'lodging', 'point_of_interest', 'establishment']","1309 Oakland Road, San Jose",37.3677623,-121.8923382
93,"Santa Clara, California",rv_park,ChIJC-l-VcU0joAReVH3O9_ZXM0,Quail Hollow,"['rv_park', 'lodging', 'point_of_interest', 'establishment']","1445 South Bascom Avenue, San Jose",37.2984809,-121.9321339
94,"Santa Clara, California",rv_park,ChIJcScwfOozjoAR4V-npP-21i0,California Southwestern Insurance Agency,"['rv_park', 'insurance_agency', 'lodging', 'point_of_interest', 'establishment']","51 East Campbell Avenue #106h, Campbell",37.2877837,-121.9488924
95,"Santa Clara, California",rv_park,ChIJoTiH4sm3j4ARSh1sWRy8rlc,Willow Ranch,"['rv_park', 'lodging', 'point_of_interest', 'establishment']","1111 Morse Avenue, Sunnyvale",37.4036586,-122.0175681
96,"Santa Clara, California",rv_park,ChIJ4Ycs0R-3j4AR2NiQGTxXSMA,New Frontier Mobile Home Park,"['rv_park', 'lodging', 'point_of_interest', 'establishment']","325 Sylvan Avenue, Mountain View",37.3849099,-122.0585372
97,"Santa Clara, California",rv_park,ChIJzy54P-C2j4ARhMWgmpWtdNU,Sunset Estates Mobile Home Pk,"['rv_park', 'lodging', 'point_of_interest', 'establishment']","433 Sylvan Avenue, Mountain View",37.3839273,-122.059859
98,"Santa Clara, California",rv_park,ChIJu9xqzwI1joARdrPR9f1_ygo,Timber Cove,"['rv_park', 'lodging', 'point_of_interest', 'establishment']","870 Camden Avenue, Campbell",37.2744427,-121.9484442
99,"Santa Clara, California",rv_park,ChIJ2yyN6izNj4AR6G0ZmZsopAc,Sunshadow,"['rv_park', 'lodging', 'point_of_interest', 'establishment']","1350 Panoche Avenue, San Jose",37.3329224,-121.8488414
0,"San Jose, California",rv_park,ChIJI5D90PEyjoARrQjWlFvzDUA,Spanish Cove Mobile Home Park,"['rv_park', 'lodging', 'point_of_interest', 'establishment']","2600 Senter Road, San Jose",37.3036874,-121.8431532
1,"San Jose, California",rv_park,ChIJqaptUmXMj4ARMnTW11EpT3U,Trailer Tel RV Park,"['rv_park', 'lodging', 'point_of_interest', 'establishment']","1212 Oakland Road, San Jose",37.3672712,-121.8903324
2,"San Jose, California",rv_park,ChIJMQO9Rm7Mj4ARkZSLhwzBEVc,South Bay Mobile Home Park,"['rv_park', 'lodging', 'point_of_interest', 'establishment']","1350 Oakland Road, San Jose",37.3705737,-121.8918363
3,"San Jose, California",rv_park,ChIJO8oQ5UgyjoARq8gBTAG8IAQ,California Hawaiian,"['rv_park', 'lodging', 'point_of_interest', 'establishment']","3637 Snell Avenue, San Jose",37.2788309,-121.8448778
4,"San Jose, California",rv_park,ChIJ3fBoH6UyjoARox0RGBJ4rWk,Eastridge Estates,"['rv_park', 'lodging', 'point_of_interest', 'establishment']","1955 Quimby Road, San Jose",37.33018,-121.821763
5,"San Jose, California",rv_park,ChIJD2TaguY0joAR3pJBta0fcq4,Paseo De Palomas Inc,"['rv_park', 'lodging', 'point_of_interest', 'establishment']","295 Union Avenue, Campbell",37.28120099999999,-121.939441
6,"San Jose, California",rv_park,ChIJ2yyN6izNj4AR6G0ZmZsopAc,Sunshadow,"['rv_park', 'lodging', 'point_of_interest', 'establishment']","1350 Panoche Avenue, San Jose",37.3329224,-121.8488414
7,"San Jose, California",rv_park,ChIJexT4fnDMj4ARDx0Njk_L1oI,Garden City RV Park,"['rv_park', 'lodging', 'point_of_interest', 'establishment']","1309 Oakland Road, San Jose",37.3677623,-121.8923382
8,"San Jose, California",rv_park,ChIJC-l-VcU0joAReVH3O9_ZXM0,Quail Hollow,"['rv_park', 'lodging', 'point_of_interest', 'establishment']","1445 South Bascom Avenue, San Jose",37.2984809,-121.9321339
9,"San Jose, California",rv_park,ChIJcScwfOozjoAR4V-npP-21i0,California Southwestern Insurance Agency,"['rv_park', 'insurance_agency', 'lodging', 'point_of_interest', 'establishment']","51 East Campbell Avenue #106h, Campbell",37.2877837,-121.9488924
10,"San Jose, California",rv_park,ChIJv6R0JVYyjoARc0Z0MMFQruY,Ace Trailer Inn Manufactured Home and RV Community,"['rv_park', 'real_estate_agency', 'lodging', 'point_of_interest', 'establishment']","2800 Monterey Street, San Jose",37.2934279,-121.8486109
11,"San Jose, California",rv_park,ChIJ5T6qORkzjoARFgs9sHT-ZcM,Pepper Tree Estates,"['rv_park', 'lodging', 'point_of_interest', 'establishment']","2150 Monterey Street #26, San Jose",37.3058971,-121.8602108
12,"San Jose, California",rv_park,ChIJW2_2tvkyjoARJ3llCKaWJvQ,County Fair Mobile Estates Llc,"['rv_park', 'lodging', 'point_of_interest', 'establishment']","270 Umbarger Road, San Jose",37.298072,-121.8471933
13,"San Jose, California",rv_park,ChIJq_oHB64zjoARnVH352o7XJs,Mountain Springs,"['rv_park', 'lodging', 'point_of_interest', 'establishment']","625 Hillsdale Avenue, San Jose",37.2808367,-121.8623719
14,"San Jose, California",rv_park,ChIJTxoBFYEyjoAR44jMuyvVZQ4,Woodbridge Mobile Home Park,"['rv_park', 'lodging', 'point_of_interest', 'establishment']","3051 Towers Lane, San Jose",37.3066031,-121.8154314
15,"San Jose, California",rv_park,ChIJB87P-igzjoARso-Wcq_C948,Maple Leaf,"['rv_park', 'lodging', 'point_of_interest', 'establishment']",San Jose,37.3213322,-121.8597843
16,"San Jose, California",rv_park,ChIJt1tymVgyjoARizorzD7gb_E,Caribbee's Mobile Home Park,"['rv_park', 'lodging', 'point_of_interest', 'establishment']","411 Lewis Road, San Jose",37.29577250000001,-121.8408841
17,"San Jose, California",rv_park,ChIJu9xqzwI1joARdrPR9f1_ygo,Timber Cove,"['rv_park', 'lodging', 'point_of_interest', 'establishment']","870 Camden Avenue, Campbell",37.2744427,-121.9484442
18,"San Jose, California",rv_park,ChIJuQWpjtnMj4ARN8BLT0MFPyk,San Jose Trailer Park,"['rv_park', 'lodging', 'point_of_interest', 'establishment']","527 McLaughlin Avenue #6, San Jose",37.3396268,-121.8615981
19,"San Jose, California",rv_park,ChIJf73UH1YyjoARubpG6sA90gk,Western Trailer Park,"['rv_park', 'lodging', 'point_of_interest', 'establishment']","2784 Monterey Street, San Jose",37.2941587,-121.8486889
20,"San Jose, California",rv_park,ChIJI5D90PEyjoARrQjWlFvzDUA,Spanish Cove Mobile Home Park,"['rv_park', 'lodging', 'point_of_interest', 'establishment']","2600 Senter Road, San Jose",37.3036874,-121.8431532
21,"San Jose, California",rv_park,ChIJqaptUmXMj4ARMnTW11EpT3U,Trailer Tel RV Park,"['rv_park', 'lodging', 'point_of_interest', 'establishment']","1212 Oakland Road, San Jose",37.3672712,-121.8903324
22,"San Jose, California",rv_park,ChIJMQO9Rm7Mj4ARkZSLhwzBEVc,South Bay Mobile Home Park,"['rv_park', 'lodging', 'point_of_interest', 'establishment']","1350 Oakland Road, San Jose",37.3705737,-121.8918363
23,"San Jose, California",rv_park,ChIJO8oQ5UgyjoARq8gBTAG8IAQ,California Hawaiian,"['rv_park', 'lodging', 'point_of_interest', 'establishment']","3637 Snell Avenue, San Jose",37.2788309,-121.8448778
24,"San Jose, California",rv_park,ChIJ3fBoH6UyjoARox0RGBJ4rWk,Eastridge Estates,"['rv_park', 'lodging', 'point_of_interest', 'establishment']","1955 Quimby Road, San Jose",37.33018,-121.821763
25,"San Jose, California",rv_park,ChIJD2TaguY0joAR3pJBta0fcq4,Paseo De Palomas Inc,"['rv_park', 'lodging', 'point_of_interest', 'establishment']","295 Union Avenue, Campbell",37.28120099999999,-121.939441
26,"San Jose, California",rv_park,ChIJ2yyN6izNj4AR6G0ZmZsopAc,Sunshadow,"['rv_park', 'lodging', 'point_of_interest', 'establishment']","1350 Panoche Avenue, San Jose",37.3329224,-121.8488414
27,"San Jose, California",rv_park,ChIJexT4fnDMj4ARDx0Njk_L1oI,Garden City RV Park,"['rv_park', 'lodging', 'point_of_interest', 'establishment']","1309 Oakland Road, San Jose",37.3677623,-121.8923382
28,"San Jose, California",rv_park,ChIJC-l-VcU0joAReVH3O9_ZXM0,Quail Hollow,"['rv_park', 'lodging', 'point_of_interest', 'establishment']","1445 South Bascom Avenue, San Jose",37.2984809,-121.9321339
29,"San Jose, California",rv_park,ChIJcScwfOozjoAR4V-npP-21i0,California Southwestern Insurance Agency,"['rv_park', 'insurance_agency', 'lodging', 'point_of_interest', 'establishment']","51 East Campbell Avenue #106h, Campbell",37.2877837,-121.9488924
30,"San Jose, California",rv_park,ChIJv6R0JVYyjoARc0Z0MMFQruY,Ace Trailer Inn Manufactured Home and RV Community,"['rv_park', 'real_estate_agency', 'lodging', 'point_of_interest', 'establishment']","2800 Monterey Street, San Jose",37.2934279,-121.8486109
31,"San Jose, California",rv_park,ChIJ5T6qORkzjoARFgs9sHT-ZcM,Pepper Tree Estates,"['rv_park', 'lodging', 'point_of_interest', 'establishment']","2150 Monterey Street #26, San Jose",37.3058971,-121.8602108
32,"San Jose, California",rv_park,ChIJW2_2tvkyjoARJ3llCKaWJvQ,County Fair Mobile Estates Llc,"['rv_park', 'lodging', 'point_of_interest', 'establishment']","270 Umbarger Road, San Jose",37.298072,-121.8471933
33,"San Jose, California",rv_park,ChIJq_oHB64zjoARnVH352o7XJs,Mountain Springs,"['rv_park', 'lodging', 'point_of_interest', 'establishment']","625 Hillsdale Avenue, San Jose",37.2808367,-121.8623719
34,"San Jose, California",rv_park,ChIJTxoBFYEyjoAR44jMuyvVZQ4,Woodbridge Mobile Home Park,"['rv_park', 'lodging', 'point_of_interest', 'establishment']","3051 Towers Lane, San Jose",37.3066031,-121.8154314
35,"San Jose, California",rv_park,ChIJB87P-igzjoARso-Wcq_C948,Maple Leaf,"['rv_park', 'lodging', 'point_of_interest', 'establishment']",San Jose,37.3213322,-121.8597843
36,"San Jose, California",rv_park,ChIJt1tymVgyjoARizorzD7gb_E,Caribbee's Mobile Home Park,"['rv_park', 'lodging', 'point_of_interest', 'establishment']","411 Lewis Road, San Jose",37.29577250000001,-121.8408841
37,"San Jose, California",rv_park,ChIJu9xqzwI1joARdrPR9f1_ygo,Timber Cove,"['rv_park', 'lodging', 'point_of_interest', 'establishment']","870 Camden Avenue, Campbell",37.2744427,-121.9484442
38,"San Jose, California",rv_park,ChIJuQWpjtnMj4ARN8BLT0MFPyk,San Jose Trailer Park,"['rv_park', 'lodging', 'point_of_interest', 'establishment']","527 McLaughlin Avenue #6, San Jose",37.3396268,-121.8615981
39,"San Jose, California",rv_park,ChIJf73UH1YyjoARubpG6sA90gk,Western Trailer Park,"['rv_park', 'lodging', 'point_of_interest', 'establishment']","2784 Monterey Street, San Jose",37.2941587,-121.8486889
40,"San Jose, California",rv_park,ChIJI5D90PEyjoARrQjWlFvzDUA,Spanish Cove Mobile Home Park,"['rv_park', 'lodging', 'point_of_interest', 'establishment']","2600 Senter Road, San Jose",37.3036874,-121.8431532
41,"San Jose, California",rv_park,ChIJqaptUmXMj4ARMnTW11EpT3U,Trailer Tel RV Park,"['rv_park', 'lodging', 'point_of_interest', 'establishment']","1212 Oakland Road, San Jose",37.3672712,-121.8903324
42,"San Jose, California",rv_park,ChIJMQO9Rm7Mj4ARkZSLhwzBEVc,South Bay Mobile Home Park,"['rv_park', 'lodging', 'point_of_interest', 'establishment']","1350 Oakland Road, San Jose",37.3705737,-121.8918363
43,"San Jose, California",rv_park,ChIJO8oQ5UgyjoARq8gBTAG8IAQ,California Hawaiian,"['rv_park', 'lodging', 'point_of_interest', 'establishment']","3637 Snell Avenue, San Jose",37.2788309,-121.8448778
44,"San Jose, California",rv_park,ChIJ3fBoH6UyjoARox0RGBJ4rWk,Eastridge Estates,"['rv_park', 'lodging', 'point_of_interest', 'establishment']","1955 Quimby Road, San Jose",37.33018,-121.821763
45,"San Jose, California",rv_park,ChIJD2TaguY0joAR3pJBta0fcq4,Paseo De Palomas Inc,"['rv_park', 'lodging', 'point_of_interest', 'establishment']","295 Union Avenue, Campbell",37.28120099999999,-121.939441
46,"San Jose, California",rv_park,ChIJ2yyN6izNj4AR6G0ZmZsopAc,Sunshadow,"['rv_park', 'lodging', 'point_of_interest', 'establishment']","1350 Panoche Avenue, San Jose",37.3329224,-121.8488414
47,"San Jose, California",rv_park,ChIJexT4fnDMj4ARDx0Njk_L1oI,Garden City RV Park,"['rv_park', 'lodging', 'point_of_interest', 'establishment']","1309 Oakland Road, San Jose",37.3677623,-121.8923382
48,"San Jose, California",rv_park,ChIJC-l-VcU0joAReVH3O9_ZXM0,Quail Hollow,"['rv_park', 'lodging', 'point_of_interest', 'establishment']","1445 South Bascom Avenue, San Jose",37.2984809,-121.9321339
49,"San Jose, California",rv_park,ChIJcScwfOozjoAR4V-npP-21i0,California Southwestern Insurance Agency,"['rv_park', 'insurance_agency', 'lodging', 'point_of_interest', 'establishment']","51 East Campbell Avenue #106h, Campbell",37.2877837,-121.9488924
50,"San Jose, California",rv_park,ChIJv6R0JVYyjoARc0Z0MMFQruY,Ace Trailer Inn Manufactured Home and RV Community,"['rv_park', 'real_estate_agency', 'lodging', 'point_of_interest', 'establishment']","2800 Monterey Street, San Jose",37.2934279,-121.8486109
51,"San Jose, California",rv_park,ChIJ5T6qORkzjoARFgs9sHT-ZcM,Pepper Tree Estates,"['rv_park', 'lodging', 'point_of_interest', 'establishment']","2150 Monterey Street #26, San Jose",37.3058971,-121.8602108
52,"San Jose, California",rv_park,ChIJW2_2tvkyjoARJ3llCKaWJvQ,County Fair Mobile Estates Llc,"['rv_park', 'lodging', 'point_of_interest', 'establishment']","270 Umbarger Road, San Jose",37.298072,-121.8471933
53,"San Jose, California",rv_park,ChIJq_oHB64zjoARnVH352o7XJs,Mountain Springs,"['rv_park', 'lodging', 'point_of_interest', 'establishment']","625 Hillsdale Avenue, San Jose",37.2808367,-121.8623719
54,"San Jose, California",rv_park,ChIJTxoBFYEyjoAR44jMuyvVZQ4,Woodbridge Mobile Home Park,"['rv_park', 'lodging', 'point_of_interest', 'establishment']","3051 Towers Lane, San Jose",37.3066031,-121.8154314
55,"San Jose, California",rv_park,ChIJB87P-igzjoARso-Wcq_C948,Maple Leaf,"['rv_park', 'lodging', 'point_of_interest', 'establishment']",San Jose,37.3213322,-121.8597843
56,"San Jose, California",rv_park,ChIJt1tymVgyjoARizorzD7gb_E,Caribbee's Mobile Home Park,"['rv_park', 'lodging', 'point_of_interest', 'establishment']","411 Lewis Road, San Jose",37.29577250000001,-121.8408841
57,"San Jose, California",rv_park,ChIJu9xqzwI1joARdrPR9f1_ygo,Timber Cove,"['rv_park', 'lodging', 'point_of_interest', 'establishment']","870 Camden Avenue, Campbell",37.2744427,-121.9484442
58,"San Jose, California",rv_park,ChIJuQWpjtnMj4ARN8BLT0MFPyk,San Jose Trailer Park,"['rv_park', 'lodging', 'point_of_interest', 'establishment']","527 McLaughlin Avenue #6, San Jose",37.3396268,-121.8615981
59,"San Jose, California",rv_park,ChIJf73UH1YyjoARubpG6sA90gk,Western Trailer Park,"['rv_park', 'lodging', 'point_of_interest', 'establishment']","2784 Monterey Street, San Jose",37.2941587,-121.8486889
60,"San Jose, California",rv_park,ChIJI5D90PEyjoARrQjWlFvzDUA,Spanish Cove Mobile Home Park,"['rv_park', 'lodging', 'point_of_interest', 'establishment']","2600 Senter Road, San Jose",37.3036874,-121.8431532
61,"San Jose, California",rv_park,ChIJqaptUmXMj4ARMnTW11EpT3U,Trailer Tel RV Park,"['rv_park', 'lodging', 'point_of_interest', 'establishment']","1212 Oakland Road, San Jose",37.3672712,-121.8903324
62,"San Jose, California",rv_park,ChIJMQO9Rm7Mj4ARkZSLhwzBEVc,South Bay Mobile Home Park,"['rv_park', 'lodging', 'point_of_interest', 'establishment']","1350 Oakland Road, San Jose",37.3705737,-121.8918363
63,"San Jose, California",rv_park,ChIJO8oQ5UgyjoARq8gBTAG8IAQ,California Hawaiian,"['rv_park', 'lodging', 'point_of_interest', 'establishment']","3637 Snell Avenue, San Jose",37.2788309,-121.8448778
64,"San Jose, California",rv_park,ChIJ3fBoH6UyjoARox0RGBJ4rWk,Eastridge Estates,"['rv_park', 'lodging', 'point_of_interest', 'establishment']","1955 Quimby Road, San Jose",37.33018,-121.821763
65,"San Jose, California",rv_park,ChIJD2TaguY0joAR3pJBta0fcq4,Paseo De Palomas Inc,"['rv_park', 'lodging', 'point_of_interest', 'establishment']","295 Union Avenue, Campbell",37.28120099999999,-121.939441
66,"San Jose, California",rv_park,ChIJ2yyN6izNj4AR6G0ZmZsopAc,Sunshadow,"['rv_park', 'lodging', 'point_of_interest', 'establishment']","1350 Panoche Avenue, San Jose",37.3329224,-121.8488414
67,"San Jose, California",rv_park,ChIJexT4fnDMj4ARDx0Njk_L1oI,Garden City RV Park,"['rv_park', 'lodging', 'point_of_interest', 'establishment']","1309 Oakland Road, San Jose",37.3677623,-121.8923382
68,"San Jose, California",rv_park,ChIJC-l-VcU0joAReVH3O9_ZXM0,Quail Hollow,"['rv_park', 'lodging', 'point_of_interest', 'establishment']","1445 South Bascom Avenue, San Jose",37.2984809,-121.9321339
69,"San Jose, California",rv_park,ChIJcScwfOozjoAR4V-npP-21i0,California Southwestern Insurance Agency,"['rv_park', 'insurance_agency', 'lodging', 'point_of_interest', 'establishment']","51 East Campbell Avenue #106h, Campbell",37.2877837,-121.9488924
70,"San Jose, California",rv_park,ChIJv6R0JVYyjoARc0Z0MMFQruY,Ace Trailer Inn Manufactured Home and RV Community,"['rv_park', 'real_estate_agency', 'lodging', 'point_of_interest', 'establishment']","2800 Monterey Street, San Jose",37.2934279,-121.8486109
71,"San Jose, California",rv_park,ChIJ5T6qORkzjoARFgs9sHT-ZcM,Pepper Tree Estates,"['rv_park', 'lodging', 'point_of_interest', 'establishment']","2150 Monterey Street #26, San Jose",37.3058971,-121.8602108
72,"San Jose, California",rv_park,ChIJW2_2tvkyjoARJ3llCKaWJvQ,County Fair Mobile Estates Llc,"['rv_park', 'lodging', 'point_of_interest', 'establishment']","270 Umbarger Road, San Jose",37.298072,-121.8471933
73,"San Jose, California",rv_park,ChIJq_oHB64zjoARnVH352o7XJs,Mountain Springs,"['rv_park', 'lodging', 'point_of_interest', 'establishment']","625 Hillsdale Avenue, San Jose",37.2808367,-121.8623719
74,"San Jose, California",rv_park,ChIJTxoBFYEyjoAR44jMuyvVZQ4,Woodbridge Mobile Home Park,"['rv_park', 'lodging', 'point_of_interest', 'establishment']","3051 Towers Lane, San Jose",37.3066031,-121.8154314
75,"San Jose, California",rv_park,ChIJB87P-igzjoARso-Wcq_C948,Maple Leaf,"['rv_park', 'lodging', 'point_of_interest', 'establishment']",San Jose,37.3213322,-121.8597843
76,"San Jose, California",rv_park,ChIJt1tymVgyjoARizorzD7gb_E,Caribbee's Mobile Home Park,"['rv_park', 'lodging', 'point_of_interest', 'establishment']","411 Lewis Road, San Jose",37.29577250000001,-121.8408841
77,"San Jose, California",rv_park,ChIJu9xqzwI1joARdrPR9f1_ygo,Timber Cove,"['rv_park', 'lodging', 'point_of_interest', 'establishment']","870 Camden Avenue, Campbell",37.2744427,-121.9484442
78,"San Jose, California",rv_park,ChIJuQWpjtnMj4ARN8BLT0MFPyk,San Jose Trailer Park,"['rv_park', 'lodging', 'point_of_interest', 'establishment']","527 McLaughlin Avenue #6, San Jose",37.3396268,-121.8615981
79,"San Jose, California",rv_park,ChIJf73UH1YyjoARubpG6sA90gk,Western Trailer Park,"['rv_park', 'lodging', 'point_of_interest', 'establishment']","2784 Monterey Street, San Jose",37.2941587,-121.8486889
80,"San Jose, California",rv_park,ChIJI5D90PEyjoARrQjWlFvzDUA,Spanish Cove Mobile Home Park,"['rv_park', 'lodging', 'point_of_interest', 'establishment']","2600 Senter Road, San Jose",37.3036874,-121.8431532
81,"San Jose, California",rv_park,ChIJqaptUmXMj4ARMnTW11EpT3U,Trailer Tel RV Park,"['rv_park', 'lodging', 'point_of_interest', 'establishment']","1212 Oakland Road, San Jose",37.3672712,-121.8903324
82,"San Jose, California",rv_park,ChIJMQO9Rm7Mj4ARkZSLhwzBEVc,South Bay Mobile Home Park,"['rv_park', 'lodging', 'point_of_interest', 'establishment']","1350 Oakland Road, San Jose",37.3705737,-121.8918363
83,"San Jose, California",rv_park,ChIJO8oQ5UgyjoARq8gBTAG8IAQ,California Hawaiian,"['rv_park', 'lodging', 'point_of_interest', 'establishment']","3637 Snell Avenue, San Jose",37.2788309,-121.8448778
84,"San Jose, California",rv_park,ChIJ3fBoH6UyjoARox0RGBJ4rWk,Eastridge Estates,"['rv_park', 'lodging', 'point_of_interest', 'establishment']","1955 Quimby Road, San Jose",37.33018,-121.821763
85,"San Jose, California",rv_park,ChIJD2TaguY0joAR3pJBta0fcq4,Paseo De Palomas Inc,"['rv_park', 'lodging', 'point_of_interest', 'establishment']","295 Union Avenue, Campbell",37.28120099999999,-121.939441
86,"San Jose, California",rv_park,ChIJ2yyN6izNj4AR6G0ZmZsopAc,Sunshadow,"['rv_park', 'lodging', 'point_of_interest', 'establishment']","1350 Panoche Avenue, San Jose",37.3329224,-121.8488414
87,"San Jose, California",rv_park,ChIJexT4fnDMj4ARDx0Njk_L1oI,Garden City RV Park,"['rv_park', 'lodging', 'point_of_interest', 'establishment']","1309 Oakland Road, San Jose",37.3677623,-121.8923382
88,"San Jose, California",rv_park,ChIJC-l-VcU0joAReVH3O9_ZXM0,Quail Hollow,"['rv_park', 'lodging', 'point_of_interest', 'establishment']","1445 South Bascom Avenue, San Jose",37.2984809,-121.9321339
89,"San Jose, California",rv_park,ChIJcScwfOozjoAR4V-npP-21i0,California Southwestern Insurance Agency,"['rv_park', 'insurance_agency', 'lodging', 'point_of_interest', 'establishment']","51 East Campbell Avenue #106h, Campbell",37.2877837,-121.9488924
90,"San Jose, California",rv_park,ChIJv6R0JVYyjoARc0Z0MMFQruY,Ace Trailer Inn Manufactured Home and RV Community,"['rv_park', 'real_estate_agency', 'lodging', 'point_of_interest', 'establishment']","2800 Monterey Street, San Jose",37.2934279,-121.8486109
91,"San Jose, California",rv_park,ChIJ5T6qORkzjoARFgs9sHT-ZcM,Pepper Tree Estates,"['rv_park', 'lodging', 'point_of_interest', 'establishment']","2150 Monterey Street #26, San Jose",37.3058971,-121.8602108
92,"San Jose, California",rv_park,ChIJW2_2tvkyjoARJ3llCKaWJvQ,County Fair Mobile Estates Llc,"['rv_park', 'lodging', 'point_of_interest', 'establishment']","270 Umbarger Road, San Jose",37.298072,-121.8471933
93,"San Jose, California",rv_park,ChIJq_oHB64zjoARnVH352o7XJs,Mountain Springs,"['rv_park', 'lodging', 'point_of_interest', 'establishment']","625 Hillsdale Avenue, San Jose",37.2808367,-121.8623719
94,"San Jose, California",rv_park,ChIJTxoBFYEyjoAR44jMuyvVZQ4,Woodbridge Mobile Home Park,"['rv_park', 'lodging', 'point_of_interest', 'establishment']","3051 Towers Lane, San Jose",37.3066031,-121.8154314
95,"San Jose, California",rv_park,ChIJB87P-igzjoARso-Wcq_C948,Maple Leaf,"['rv_park', 'lodging', 'point_of_interest', 'establishment']",San Jose,37.3213322,-121.8597843
96,"San Jose, California",rv_park,ChIJt1tymVgyjoARizorzD7gb_E,Caribbee's Mobile Home Park,"['rv_park', 'lodging', 'point_of_interest', 'establishment']","411 Lewis Road, San Jose",37.29577250000001,-121.8408841
97,"San Jose, California",rv_park,ChIJu9xqzwI1joARdrPR9f1_ygo,Timber Cove,"['rv_park', 'lodging', 'point_of_interest', 'establishment']","870 Camden Avenue, Campbell",37.2744427,-121.9484442
98,"San Jose, California",rv_park,ChIJuQWpjtnMj4ARN8BLT0MFPyk,San Jose Trailer Park,"['rv_park', 'lodging', 'point_of_interest', 'establishment']","527 McLaughlin Avenue #6, San Jose",37.3396268,-121.8615981
99,"San Jose, California",rv_park,ChIJf73UH1YyjoARubpG6sA90gk,Western Trailer Park,"['rv_park', 'lodging', 'point_of_interest', 'establishment']","2784 Monterey Street, San Jose",37.2941587,-121.8486889
0,"Milpitas, California",rv_park,ChIJqaptUmXMj4ARMnTW11EpT3U,Trailer Tel RV Park,"['rv_park', 'lodging', 'point_of_interest', 'establishment']","1212 Oakland Road, San Jose",37.3672712,-121.8903324
1,"Milpitas, California",rv_park,ChIJfWIt4gDJj4ARUYI6c4eBSkI,Westwinds,"['rv_park', 'lodging', 'point_of_interest', 'establishment']","500 Nicholson Lane, San Jose",37.415746,-121.9447398
2,"Milpitas, California",rv_park,ChIJMQO9Rm7Mj4ARkZSLhwzBEVc,South Bay Mobile Home Park,"['rv_park', 'lodging', 'point_of_interest', 'establishment']","1350 Oakland Road, San Jose",37.3705737,-121.8918363
3,"Milpitas, California",rv_park,ChIJ19AmQtO3j4ARBbgbh8bctyY,Casa De Amigos Mobile Park,"['rv_park', 'lodging', 'point_of_interest', 'establishment']","1085 Tasman Drive, Sunnyvale",37.4057121,-121.9988719
4,"Milpitas, California",rv_park,ChIJQ0qQm6PIj4ARZ6w6_V5XVcI,Morgan Royce Industries Inc,"['rv_park', 'lodging', 'point_of_interest', 'establishment']","49050 Milmont Drive, Fremont",37.4580764,-121.9198373
5,"Milpitas, California",rv_park,ChIJKX3GbdXJj4AR1d3fc_gedTA,Adobe Wells,"['rv_park', 'lodging', 'point_of_interest', 'establishment']","1220 Tasman Drive, Sunnyvale",37.4017103,-121.99333
6,"Milpitas, California",rv_park,ChIJexT4fnDMj4ARDx0Njk_L1oI,Garden City RV Park,"['rv_park', 'lodging', 'point_of_interest', 'establishment']","1309 Oakland Road, San Jose",37.3677623,-121.8923382
7,"Milpitas, California",rv_park,ChIJ58eM76_Ij4ARgRFwVVTAtf0,Pioneer Mobile Home Park,"['rv_park', 'lodging', 'point_of_interest', 'establishment']","60 Wilson Way, Milpitas",37.4577353,-121.9138345
8,"Milpitas, California",rv_park,ChIJo26K21LIj4ARX7qnOPLExQU,Lamplighter San Jose,"['rv_park', 'lodging', 'point_of_interest', 'establishment']","4201 North 1st Street, San Jose",37.4167275,-121.9608914
9,"Milpitas, California",rv_park,ChIJo_Bz9nLMj4ARY1D3muCx4WY,Golden Wheel Mobile Home Park,"['rv_park', 'lodging', 'point_of_interest', 'establishment']","900 Golden Wheel Park Drive, San Jose",37.3745175,-121.8918448
10,"Milpitas, California",rv_park,ChIJLwK7bz3Mj4ARHSNb9fJ0Wu4,Summerset Mobile Estates,"['rv_park', 'lodging', 'point_of_interest', 'establishment']","2052 Gold Street, Alviso",37.42119330000001,-121.9729606
11,"Milpitas, California",rv_park,ChIJZWplg7rIj4ARFBbvpSqss9A,Friendly Village Home Park,"['rv_park', 'lodging', 'point_of_interest', 'establishment']","120 Dixon Landing Rd, Milpitas",37.4552592,-121.913309
12,"Milpitas, California",rv_park,ChIJN2yKcrrIj4ARZZj9ENwbUGY,Mobilodge of Milpitas,"['rv_park', 'lodging', 'point_of_interest', 'establishment']","1515 North Milpitas Boulevard, Milpitas",37.45313760000001,-121.912398
13,"Milpitas, California",rv_park,ChIJTdLEnXHMj4ARRgJlT6foDIs,Riverbend Mobile Home Park,"['rv_park', 'lodging', 'point_of_interest', 'establishment']","1358 Oakland Road, San Jose",37.37296360000001,-121.8910896
14,"Milpitas, California",rv_park,ChIJW-QTelLIj4ARDxr4x7DRLn8,Oak Crest Estates,"['rv_park', 'lodging', 'point_of_interest', 'establishment']","4271 North 1st Street, San Jose",37.4180516,-121.9627305
15,"Milpitas, California",rv_park,ChIJNfcnEKjNj4ARynoOZNZ8bxk,La Buona Vita-Mobile Park,"['rv_park', 'lodging', 'point_of_interest', 'establishment']","445 North Capitol Avenue, San Jose",37.3733565,-121.8465902
16,"Milpitas, California",rv_park,ChIJlx4ee7zKj4ARhUsmQTYy2WU,Plaza Del Rey Mobile Home Park,"['rv_park', 'lodging', 'point_of_interest', 'establishment']","1225 Vienna Drive, Sunnyvale",37.4021055,-121.9996218
0,"Fremont, California",rv_park,ChIJjY38oj3Hj4ARrI36tVNHsiM,Southlake,"['rv_park', 'lodging', 'point_of_interest', 'establishment']","4343 Auto Mall Parkway, Fremont",37.51197379999999,-121.9588434
1,"Fremont, California",rv_park,ChIJt8iur0PAj4ARE7ouEMKd3x0,Niles Canyon Mobile Estates,"['rv_park', 'lodging', 'point_of_interest', 'establishment']","711 Old Canyon Road, Fremont",37.57854799999999,-121.967008
2,"Fremont, California",rv_park,ChIJndcF9o-Vj4ARuFP2F0-DrY8,Tropics Mobile Home Park,"['rv_park', 'lodging', 'point_of_interest', 'establishment']","33000 Almaden Boulevard, Union City",37.588498,-122.0507621
3,"Fremont, California",rv_park,ChIJy59F1omVj4ARiosvez1h2yM,Besaro Mobile Home Community,"['rv_park', 'lodging', 'point_of_interest', 'establishment']","4141 Deep Creek Road, Fremont",37.57803,-122.0533485
4,"Fremont, California",rv_park,ChIJMV_ehceVj4AREcieLCxusDQ,Central Park West,"['rv_park', 'lodging', 'point_of_interest', 'establishment']","2500 Parkside Drive, Union City",37.6023808,-122.0613897
0,"Livermore, California",rv_park,ChIJV355CU3oj4ARbpnDa9sspeE,Vineyard Estates,"['rv_park', 'lodging', 'point_of_interest', 'establishment']","3263 Vineyard Avenue, Pleasanton",37.664999,-121.8533238
1,"Livermore, California",rv_park,ChIJv4j4zE3oj4AR_a0cd2LqzFY,Pleasanton Hacienda Mobile Home,"['rv_park', 'lodging', 'point_of_interest', 'establishment']","3231 Vineyard Avenue, Pleasanton",37.666731,-121.8514547
2,"Livermore, California",rv_park,ChIJIVBLcjXmj4ARb4sx3rc9jmY,Sun Valley Mobile Estates,"['rv_park', 'lodging', 'point_of_interest', 'establishment']","835 East Airway Boulevard, Livermore",37.697895,-121.789101
3,"Livermore, California",rv_park,ChIJA4BiQSTnj4ARldLBxQ3Tw4g,Sunrise Mobile Park,"['rv_park', 'lodging', 'point_of_interest', 'establishment']","856 Sundial Circle, Livermore",37.7058729,-121.734986
4,"Livermore, California",rv_park,ChIJt8LGU9Lgj4AR0osH9_897BI,Vasco Mobile Home Park,"['rv_park', 'lodging', 'point_of_interest', 'establishment']","6539 Southfront Road, Livermore",37.7097012,-121.7157426
5,"Livermore, California",rv_park,ChIJg7UMxLjnj4ARp0KHI0h45Ko,Lonesome Dove Estates,"['rv_park', 'lodging', 'point_of_interest', 'establishment']","828 Olivina Avenue, Livermore",37.6830711,-121.7861825
6,"Livermore, California",rv_park,ChIJnRuodCTnj4ARL3tEIRrZVJs,INSTITUTE FOR PSYCHEDELIC RESEARCH,"['rv_park', 'lodging', 'point_of_interest', 'establishment']","444 Sundial Circle, Livermore",37.7057477,-121.7362898
0,"Dublin, California",rv_park,ChIJV355CU3oj4ARbpnDa9sspeE,Vineyard Estates,"['rv_park', 'lodging', 'point_of_interest', 'establishment']","3263 Vineyard Avenue, Pleasanton",37.664999,-121.8533238
1,"Dublin, California",rv_park,ChIJv4j4zE3oj4AR_a0cd2LqzFY,Pleasanton Hacienda Mobile Home,"['rv_park', 'lodging', 'point_of_interest', 'establishment']","3231 Vineyard Avenue, Pleasanton",37.666731,-121.8514547
2,"Dublin, California",rv_park,ChIJyby3S53pj4ARyxvG1f1rGxY,Alameda County Fairgrounds RV Park,"['rv_park', 'lodging', 'point_of_interest', 'establishment']","Road 12, 2100 Valley Avenue, Pleasanton",37.6630275,-121.8970147
3,"Dublin, California",rv_park,ChIJeYn91p7pj4ARq5uY-gfsLs4,Fairview Trailer Park,"['rv_park', 'lodging', 'point_of_interest', 'establishment']","785 Rose Avenue, Pleasanton",37.6638517,-121.8817198
